Country Code,Port Location,Port Name,Port Authority,Address,Phone,Fax,800 Number,Email,Web Site,Latitude,Longitude,UN/LOCODE,Port Type,Port Size,Country
DZA,Annaba,Port of Annaba,Entreprise Portuaire de Annaba,"Mole Cigogne
Quai Nord
Annaba 1232 - 23000
Algeria",213 38 86 3143,213 38 86 54 15,,epan@annaba-port.com,www.annaba-port.com,"36° 54' 2"" N","7° 46' 21"" E",DZAAE,Seaport,Medium,
DZA,Arzew El-Djedid,Port of Arzew El-Djedid,,"Arzew El-Djedid
Algeria",,,,,,"35° 49' 8"" N","0° 15' 22"" W",,Seaport,Medium,
DZA,Mers El Kebir,Port of Mers El Kebir,,"Mers El Kebir
Algeria",,,,,,"35° 43' 25"" N","0° 41' 10"" W",,Seaport,Medium,
DZA,Oran,Port of Oran,Entreprise Portuaire d'Oran,"1 Rue du 20 Aout
Oran 31000
Algeria",213 41 332441,213 41 332498,,,,"35° 42' 44"" N","0° 38' 23"" W",DZORN,Seaport,Medium,
DZA,Skikda,Port of Skikda,Skikda Port Enterprise,"BP 65
Avenue Rezki Rahal
Skikda 21000
Algeria",213 38 756827,213 38 752015,,info@skikda-port.com,www.skikda-port.com,"36° 53' 15"" N","6° 54' 21"" E",DZSKI,Seaport,Medium,
ASM,Pago-Pago,Port of Pago-Pago,American Samoa Government,"Territory of American Samoa
Pago-Pago 96799
American Samoa",684 633-4251,684 633-5281,,,americansamoa.gov,"14° 16' 27"" S","170° 41' 26"" W",ASPPG,Seaport,Medium,
AGO,Lobito,Port of Lobito,"Empresa Portuaria Do Lobito , E.P.","Avenida da Independencia
CP 16
Lobito
Angola",244 722 23439,244 272 222719,,,,"12° 20' 13"" S","13° 34' 15"" E",AOLOB,Deepwater Seaport,Medium,
AGO,Luanda,Porto de Luanda,Administracao do Porto de Luanda,"Largo 4 de Fevereiro
Luanda 1229
Angola",+244 2 335975,,,portoluanda@snet.co.ao,www.otal.com/angola,"8° 47' 2"" S","13° 15' 5"" E",AOLAD,Deepwater Seaport,Medium,
ARG,La Plata,Port of La Plata,Consortium of Administration of La Plata Port,Argentina,54 221 460 0203,,,Info@laplataport.com.ar,www.laplataport.com.ar,"34° 51' 19"" S","57° 53' 39"" W",ARLPG,River Port,Medium,
ARG,Puerto Nuevo,Terminales Rio de la Plata,,"Av. Ramon Castillo y Av. Comodoro Py
Puerto Nuevo
Argentina",5411 4319-9500,5411 4315-2700,,info@trp.com.ar,www.trp.com.ar,"34° 35' 11"" S","58° 21' 49"" W",,Seaport,Medium,
ARG,La Plata,Port of La Plata,Consortium of Administration of La Plata Port,Argentina,54 221 460 0203,,,Info@laplataport.com.ar,www.laplataport.com.ar,"34° 51' 19"" S","57° 53' 39"" W",ARLPG,River Port,Medium,
ARG,Puerto Deseado,Port of Puerto Deseado,Deseado de la Provincia del Santa Cruz,"Zona Portuaria S/N
Puerto Deseado, Santa Cruz 9050
Argentina",54 0297-4872234,54 0297-487091466,,pdeseado@pdeseado.com.ar,www.scruz.gov.ar/puertos,"47° 45' 20"" S","65° 54' 23"" W",ARPUD,Seaport,Medium,
ARG,Puerto Nuevo,Terminales Rio de la Plata,,"Av. Ramon Castillo y Av. Comodoro Py
Puerto Nuevo
Argentina",5411 4319-9500,5411 4315-2700,,info@trp.com.ar,www.trp.com.ar,"34° 35' 11"" S","58° 21' 49"" W",,Seaport,Medium,
ARG,Quequen,Puerto Quequen,Consorcio de Gestion del Puerto de Quequen,"Avenue Juan de Garay 850
Quequen 7631
Argentina",54 02262 450006,54 02262 451453,,webcgpq@puertoquequen.com,www.puertoquequen.com,"38° 34' 32"" S","58° 43' 2"" W",ARQQN,Seaport,Medium,
ARG,Rio Grande,Port of Rio Grande,,"Rio Grande, Tierra del Fuego
Argentina",,,,,,"53° 47' 40"" S","67° 42' 14"" W",ARRGA,Harbor,Medium,
ARG,Santa Fe,Port of Santa Fe,,"Direccion Cabecera Darsena 1
Santa Fe, Santa Fe 3000
Argentina",0342 455-4393,0342 455-8392,,puertosantafe@puertosfe.com,www.puertosfe.com,"31° 39' 6"" S","60° 42' 0"" W",ARSFN,River Port,Medium,
ABW,Oranjestad,Port of Oranjestad,Aruba Ports Authority N.V.,"Port Administration Building
L.G. Smith Blvd. # 23
Oranjestad
Aruba",(297) 582-6633,(297) 583-2896,,,www.arubaports.com,"12° 31' 12"" N","70° 2' 31"" W",AWORJ,Deepwater Seaport,Medium,
ABW,San Nicolas,Port of San Nicolas,Coastal Aruba Refining Co NV,"Postbus 2150
San Nicolas
Aruba",+297 589 4500,+297 589 8000,,,www.rocargo.com/SanNicolas.html,"12° 26' 15"" N","69° 55' 39"" W",AWSNL,Harbor,Medium,
AUS,Adelaide,Port of Adelaide,Flinders Ports Pty Ltd,"296 St Vincent Street
Port Adelaide, South Australia 5015
Australia",61 8 8447 0611,61 8 8447 0606,800 060 450,flindersports@flindersports.com.au,www.flindersports.com.au,"34° 47' 57"" S","138° 30' 45"" E",AUADL,Seaport,Medium,
AUS,Darwin,Port of Darwin,Darwin Port Corporation,"GPO Box 390
Darwin, Northern Territory 0801
Australia",+ 61 (8) 8922 0660,+ 61 (8) 8922 0666,,darwinport.dpa@nt.gov.au,www.darwinport.nt.gov.au,"12° 28' 13"" S","130° 51' 28"" E",AUDRW,Seaport,Medium,
AUS,Fremantle,Fremantle Port,Fremantle Port Authority,"PO Box 95
Fremantle, Western Australia 6959
Australia",61 (08) 9430 3555,61 (08) 9336 1391,,mail@fremantleports.com.au,www.fremantleports.com.au,"32° 2' 51"" S","115° 44' 27"" E",AUFRE,Seaport,Medium,
AUS,Geelong,Port of Geelong,GeelongPort,"Geelong
Australia",03 52470206,03 52470203,,l.ward@patrick.com.au,www.geelongport.com.au,"38° 7' 36"" S","144° 23' 23"" E",AUGEX,Seaport,Medium,
AUS,Gladstone,Port of Gladstone,Gladstone Ports Corporation,"19 Yarroon Street
PO Box 259
Gladstone, Queensland 4680
Australia",61 7 4976 1333,61 7 4972 3045,,,www.gpcl.com.au,"23° 49' 48"" S","151° 15' 10"" E",AUGLT,Seaport,Medium,
AUS,Newcastle,Port of Newcastle,Newcastle Port Corporation,"PO Box 663
Newcastle, NSW 2300
Australia",02 - 4985 8222,,1800 048 205,mail@newportcorp.com,www.newportcorp.com.au,"32° 54' 27"" S","151° 46' 14"" E",AUNTL,Seaport,Medium,
AUS,Adelaide,Port of Adelaide,Flinders Ports Pty Ltd,"296 St Vincent Street
Port Adelaide, South Australia 5015
Australia",61 8 8447 0611,61 8 8447 0606,800 060 450,flindersports@flindersports.com.au,www.flindersports.com.au,"34° 47' 57"" S","138° 30' 45"" E",AUADL,Seaport,Medium,
AUS,Botany Bay,Port Botany,Sydney Ports,"207 Kent Street
Sydney, NSW 2000
Australia",61 2 9296 4999,61 2 9296 4742,,,www.sydneyports.com.au,"33° 58' 23"" S","151° 12' 54"" E",AUBTB,Seaport,Medium,
AUS,Darwin,Port of Darwin,Darwin Port Corporation,"GPO Box 390
Darwin, Northern Territory 0801
Australia",+ 61 (8) 8922 0660,+ 61 (8) 8922 0666,,darwinport.dpa@nt.gov.au,www.darwinport.nt.gov.au,"12° 28' 13"" S","130° 51' 28"" E",AUDRW,Seaport,Medium,
AUS,Finucane Island,Port of Finucane Island,BHP Billiton,"Finucane Island
Australia",,,,,,"20° 18' 39"" S","118° 33' 53"" E",,Seaport,Medium,
AUS,Fremantle,Fremantle Port,Fremantle Port Authority,"PO Box 95
Fremantle, Western Australia 6959
Australia",61 (08) 9430 3555,61 (08) 9336 1391,,mail@fremantleports.com.au,www.fremantleports.com.au,"32° 2' 51"" S","115° 44' 27"" E",AUFRE,Seaport,Medium,
AUS,Geelong,Port of Geelong,GeelongPort,"Geelong
Australia",03 52470206,03 52470203,,l.ward@patrick.com.au,www.geelongport.com.au,"38° 7' 36"" S","144° 23' 23"" E",AUGEX,Seaport,Medium,
AUS,Gladstone,Port of Gladstone,Gladstone Ports Corporation,"19 Yarroon Street
PO Box 259
Gladstone, Queensland 4680
Australia",61 7 4976 1333,61 7 4972 3045,,,www.gpcl.com.au,"23° 49' 48"" S","151° 15' 10"" E",AUGLT,Seaport,Medium,
AUS,Newcastle,Port of Newcastle,Newcastle Port Corporation,"PO Box 663
Newcastle, NSW 2300
Australia",02 - 4985 8222,,1800 048 205,mail@newportcorp.com,www.newportcorp.com.au,"32° 54' 27"" S","151° 46' 14"" E",AUNTL,Seaport,Medium,
AUS,Port Kembla,Port of Port Kembla,Port Kembla Port Corporation,"PO Box 89
Port Kembla, NSW 2505
Australia",61 2 4275 0100,61 2 4274 0643,,enquiries@kemblaport.com.au,www.kemblaport.com.au,"34° 27' 45"" S","150° 53' 58"" E",AUPKL,Seaport,Medium,
AUT,Enns,Port of Enns,EHG Ennshafen GmbH,"Donaustrasse 3
Enns A-4470
Austria",43 7223 84151,43 7223 84151 110,,office@ennshafen.at,www.ennshafen.at,"48° 13' 50"" N","14° 30' 19"" E",ATENA,River Port,Medium,
AUT,Krems,Port of Krems,Gesellschaft m.b.H. and Co KG,"Karl Mierka Str. 7-9
Krems A-3500
Austria",0043 (0) 2732 73571-,0043 (0) 2732 72557,,office@mierka.com,www.mierka.com,"48° 24' 12"" N","15° 38' 46"" E",ATKRE,River Port,Medium,
AUT,Linz,Port of Linz,LINZ SERVICE GmbH,"Regensburger Strasse 7
Linz 4020
Austria",0732/3400-6940,0732/3400-6903,,hafen.linz@linzag.at,www.linzag.at,"48° 18' 5"" N","14° 19' 47"" E",ATLNZ,River Port,Medium,
AUT,Vienna,Port of Vienna,Wiener Hafen,"Seitenhafenstrasse 15
Vienna A-1023
Austria",43/1/ 727 16-0,43/1/ 727 16-0,,office@wienerhafen.com,www.wienerhafen.com,"48° 13' 51"" N","16° 23' 59"" E",,River Port,Medium,
BHS,Freeport,Freeport Container Port,Freeport Container Port Limited,"Container Port Road / Queens Highway
P.O. Box F-42465
Freeport, Grand Bahama Island
Bahamas",242 350-8000,242 351-8044,,,www.freeportcontainerport.com,"26° 31' 28"" N","78° 46' 1"" W",BSFPO,Seaport,Medium,
BHR,Mina Salman,Port of Mina Salman,Ministry of Finance and National Economy,"PO Box 15
Bahrain",973 725555,973 725534,,brnport@batelco.com,www.bahrainports.gov.bh,"26° 11' 55"" N","50° 36' 43"" E",BHMIN,Seaport,Medium,
BGD,Chittagong,Port of Chittagong,Chittagong Port Authority (CPA),"Bandar Bhaban
P. O. Box 2013
Chittagong 4100
Bangladesh",880-31- 2522200,880-31- 2510889,,secretary@cpa.gov.bd,www.cpa.gov.bd,"22° 16' 8"" N","91° 49' 52"" E",BDCGP,Seaport,Medium,
BEL,Liege,Port of Liege,Port Autonome de Liege,"Quai de Maestricht
Liege DIRECTION ET AD
Belgium",04/232.97.97,04/223.11.09,,portdeliege@skynet.be,www.liege.port-autonome.be,"50° 39' 3"" N","5° 36' 25"" E",BELGG,River Port,Medium,
BEL,Nieuwpoort,Port of Nieuwpoort,Loodswezen,"Havengeul 1
Nieuwpoort BE-8620
Belgium",32 58 233 000,32 58 231 575,,,wwwe.loodswezen.nl,"51° 8' 28"" N","2° 44' 39"" E",BENIE,Seaport,Medium,
BEL,Oostende,Port Oostende,AG Haven Oostende,"Slijkensesteenweg 2
Oostende 8400
Belgium",+32 (0)59 34.07.11,+32 (0)59 34.07.10,,info@portofoostende.be,www.portofoostende.be,"51° 13' 43"" N","2° 56' 7"" E",BEOST,Seaport,Medium,
BEL,Zeebrugge,Port of Bruges-Zeebrugge,Maatschappij van de Brugse Zeevaartinrichtingen N.V. (MBZ).,"P. Vandammehuis, Isabellalaan 1
Zeebrugge B-8380
Belgium",32 50 54 32 11,32 50 54 32 24,,mbz@zeebruggeport.be,www.zeebruggeport.be,"51° 20' 11"" N","3° 12' 26"" E",BEZEE,Seaport,Medium,
BEN,Cotonou,Port of Cotonou,Ports Authority of Cotonou,"Cotonou
Benin",229 21315280,229 21312891,,pac@leland.bj,www.portdecotonou.com,"6° 20' 48"" N","2° 25' 32"" E",BJCOO,Seaport,Medium,
BMU,Hamilton,Port of Hamilton,Department of Marine and Port Services,"PO Box HM 180
Hamilton
Bermuda",441 295 6575,441 295 3718,,,,"32° 17' 28"" N","64° 46' 55"" W",BMBDA,Seaport,Medium,
BRA,Ipojuca,Suape Marine Terminal,Petrobras SA,"Suape Port and Industrial Complex
Km 10, Rodovia PE-60
Ipojuca, PE Cep:5590-000
Brazil",55 (81) 3527.5000,55 (81) 3527.5066,,suape@suape.pe.gov.br,www.suape.pe.gov.br,"8° 23' 54"" S","34° 58' 2"" W",BRIPO,Seaport,Medium,
BRA,Itaguai,Port of Itaguai,Companhia Docas do Rio de Janeiro (CDRJ),"Estrada da Ilha da Madeira, km 2,5
Itaguai, RJ CEP 23824-410
Brazil",55 21 2688 1424,55 21 2688 1287,,,www.portosrio.gov.br,"22° 55' 55"" S","43° 50' 37"" W",BRIGI,Seaport,Medium,
BRA,Paranagua,Port of Paranagua,Administracao dos Portos de Paranagua e Antonina,"Rua Antonio Pereira, 161
Paranagua, PR 83221-030
Brazil",55 14 1420 1100,55 14 1422 5324,,portos@pr.gov.br,www.portosdoparana.pr.gov.br,"25° 29' 49"" S","48° 30' 55"" W",BRPNG,Seaport,Medium,
BRA,Rio de Janeiro,Port of Rio de Janeiro,Companhia Docas do Rio de Janeiro (CDRJ),"Avenida Rodrigues Alves, n 20
Praca Maua
Rio de Janeiro, RJ CEP 20081-250
Brazil",2219-9542,,,suprio@portosrio.gov.br,www.portosrio.gov.br,"22° 52' 59"" S","43° 11' 48"" W",BRRIO,Seaport,Medium,
BRA,Rio Grande,Port of Rio Grande,Superintendencia do Porto de Rio Grande,"Av. Honorio Bicalho, S/N
CP 198
Rio Grande, RS 96201-020
Brazil",53 3231-1366,53 3231-1857,,ouvidoria@portosrs.com.br,www.portosrs.com.br,"32° 3' 22"" S","52° 4' 54"" W",BRRIG,Seaport,Medium,
BRA,Salvador,Port of Salvador,Companhia das Docas do Estado da Bahia (CODEBA),"Av. da Franca, 155 I, Comercio
Salvador, Bahia CEP 40.010-000
Brazil",71 320-1299,71 320-1268,,portosalvador@codeba.com.br,www.codeba.com.br,"12° 57' 31"" S","38° 30' 27"" W",BRSSA,Harbor,Medium,
BRA,Santos,Port of Santos,Dock Company of the State of Sao Paulo,"Companhia Docas do Estado de Sao Paulo (CODESP)
Avenida Rodrigues Alves s/n
Santos, Sao Baulo 11015-900
Brazil",(13) 3233-6565,(13) 3233-3080,,,www.portodesantos.com,"23° 58' 8"" S","46° 18' 3"" W",BRSSZ,Seaport,Medium,
BRA,Vitoria,Port of Vitoria,Companhia Docas do Espirito Santo (CODESA),"Av. Getulio Vargas, 556
Vitoria, ES CEP 29.020-030
Brazil",55 27 3132 7314,55 27 3132 7313,,falaporto@codesa.gov.br,www.portodevitoria.com.br,"20° 19' 24"" S","40° 20' 10"" W",BRVIX,Seaport,Medium,
BRA,Aratu,Port of Aratu,Companhia das Docas do Estado da Bahia (CODEBA),"Via Matoim, s/n
Baia de Aratu CEP 43.800-000
Brazil",71 602-5711,71 602-5705,,portoaratu@codeba.com.br,www.codeba.com.br,"12° 47' 5"" S","38° 29' 20"" W",BRARB,Seaport,Medium,
BRA,Belem,Port of Belem,Companhia Docas do Para - Autoridade Portuaria,"Endereco Av. Marechal Hermes s/n
Cais do Porto
Belem, Para CEP 66010-000
Brazil",91 3216-2129,91 3216-2130,,evandro@cdp.com.br,www.cdp.com.br,"1° 27' 6"" S","48° 29' 8"" W",BRBEL,"Pier, Jetty or Wharf",Medium,
BRA,Ipojuca,Suape Marine Terminal,Petrobras SA,"Suape Port and Industrial Complex
Km 10, Rodovia PE-60
Ipojuca, PE Cep:5590-000
Brazil",55 (81) 3527.5000,55 (81) 3527.5066,,suape@suape.pe.gov.br,www.suape.pe.gov.br,"8° 23' 54"" S","34° 58' 2"" W",BRIPO,Seaport,Medium,
BRA,Itaguai,Port of Itaguai,Companhia Docas do Rio de Janeiro (CDRJ),"Estrada da Ilha da Madeira, km 2,5
Itaguai, RJ CEP 23824-410
Brazil",55 21 2688 1424,55 21 2688 1287,,,www.portosrio.gov.br,"22° 55' 55"" S","43° 50' 37"" W",BRIGI,Seaport,Medium,
BRA,Itajai,Port of Itajai,,"Rua Blumenau, 05
Itajai, Santa Catarina CEP 88.305-101
Brazil",55 47 341 8000,55 47 341 8075,,atendimento@portoitajai.com.br,www.portoitajai.com.br,"26° 53' 28"" S","48° 40' 37"" W",BRITJ,Seaport,Medium,
BRA,Itaqui,Port of Itaqui,Empresa Maranhense de Administracao Portuaria (EMAP),"Av. dos Portugueses s/n
Itaqui, Sao Luis CEP: 65085-370
Brazil",98 3216-6000,98 3216-6060,,,,"2° 34' 10"" S","44° 22' 14"" W",BRITQ,Seaport,Medium,
BRA,Manaus,Port of Manaus,Port of Manaus,"Rua Marques de Santa Cruz, no25 - Centro
Manaus, AM 69005 050
Brazil",55 92 2123 4350,55 92 2123 4360,,alecom@portodemanaus.com.br,www.portodemanaus.com.br,"3° 8' 35"" S","60° 1' 1"" W",BRMAO,River Port,Medium,
BRA,Paranagua,Port of Paranagua,Administracao dos Portos de Paranagua e Antonina,"Rua Antonio Pereira, 161
Paranagua, PR 83221-030
Brazil",55 14 1420 1100,55 14 1422 5324,,portos@pr.gov.br,www.portosdoparana.pr.gov.br,"25° 29' 49"" S","48° 30' 55"" W",BRPNG,Seaport,Medium,
BRA,Porto Alegre,Port of Porto Alegre,Administracao do Porto de Porto Alegre,"Av Maua 1050 Centro
Porto Alegre, RS 90010-110
Brazil",55 51 3211 5022,55 51 3211 5033,,,,"30° 1' 3"" S","51° 13' 42"" W",BRPOA,Seaport,Medium,
BRA,Praia Mole,Port of Praia Mole,Administracao do Porto de Praia Mole,"c/o CIA Siderurgica de Tubarao
Av Brig Eduardo Gomes s/n
Carapina - Serra, ES 29164-280
Brazil",55 27 3328 0055,55 27 3228 2330,,,,"20° 17' 38"" S","40° 14' 13"" W",BRPRM,Seaport,Medium,
BRA,Recife,Port of Recife,,"Praça Comunidade Luso Brasileira no 70
Bairro do Recife
Recife, PE 50030-280
Brazil",81 3419.1900,81 3224.2848,,portodorecife@portodorecife.pe.gov.br,www.portodorecife.pe.gov.br,"8° 3' 13"" S","34° 52' 13"" W",BRREC,Harbor,Medium,
BRA,Rio de Janeiro,Port of Rio de Janeiro,Companhia Docas do Rio de Janeiro (CDRJ),"Avenida Rodrigues Alves, n 20
Praca Maua
Rio de Janeiro, RJ CEP 20081-250
Brazil",2219-9542,,,suprio@portosrio.gov.br,www.portosrio.gov.br,"22° 52' 59"" S","43° 11' 48"" W",BRRIO,Seaport,Medium,
BRA,Rio Grande,Port of Rio Grande,Superintendencia do Porto de Rio Grande,"Av. Honorio Bicalho, S/N
CP 198
Rio Grande, RS 96201-020
Brazil",53 3231-1366,53 3231-1857,,ouvidoria@portosrs.com.br,www.portosrs.com.br,"32° 3' 22"" S","52° 4' 54"" W",BRRIG,Seaport,Medium,
BRA,Salvador,Port of Salvador,Companhia das Docas do Estado da Bahia (CODEBA),"Av. da Franca, 155 I, Comercio
Salvador, Bahia CEP 40.010-000
Brazil",71 320-1299,71 320-1268,,portosalvador@codeba.com.br,www.codeba.com.br,"12° 57' 31"" S","38° 30' 27"" W",BRSSA,Harbor,Medium,
BRA,Santos,Port of Santos,Dock Company of the State of Sao Paulo,"Companhia Docas do Estado de Sao Paulo (CODESP)
Avenida Rodrigues Alves s/n
Santos, Sao Baulo 11015-900
Brazil",(13) 3233-6565,(13) 3233-3080,,,www.portodesantos.com,"23° 58' 8"" S","46° 18' 3"" W",BRSSZ,Seaport,Medium,
BRA,Tubarao,Port of Tubarao,Vale,"Tubarao
Brazil",,,,,www.vale.com,"20° 17' 21"" S","40° 14' 50"" W",BRTUB,Seaport,Medium,
BRA,Usiba,Port of Usiba,Administracao do Porto de Usiba,"BR 234 Km 16
Cia Simoes Filho
Bahia
Brazil",55 71 3011 2757,55 71 3011 1158,,,,"12° 46' 59"" S","38° 29' 25"" W",,Seaport,Medium,
BRA,Vitoria,Port of Vitoria,Companhia Docas do Espirito Santo (CODESA),"Av. Getulio Vargas, 556
Vitoria, ES CEP 29.020-030
Brazil",55 27 3132 7314,55 27 3132 7313,,falaporto@codesa.gov.br,www.portodevitoria.com.br,"20° 19' 24"" S","40° 20' 10"" W",BRVIX,Seaport,Medium,
BGR,Varna,Port of Varna,Bulgarian Ports Authority,"1 Slaveikov Square
Varna 9000
Bulgaria",67 77518 PORT BG,359 (052) 632 953,,headoffice@port-varna.bg,www.port-varna.bg,"43° 11' 40"" N","27° 53' 30"" E",BGVAR,Seaport,Medium,
KHM,Phnom Penh,Port of Phnom Penh,Port Authority of Phnom Penh,"#2, Baksei Cham Krong St.
Sangkat Wat Phnom, Khan Daun Penh
Phnom Penh
Cambodia",855-23 427 802,,,ppapmpwt@bigpond.com.kh,www.ppap.com.kh,"11° 34' 59"" N","104° 55' 24"" E",KHPNH,River Port,Medium,
CMR,Douala,Port of Douala,Office National Des Ports Du Cameroun,"5 Boulevard Leclerc
Douala BP 4020
Cameroon",237 420133,237 426797,,,www.otal.com/cameroon/index.htm,"4° 3' 27"" N","9° 41' 20"" E",CMDLA,Seaport,Medium,
CAN,Fraser River,Fraser River Port,Vancouver Fraser Port Authority,"400 - 625 Agnes Street
New Westminster, British Columbia V3M 5Y4
Canada",604-665-9500,,,info@vfpa.ca,www.frpa.com,"49° 11' 12"" N","122° 55' 12"" W",CAFRR,River Port,Medium,
CAN,Prince Rupert,Prince Rupert Port,Prince Rupert Port Authority,"200 - 215 Cow Bay Rd.
Prince Rupert, British Columbia V8J 1A2
Canada",250 627-8899,250 627-8980,,pcorp@rupertport.com,www.rupertport.com,"54° 18' 35"" N","130° 20' 21"" W",CAPRR,Seaport,Medium,
CAN,Sydney,Port of Sydney,Sydney Port Corp Inc,"PO Box 327
Sydney, NS B1P 6H2
Canada",902 564 6882,902 564 0911,,info@sydneyport.ca,www.portofsydney.ca,"46° 8' 31"" N","60° 12' 17"" W",CASYD,Seaport,Medium,
CAN,Toronto,Port of Toronto,The Toronto Port Authority,"60 Harbour Street
Toronto, Ontario M5J 1B7
Canada",416-863-2000,416-863-4830,,info@torontoport.com,www.torontoport.com,"43° 38' 3"" N","79° 22' 8"" W",CATOR,Seaport,Medium,
CAN,Becancour,Port of Becancour,Societe du parc Industriel et portuaire de Becancour,"1000 boulevard Arthur-Sicard
Becancour, Quebec G9H 2Z8
Canada",819 294-6656,819 294-9020,,spipb@spipb.com,www.spipb.com,"46° 24' 8"" N","72° 23' 15"" W",CABEC,Seaport,Medium,
CAN,Chemainus,Port of Chemainus,Transport Canada Harbour and Ports,"10031 Old Chemainus Road
RR#1 Chemainus, B.C.
Chemainus V0R 1K0
Canada",(250) 246-2682,,,,,"48° 55' 23"" N","123° 42' 39"" W",CACHM,Seaport,Medium,
CAN,Dalhousie,Port of Dalhousie,Port of Dalhousie Inc.,"442-B Williams Street
Dalhousie, NB E8C 2X6
Canada",506-684-3346,506-684-3388,,pdi@nb.aibn.com,www.portofdalhousie.com,"48° 4' 16"" N","66° 22' 19"" W",CADHS,Harbor,Medium,
CAN,Delta,Westshore Terminals,Westshore Terminals Limited Partnership,"1 Roberts Bank
Delta, BC V4M 4G5
Canada",604- 946-4491 ,,,info@westshore.com,www.westshore.com,"49° 1' 1"" N","123° 9' 37"" W",,Seaport,Medium,
CAN,Esquimalt,Esquimalt Harbor,,"Esquimalt
Canada",,,,,,"48° 26' 11"" N","123° 26' 6"" W",CAESQ,Seaport,Medium,
CAN,Fraser River,Fraser River Port,Vancouver Fraser Port Authority,"400 - 625 Agnes Street
New Westminster, British Columbia V3M 5Y4
Canada",604-665-9500,,,info@vfpa.ca,www.frpa.com,"49° 11' 12"" N","122° 55' 12"" W",CAFRR,River Port,Medium,
CAN,Hamilton,Hamilton Port,Hamilton Port Authority,"605 James Street
North Hamilton, Ontario L8L 1K1
Canada",905 525-4330,905 528-6554,800 263-2131,info@hamiltonport.ca,www.hamiltonport.ca,"43° 17' 5"" N","79° 49' 34"" W",CAHAM,Seaport,Medium,
CAN,Port Hawkesbury,Port of Port Hawkesbury,Strait of Canso Superport Corporation,"P.O. Box 238
428 Main Street
Mulgrave, NS B0E 2G0
Canada",902-747-2410,902-747-2453,,timgilfoy@straitsuperport.com,www.straitsuperport.com,"45° 35' 27"" N","61° 21' 13"" W",CAPHW,Seaport,Medium,
CAN,Prince Rupert,Prince Rupert Port,Prince Rupert Port Authority,"200 - 215 Cow Bay Rd.
Prince Rupert, British Columbia V8J 1A2
Canada",250 627-8899,250 627-8980,,pcorp@rupertport.com,www.rupertport.com,"54° 18' 35"" N","130° 20' 21"" W",CAPRR,Seaport,Medium,
CAN,Richmond,Port North Fraser,Vancouver Fraser Port Authority,"7911 Grauer Road
Richmond, British Columbia V7B 1N4
Canada",604-665-9600,,,info@vfpa.ca,www.nfpa.ca,"49° 11' 59"" N","123° 8' 3"" W",,River Port,Medium,
CAN,Saint John,Saint John Port,Saint John Port Authority,"111 Water St.
Saint John, New Brunswick E2L 0B1
Canada",506-636-4869,506-636-4443,,port@sjport.com,www.sjport.com,"45° 15' 59"" N","66° 3' 22"" W",CASJB,Seaport,Medium,
CAN,Sept-Iles,Port of Sept-Iles,Sept-Iles Port Authority,"1 Quai Mgr Blanche
Sept-Iles
Quebec G4R 5P3
Canada",418-968-1231,418-962-4445,,portsi@portsi.com,www.portsi.com,"50° 11' 47"" N","66° 22' 46"" W",CASEI,Harbor,Medium,
CAN,St. John's,Port of St. John's,St. John's Port Authority,"P.O. Box 6178
1 Water St
St. John's, Newfoundland A1C 5X8
Canada",709 738-4782,709 738-4784,,info@sjpa.com,www.sjpa.com,"47° 33' 45"" N","52° 41' 51"" W",CASJF,Harbor,Medium,
CAN,Sydney,Port of Sydney,Sydney Port Corp Inc,"PO Box 327
Sydney, NS B1P 6H2
Canada",902 564 6882,902 564 0911,,info@sydneyport.ca,www.portofsydney.ca,"46° 8' 31"" N","60° 12' 17"" W",CASYD,Seaport,Medium,
CAN,Thunder Bay,Thunder Bay Port Authority,Thunder Bay Port Authority,"100 Main Street
Thunder Bay, Ontario P7B 6R9
Canada",807-345-6400,807-345-9058,,tim@tbport.on.ca,www.portofthunderbay.ca,"48° 24' 50"" N","89° 13' 19"" W",CATHU,Seaport,Medium,
CAN,Toronto,Port of Toronto,The Toronto Port Authority,"60 Harbour Street
Toronto, Ontario M5J 1B7
Canada",416-863-2000,416-863-4830,,info@torontoport.com,www.torontoport.com,"43° 38' 3"" N","79° 22' 8"" W",CATOR,Seaport,Medium,
CHL,Arica,Port of Arica,Empresa Portuaria Arica (EPA),"Maximo Lira #389
Arica
Chile",56 (58) 202080,56 (58) 202090,,puertoarica@puertoarica.cl,www.puertoarica.cl,"18° 28' 23"" S","70° 19' 30"" W",CLARI,Seaport,Medium,
CHL,San Antonio,Puerto San Antonio,Multioperated Terminal,"Alan Macowan
San Antonio 0245
Chile",56 35 586 000,56 35 586 015,,,www.sanantonioport.com,"33° 35' 15"" S","71° 37' 8"" W",CLSAI,Harbor,Medium,
CHL,Valparaiso,Empresa Portuaria Valparaiso,The Portuaria Valparaiso Company,"Av. Errazuriz # 25
Valparaiso
Chile",56 32 448800,56 32 224190,,,www.portvalparaiso.cl,"33° 2' 7"" S","71° 37' 14"" W",CLVAP,Seaport,Medium,
CHL,Antofagasta,Port of Antofagasta,Empresa Portuaria Antofagasta,"Avda. Grecia S/N
Antofagasta
Chile",56 55 351177,56 55 351101,,fhauck@puertoantofagasta.cl,www.puertoantofagasta.cl,"23° 39' 1"" S","70° 24' 21"" W",CLANF,Seaport,Medium,
CHL,Arica,Port of Arica,Empresa Portuaria Arica (EPA),"Maximo Lira #389
Arica
Chile",56 (58) 202080,56 (58) 202090,,puertoarica@puertoarica.cl,www.puertoarica.cl,"18° 28' 23"" S","70° 19' 30"" W",CLARI,Seaport,Medium,
CHL,Coquimbo,Port of Coquimbo,Empresa Portuaria Coquimbo,"Melgarejo No 676
Coquimbo
Chile",56 51 313606,56 51 326146,,ptocqq@entelchile.net,www.puertocoquimbo.cl,"29° 56' 53"" S","71° 20' 4"" W",CLCQQ,Seaport,Medium,
CHL,San Antonio,Puerto San Antonio,Multioperated Terminal,"Alan Macowan
San Antonio 0245
Chile",56 35 586 000,56 35 586 015,,,www.sanantonioport.com,"33° 35' 15"" S","71° 37' 8"" W",CLSAI,Harbor,Medium,
CHL,Talcahuano,Port of Talcahuano,Empresa Portuaria Talcahuano San Vicente,"Avenida Blanco Encalada 547
Talcahuano
Chile",(56-41) 797600,(56-41) 797626,,eportuaria@puertotalcahuano.cl,www.puertotalcahuano.cl,"36° 42' 19"" S","73° 6' 13"" W",CLTAL,Seaport,Medium,
CHL,Valparaiso,Empresa Portuaria Valparaiso,The Portuaria Valparaiso Company,"Av. Errazuriz # 25
Valparaiso
Chile",56 32 448800,56 32 224190,,,www.portvalparaiso.cl,"33° 2' 7"" S","71° 37' 14"" W",CLVAP,Seaport,Medium,
CHN,Guangzhou,Nansha Port,,"Guangzhou
China",,,,,,"22° 38' 25"" N","113° 40' 25"" E",CNXSA,Seaport,Medium,
CHN,Guangzhou,Port of Guangzhou,Guangzhou Port Affairs Bureau,"531 Gangqian Road
Huangpu District
Guangzhou, Guangdong 510000
China",86 20 8227 9412,86 20 8227 8303,,,www.gzport.com,"23° 5' 39"" N","113° 24' 53"" E",CNXSA,Seaport,Medium,
CHN,Huangpu,Port of Huangpu,,"Huangpu
China",,,,,,"23° 3' 43"" N","113° 29' 12"" E",CNHUA,Seaport,Medium,
CHN,Xingang,Port of Xingang,Port of Tianjin Authority,"35 Xingang Road No 2
Tanggu
Tianjin, Heibei 300456
China",86 22 2570 5239,86 22 2570 9747,,wsc@tianjinport.ptacn.com,www.ptacn.com,"38° 58' 57"" N","117° 44' 26"" E",CNXGG,Seaport,Medium,
CHN,Baoshan,Port of Baoshan,,"Baoshan
China",,,,,,"31° 24' 10"" N","121° 29' 47"" E",,Seaport,Medium,
CHN,Bayuquan,Port of Bayuquan,,"Bayuquan
China",,,,,,"40° 16' 53"" N","122° 5' 0"" E",CNBAY,Seaport,Medium,
CHN,Beihai,Port of Beihai,Beihai Harbour Administration,"Administration Office
75 Haijiao Road
Beihai, Guangxi 536000
China",86 779 303 3481,86 779 303 6387,,,,"21° 27' 31"" N","109° 4' 22"" E",CNBHY,Seaport,Medium,
CHN,Beilun,Port of Beilun,,"Beilun
China",,,,,,"29° 56' 17"" N","121° 51' 16"" E",,Seaport,Medium,
CHN,Bengbu,Port of Bengbu,Bengbu Harbour Administration,"1 Shengping Street
Central District
Bengbu, Anhui 233000
China",,,,,,"32° 57' 25"" N","117° 21' 37"" E",CNBFU,River Port,Medium,
CHN,Changde,Port of Changde,Changde Harbour and Shipping Administration Department,"Dahe Street
Changde, Hunan 415000
China",,,,,,"29° 1' 36"" N","111° 41' 16"" E",CNCDE,River Port,Medium,
CHN,Changsha,Port of Changsha,Changsha Harbour Administration Bureau,"82 Wuyi Xi Road
Changsha, Hunan 410005
China",,,,,,"28° 11' 56"" N","112° 57' 37"" E",CNCSX,River Port,Medium,
CHN,Chenglingji,Port of Chenglingji,Chenglingji Port Authority,"Port Administration Office
2 Changjiang Road
Chenglingji, Hunan 414002
China",86 730 856 1761,,,,,"29° 26' 31"" N","113° 8' 39"" E",CNCLJ,River Port,Medium,
CHN,Chongming,Port of Chongming,,"Chongming
China",,,,,,"31° 37' 38"" N","121° 23' 7"" E",CNCMG,Seaport,Medium,
CHN,Da Chan Bay,Da Chan Bay Terminal One,Da Chan Bay Terminal One,"Xi Xiang
Bao An District
Shenzhen 518102
China",(86) 755 2902 2888,(86) 755 2902 2828,,commercial@DaChanBayOne.com,www.dachanbayone.com,"22° 32' 39"" N","113° 51' 23"" E",,Seaport,Medium,
CHN,Dongdu,Port of Dongdu,,"Dongdu
China",,,,,,"24° 29' 46"" N","118° 4' 53"" E",,Seaport,Medium,
CHN,Fuqing,Port of Fuqing,,"Fuqing
China",,,,,www.fqgk.com,"26° 0' 41"" N","119° 29' 4"" E",,Seaport,Medium,
CHN,Fuzhou,Port of Fuzhou,Fuzhou Port Affairs Bureau,"Port Administration Office
Gangkou Road
Mawei Fuzhou, Fujian 350015
China",86 591 8368 2232,86 591 8368 3227,,,,"26° 2' 51"" N","119° 18' 3"" E",CNFOC,River Port,Medium,
CHN,Ganzhou,Port of Ganzhou,Ganzhou Harbour and Shipping Administration Department,"41 Lianxi Road
Ganzhou, Jiangxi 341000
China",,,,,,"25° 51' 14"" N","114° 56' 1"" E",,River Port,Medium,
CHN,Guangzhou,Nansha Port,,"Guangzhou
China",,,,,,"22° 38' 25"" N","113° 40' 25"" E",CNXSA,Seaport,Medium,
CHN,Guangzhou,Port of Guangzhou,Guangzhou Port Affairs Bureau,"531 Gangqian Road
Huangpu District
Guangzhou, Guangdong 510000
China",86 20 8227 9412,86 20 8227 8303,,,www.gzport.com,"23° 5' 39"" N","113° 24' 53"" E",CNXSA,Seaport,Medium,
CHN,Guigang,Port of Guigang,Guigang Stevedores Co,"Nanping Road
Guigang, Guangxi 537100
China",86 775 421 5373,86 775 421 5355,,,,"23° 4' 40"" N","109° 36' 50"" E",CNGUG,River Port,Medium,
CHN,Haikou,Port of Haikou,Haikou Power Plant,"Macun
Chengmai County, Hainan 571923
China",,,,,,"20° 1' 40"" N","110° 16' 47"" E",CNHAK,Seaport,Medium,
CHN,Haimen,Port of Haimen,Haimen Port Authority,"Port Administration Office
Jiaojiang District
Taizhou, Zhejiang 318000
China",86 576 822 4571,,,,,"28° 41' 25"" N","121° 26' 48"" E",CNHME,Seaport,Medium,
CHN,Harbin,Port of Harbin,Harbin Harbour Administration Bureau,"1 Haiyuan Street
Taiping District
Harbin, Heilongjiang 150050
China",,,,,,"45° 48' 18"" N","126° 39' 49"" E",CNHRB,River Port,Medium,
CHN,Hengyang,Port of Hengyang,Hengyang Harbour Administration Department,"50 Xiangjiang Bei Road
Hengyang, Hunan 421001
China",,,,,,"26° 54' 34"" N","112° 36' 27"" E",CNHNY,River Port,Medium,
CHN,Huaian,Port of Huaian,,"Huaian
China",,,,,,"33° 28' 27"" N","119° 8' 11"" E",,River Port,Medium,
CHN,Huaiyin,Port of Huaiyin,Huaiyin Harbour Administration Department,"108 Hebei Xi Road
Huaiyin, Jiangsu 232007
China",,,,,,"33° 34' 18"" N","118° 58' 52"" E",CNAIN,River Port,Medium,
CHN,Huangdao,Port of Huangdao,,"Huangdao
China",,,,,,"36° 2' 50"" N","120° 13' 24"" E",,Seaport,Medium,
CHN,Huangpu,Port of Huangpu,,"Huangpu
China",,,,,,"23° 3' 43"" N","113° 29' 12"" E",CNHUA,Seaport,Medium,
CHN,Huizhou,Port of Huizhou,Huizhou Port Stevedoring Co,"Admin Office, Quanwan
Daya Bay Econ and Tech Dev
Huizhou, Guangdong 516273
China",86 752 557 7860,86 752 557 7877,,,,"22° 41' 52"" N","114° 33' 45"" E",CNHUI,Seaport,Medium,
CHN,Huzhou,Port of Huzhou,,"Huzhou
China",,,,,,"30° 52' 51"" N","120° 5' 56"" E",CNHZH,River Port,Medium,
CHN,Jiangmen,Port of Jiangmen,Jiangmen Harbour Administration Bureau,"85 Dizhong Road
Jiangmen, Guandong 529000
China",,,,,www.jmct.com.cn,"22° 28' 28"" N","113° 0' 23"" E",CNJMN,River Port,Medium,
CHN,Jinzhou,Port of Jinzhou,Jinzhou Port Autority,"Port Administration Office
11-2 Zhongyand Street
Jinzhou, Liaoning 121007
China",86 416 312 7123,86 416 312 2419,,,www.jinzhouport.com,"40° 48' 25"" N","121° 3' 39"" E",CNJNZ,Seaport,Medium,
CHN,Lanshan,Port of Lanshan,Lanshan Port Authority,"Port Administration Office
Lanshan, Shandong 276808
China",86 633 843 1046,86 633 843 1033,,,,"35° 7' 4"" N","119° 23' 15"" E",CNLSN,Seaport,Medium,
CHN,Liuzhou,Port of Liuzhou,Liuzhou Harbour Administration Department,"Beique Road
Liuzhou, Guangxi 545001
China",,,,,,"24° 19' 36"" N","109° 24' 29"" E",CNLZH,River Port,Medium,
CHN,Longkou,Port of Longkou,Longkou Port Authority,"Port Administration Office
24 Huanhai Road
Longkou, Shandong 265700
China",86 535 884 2091,86 535 884 1137,,,,"37° 38' 51"" N","120° 18' 35"" E",CNLKU,Seaport,Medium,
CHN,Nanjing,Port of Nanjing,Nanjing Port Authority,"18 Jiangbian Road
Nanjing, Jiangsu 210011
China",86 25 5858 2721,86 25 5882 3898,,,www.njp.com.cn,"32° 6' 10"" N","118° 43' 53"" E",,River Port,Medium,
CHN,Nanning,Port of Nanning,Nanning Harbour Administration Department,"3 Beida Nan Road
Nanning, Guangxi Zhuang 530011
China",,,,,,"22° 47' 56"" N","108° 19' 20"" E",CNNNG,River Port,Medium,
CHN,Nantong,Port of Nantong,"Nantong Port Group Co., Ltd.","Administration Office
140 Renming Road (W)
Nantong, Jiangsu 226005
China",86 513 351 3068,86 513 351 8230,,ntpa@public.nt.js.cn,www.ntport.com.cn,"31° 59' 32"" N","120° 49' 46"" E",CNNTG,Seaport,Medium,
CHN,Pizhou,Port of Pizhou,Pizhou Harbour Administration Bureau,"146 Qingnian Xi Road
Pizhou, Jiangsu 221300
China",,,,,,"34° 18' 29"" N","117° 56' 54"" E",,River Port,Medium,
CHN,Qinhuangdao,Port of Qinhuangdao,Qinhuangdao Port Affairs Bureau,"35 Haibin Road
Haigang District
Qinhuangdao, Hebei 066002
China",86 335 309 3222,86 335 341 5467,,,,"39° 55' 6"" N","119° 37' 46"" E",CNSHP,Seaport,Medium,
CHN,Rizhao,Port of Rizhao,Rizhao Port Authority,"Huanghai No 1 Road
Rizhao, Shandong 276826
China",86 633 838 2954,86 633 833 8955,,,www.rzport.com,"35° 22' 23"" N","119° 32' 58"" E",CNRZH,Seaport,Medium,
CHN,Rongqi,Port of Rongqi,Rongqi Harbour Administration Department,"Changti
Rongqi, Guandong 528000
China",,,,,,"22° 41' 11"" N","113° 14' 16"" E",CNROQ,River Port,Medium,
CHN,Shantou,Port of Shantou,Shantou Port Affairs Bureau,"1 Shang Ping Road
Guangdong
Shantou 515011
China",86 754 893 2345,86 754 885 0425,,,,"23° 21' 17"" N","116° 42' 23"" E",CNSWA,Seaport,Medium,
CHN,Taicang,Port of Taicang,Taicang Port Authority,"Taicang, Jiangsu 215400
China",,,,,,"31° 39' 30"" N","121° 11' 8"" E",CNTAG,"Pier, Jetty or Wharf",Medium,
CHN,Taizhou,Port of Taizhou,Taizhou Port Authority,"18 Changjiang Road
Gaogang District
Taizhou, Jiangsu 225321
China",0523-2103211,0523-6981848,,taizhouport@sohu.com,www.taizhouport.com,"32° 16' 14"" N","119° 26' 11"" E",CNTZO,River Port,Medium,
CHN,Wenzhou,Port of Wenzhou,Wenzhou Port Group,"Flr 7-8, Jiangrun Mansion
Jiangbin Road
Wenzhou, Zhejiang 325000
China",86 577 8819 2999,86 577 8818 6775,,office@wzport.com,www.wzport.com,"27° 59' 16"" N","120° 53' 26"" E",CNWNZ,Seaport,Medium,
CHN,Wuhan,Port of Wuhan,Wuhan Port Group Co Ltd,"Hankou Yanjiang Road 91#
Wuhan, Hubei 430014
China",86-27-82824776,,,jtb@wuhanport.com,www.wuhanport.com,"30° 35' 16"" N","114° 18' 15"" E",CNWUH,River Port,Medium,
CHN,Wuhu,Port of Wuhu,Wuhu Port Authority,"Port Administration Office
32 Jiang'an Rd
Wuhu, Anhui 241000
China",86 553 383 9153,86 553 381 1064,,,,"31° 19' 47"" N","118° 21' 9"" E",CNWHI,River Port,Medium,
CHN,Wuzhou,Port of Wuzhou,Wuzhou Harbour Administration Department,"59 Nandi Road
Wuzhou, Guangxi 543000
China",,,,,,"23° 28' 17"" N","111° 18' 25"" E",CNWUZ,River Port,Medium,
CHN,Xiamen,Port of Xiamen,Xiamen Port Authority,"127 Dongdu Road
Xiamen, Fujian 361012
China",86 592 561 4889,86 592 561 2682,,xpgco@public.xm.fj.cn, http://www.portxiamen.gov.cn,"24° 27' 0"" N","118° 1' 19"" E",CNXMN,Seaport,Medium,
CHN,Xidi,Xidi Harbour,Xidi Harbour Administration Co of Shantou Shipping Co,"129 Zhenbang Road
Shantou, Guangdong 515011
China",,,,,,"23° 21' 10"" N","116° 40' 43"" E",,Seaport,Medium,
CHN,Xingang,Port of Xingang,Port of Tianjin Authority,"35 Xingang Road No 2
Tanggu
Tianjin, Heibei 300456
China",86 22 2570 5239,86 22 2570 9747,,wsc@tianjinport.ptacn.com,www.ptacn.com,"38° 58' 57"" N","117° 44' 26"" E",CNXGG,Seaport,Medium,
CHN,Yantai,Port of Yantai,Yantai Port Group Limited,"155 Beima Road
Yantai, Shandong 264000
China",86 535 674 2134,86 535 624 1892,,ytport@yantaiport.com.cn,www.yantaiport.com.cn,"37° 34' 16"" N","121° 23' 32"" E",CNYNT,Seaport,Medium,
CHN,Zhangjiagang,Port of Zhangjiagang,Zhangjiagang Port Authority,"Port Administration Office
Xiangshan Road
Zhangjiagang, Jiangsu 215633
China",86 512 5833 1701,86 512 5833 2473,,,,"31° 58' 35"" N","120° 25' 29"" E",CNZJG,Seaport,Medium,
CHN,Zhanjiang,Port of Zhanjiang,Zhanjiang Port Group,"Port Administration Office
1 You Yi Rd, Xiashan
Zhanjiang, Guangdong 524027
China",86 759 225 5516,86 759 228 0814,,zjport@163.net,www.zjport.com,"21° 10' 11"" N","110° 24' 36"" E",CNZHA,Seaport,Medium,
COL,Barranquilla,Palermo Port Society,,"Rio Magdalena
Ribera Oriental, Kilometro 3
Barranquilla
Colombia",(575) 367.8000,(575) 367.8095,,servicioalcientepsp@coremar.com,www.palermosociedadportuaria.com,"10° 58' 46"" N","74° 45' 16"" W",,River Port,Medium,
COL,Barranquilla,Port of Barranquilla,La Sociedad Portuaria Regional de Barranquilla S.A.,"Carrera 38 Calle 1
Barranquilla, Atlantico
Colombia",(575) 3716200,(575) 3716310,018000-117772,servicioalcliente@sprb.com.co,www.sprb.com.co,"10° 58' 2"" N","74° 45' 35"" W",COBAQ,River Port,Medium,
COL,Buenaventura,Port of Sociedad Portuaria Regional de Buenaventura,Sociedad Portuaria Regional de Buenaventura S.A.,"Avenida Portuaria
Edificio de Administracon
Buenaventura
Colombia",691 43 48,691 43 52,,matildec@sprbun.com,www.puertobuenaventura.com,"3° 52' 57"" N","77° 3' 18"" W",COBUN,Seaport,Medium,
COL,Mamonal,Port of Mamonal,,"Mamonal
Colombia",,,,,,"10° 19' 16"" N","75° 30' 27"" W",,Seaport,Medium,
COL,Santa Marta,Port of Santa Marta,Sociedad Portuaria de Santa Marta S.A.,"Cra 1a. No. 10A-12
Santa Marta A.A 655
Colombia",57-5-4211311,57-5-4212161,,,www.spdelnorte.com,"11° 15' 7"" N","74° 13' 2"" W",COSMR,Seaport,Medium,
CRI,Caldera,Puerto de Caldera,Administracion De Puertos,"Caldera
Costa Rica",506 634 4169,506 634 4137,,,www.spcaldera.com,"9° 54' 48"" N","84° 43' 13"" W",CRCAL,Seaport,Medium,
CIV,Abidjan,Port of Abidjan,Port Automome D'Abidjan,"Abidjan
Cote D'Ivoire",21 23 80 00,21 24 80 80,,info@paa-ci.org,www.paa-ci.org,"5° 16' 50"" N","4° 0' 52"" W",CIABJ,Seaport,Medium,
HRV,Rijeka,Port of Rijeka,Port of Rijeka Authority,"LUKA Rijeka d.d.
Riva 1
Rijeka 51000
Croatia",385 51 351 111,,,rijeka.gateway@portauthority.hr,www.portauthority.hr,"45° 19' 39"" N","14° 25' 32"" E",HRRJK,Seaport,Medium,
HRV,Split,Port of Split,Split Port Authority,"Gat Sv. Duje 1
Split 21000
Croatia",385 21 390 222,385 21 390 239,,lucka-uprava-split@st.htnet.hr,www.portsplit.com,"43° 30' 54"" N","16° 25' 50"" E",HRSPU,Seaport,Medium,
HRV,Vukovar,Port of Vukovar,,"Dunavski prilaz b.b
Vukovar
Croatia",385 32 441-730,385 32 441-733,,luka.vukovar@vk.t-com.hr,www.luka-vukovar.hr,"45° 21' 33"" N","18° 59' 21"" E",HRVUK,River Port,Medium,
HRV,Kraljevica,Port of Kraljevica,,"Kraljevica
Croatia",,,,,,"45° 17' 26"" N","14° 33' 6"" E",,Seaport,Medium,
HRV,Omisalj,Port of Omisalj,,"Omisalj
Croatia",,,,,,"45° 12' 52"" N","14° 32' 35"" E",HROMI,Seaport,Medium,
HRV,Rijeka,Port of Rijeka,Port of Rijeka Authority,"LUKA Rijeka d.d.
Riva 1
Rijeka 51000
Croatia",385 51 351 111,,,rijeka.gateway@portauthority.hr,www.portauthority.hr,"45° 19' 39"" N","14° 25' 32"" E",HRRJK,Seaport,Medium,
HRV,Split,Port of Split,Split Port Authority,"Gat Sv. Duje 1
Split 21000
Croatia",385 21 390 222,385 21 390 239,,lucka-uprava-split@st.htnet.hr,www.portsplit.com,"43° 30' 54"" N","16° 25' 50"" E",HRSPU,Seaport,Medium,
HRV,Vukovar,Port of Vukovar,,"Dunavski prilaz b.b
Vukovar
Croatia",385 32 441-730,385 32 441-733,,luka.vukovar@vk.t-com.hr,www.luka-vukovar.hr,"45° 21' 33"" N","18° 59' 21"" E",HRVUK,River Port,Medium,
CUB,Cienfuegos,Port of Cienfuegos,Empresa Terminales Mambisas de La Habana,"Cienfuegos
Cuba",,,,,,"22° 8' 24"" N","80° 27' 21"" W",CUCFG,Seaport,Medium,
CYP,Limassol,Limassol Port,Cyprus Ports Authority,"23 Crete Str
P.O.Box 22007
Limassol, Nicosia 1516
Cyprus",357 22817200,357 22765420,,cpa@cpa.gov.cy,www.cpa.gov.cy,"34° 39' 0"" N","33° 1' 6"" E",CYLMS,Seaport,Medium,
DNK,Esbjerg,Port of Esbjerg,Port of Esbjerg,"Hulvejen 1
Esbjerg DK-6700
Denmark",+45 75 12 41 44,+45 75 13 40 50,,adm@portesbjerg.dk,www.port-of-esbjerg.dk,"55° 27' 56"" N","8° 26' 3"" E",DKEBJ,Seaport,Medium,
DNK,Nyborg,ADP Nyborg Terminal ,Associated Danish Ports A/S,"Vesthavnsvej 33
Fredericia DK-7000
Denmark",+45 7921 5000,+45 7921 5005,,post@adp-as.dk,www.adp-as.com,"55° 17' 56"" N","10° 48' 39"" E",DKNBG,Seaport,Medium,
DNK,Aalborg,Port of Aalborg,Aalborg Havn A/S,"Langerak 19
Postboks 8530
Aalborg Ost DK-9220
Denmark",45 99 30 15 00,45 99 30 15 15,,info@aalborghavn.dk,www.aalborghavn.dk,"57° 3' 40"" N","10° 0' 30"" E",DKAAL,River Port,Medium,
DNK,Esbjerg,Port of Esbjerg,Port of Esbjerg,"Hulvejen 1
Esbjerg DK-6700
Denmark",+45 75 12 41 44,+45 75 13 40 50,,adm@portesbjerg.dk,www.port-of-esbjerg.dk,"55° 27' 56"" N","8° 26' 3"" E",DKEBJ,Seaport,Medium,
DNK,Faaborg,Faaborg Havn,Faaborg Havn,"Harbour Office
Kanalvej 19
Faaborg 5600
Denmark",45 7253 0260,45 6261 1657,,faaborghavn@faaborgmidtfyn.dk,www.faaborghavn.dk,"55° 5' 43"" N","10° 14' 5"" E",DKFAA,Harbor,Medium,
DNK,Nyborg,ADP Nyborg Terminal ,Associated Danish Ports A/S,"Vesthavnsvej 33
Fredericia DK-7000
Denmark",+45 7921 5000,+45 7921 5005,,post@adp-as.dk,www.adp-as.com,"55° 17' 56"" N","10° 48' 39"" E",DKNBG,Seaport,Medium,
DJI,Djibouti,Port of Djibouti,Port Autonome International de Djibouti,"BP 2107
Djibouti
Djibouti",253 35 23 31,253 35 61 87,,port@intnet.dj,www.dpworld-djiboutiport.com,"11° 36' 7"" N","43° 8' 13"" E",DJJIB,Seaport,Medium,
DOM,Punta Caucedo,Caucedo,DP World Caucedo,"Zona Franca Multimodal Caucedo
Bldg. ADM. Suite 200, Punta Caucedo
Boca Chica
Dominican Republic",809 373 7300,,,glen.hilton@dpworld.com,,"18° 25' 34"" N","69° 37' 53"" W",,Seaport,Medium,
DOM,Rio Haina,Port of Rio Haina,Autoridad Portuaria Dominicana,"Rio Haina
Dominican Republic",808 537 0055,,,,www.apordom.gov.do,"18° 25' 13"" N","70° 1' 8"" W",DOHAI,Harbor,Medium,
DOM,Santo Domingo,Port of Santo Domingo,Autoridad Portuaria Dominicana,"Santo Domingo
Dominican Republic",,,,,www.apordom.gov.do,"18° 28' 31"" N","69° 52' 52"" W",DOSDQ,Harbor,Medium,
ECU,Guayaquil,Port of Guayaquil,Autoridad Portuaria de Guayaquil (APG),"Guayaquil
Ecuador",,,,,www.puertodeguayaquil.com,"2° 17' 1"" S","79° 54' 14"" W",ECGYE,Seaport,Medium,
EGY,Damietta,Port of Damietta,Damietta Port Authority,"PO Box 13
Damietta 34511
Egypt",2057-325940,2057-325930,,,www.dam-port.com,"31° 28' 0"" N","31° 45' 52"" E",EGDAM,Seaport,Medium,
EGY,Port Said,Port Said,Port Said Port Authority,"Intersection of Mostafa Kamel and Azmy Street
Port Said
Egypt",20 66 3348270,20 66 3348262,,info@psdports.org,www.psdports.org,"31° 15' 12"" N","32° 18' 34"" E",EGPSD,Seaport,Medium,
EGY,Suez,Petroleum Dock Port,Red Sea Ports Authorities,"PO Box 1
Port Tawfik
Egypt",,062 331117,,,www.mts.gov.eg,"29° 57' 11"" N","32° 31' 48"" E",,"Pier, Jetty or Wharf",Medium,
EGY,Suez,Port Suez,Red Sea Ports Authority,"PO Box 1
Port Tawfik
Suez
Egypt",+20 62 33 1123,+20 62 33 1117,,,www.mts.gov.eg,"29° 57' 1"" N","32° 33' 25"" E",,Seaport,Medium,
SLV,Acajutla,Port of Acajutla,Autoridad Maritima Portuaria,"Bulevar, Sergio de Mello #508
Colonia San Benito
San Salvador
El Salvador",503 2452-3200,,,webmaster@cepa.gob.sv,www.puertoacajutla.gob.sv,"13° 34' 28"" N","89° 50' 12"" W",SVAQJ,Seaport,Medium,
ERI,Massawa,Port of Massawa,Massawa Port Administration,"PO Box 73
Massawa
Eritrea",291 1 55 21 22,291 1 55 21 06,,MassPort@tse.com.er,www.pmaesa.org,"15° 36' 36"" N","39° 28' 17"" E",,Harbor,Medium,
EST,Tallinn,Port of Tallinn,Port Authority of Tallinn,"Sadama 25
Tallinn 15051
Estonia",(372)6 31 85 55,(372)6 31 81 66,,portoftallinn@portoftallinn.com,www.portoftallinn.com,"59° 27' 10"" N","24° 43' 10"" E",EETLL,Seaport,Medium,
FJI,Suva,Port of Suva,Fiji Port corporation Limited,"G.P.O Box 780
Kaunikula House, Flagstaff
Suva
Fiji",679 3312700,679 3315549,,,www.fijiports.com.fj,"18° 7' 37"" S","178° 25' 34"" E",FJSUV,Seaport,Medium,
FIN,Hamina,Port of Hamina,Port of Hamina Ltd.,"Satamantie 4
P.O. Box 14
Hamina FIN-49401
Finland",358 5-225 5400,358 5-225 5419,,office@portofhamina.fi,www.portofhamina.fi,"60° 31' 29"" N","27° 9' 56"" E",FIHMN,Seaport,Medium,
FIN,Jakobstad,Port of Jakobstad,Jakobstad Port Authority,"Laukontie 1
Jakobstad 68600
Finland",,,,,www.portofpietarsaari.fi,"63° 42' 40"" N","22° 41' 37"" E",FIPRS,Seaport,Medium,
FIN,Kokkola,Port of Kokkola,Port Authority of Kokkola,"Satamakatu 53
67900 Kokkola
Kokkola
Finland",+358 (0)6 8242 400,+358 (0)6 8242 444,,satama@kokkola.fi,www.port.of.kokkola.fi,"63° 51' 38"" N","23° 2' 13"" E",FIKOK,Seaport,Medium,
FIN,Rauma,Port of Rauma,,"Hakunintie 19
Rauma 26100
Finland",+358 (0)2 834 4712,+358 (0)2 822 6369,,harbour.office@portofrauma.com,www.portofrauma.com,"61° 7' 33"" N","21° 27' 6"" E",FIRAU,Seaport,Medium,
FIN,Hamina,Port of Hamina,Port of Hamina Ltd.,"Satamantie 4
P.O. Box 14
Hamina FIN-49401
Finland",358 5-225 5400,358 5-225 5419,,office@portofhamina.fi,www.portofhamina.fi,"60° 31' 29"" N","27° 9' 56"" E",FIHMN,Seaport,Medium,
FIN,Jakobstad,Port of Jakobstad,Jakobstad Port Authority,"Laukontie 1
Jakobstad 68600
Finland",,,,,www.portofpietarsaari.fi,"63° 42' 40"" N","22° 41' 37"" E",FIPRS,Seaport,Medium,
FIN,Joensuu,Port of Joensuu,,"Ukonniemi, Satamatie
Joensuu FIN-80220
Finland",358 13 267 3545,358 13 267 3548,,,www.jns.fi,"62° 35' 57"" N","29° 46' 6"" E",FIJOE,Harbor,Medium,
FIN,Kokkola,Port of Kokkola,Port Authority of Kokkola,"Satamakatu 53
67900 Kokkola
Kokkola
Finland",+358 (0)6 8242 400,+358 (0)6 8242 444,,satama@kokkola.fi,www.port.of.kokkola.fi,"63° 51' 38"" N","23° 2' 13"" E",FIKOK,Seaport,Medium,
FIN,Pansio,Port of Pansio,,"Pansio
Finland",,,,,,"60° 26' 32"" N","22° 10' 17"" E",,Harbor,Medium,
FIN,Rauma,Port of Rauma,,"Hakunintie 19
Rauma 26100
Finland",+358 (0)2 834 4712,+358 (0)2 822 6369,,harbour.office@portofrauma.com,www.portofrauma.com,"61° 7' 33"" N","21° 27' 6"" E",FIRAU,Seaport,Medium,
FIN,Vuosaari,Vuosaari Harbour,,"Vuosaari
Finland",,,,,,"60° 12' 40"" N","25° 10' 18"" E",,Seaport,Medium,
FRA,Bordeaux,Port of Bordeaux,Port Autonome de Bordeaux,"Palais de la Bourse
3, place Gabriel
Bordeaux, Cedex 33075
France",33 5 56 90 58 00,33 5 56 90 58 77,,postoffice@bordeaux-port.fr,www.bordeaux-port.fr,"44° 51' 55"" N","0° 33' 18"" W",FRBOD,River Port,Medium,
FRA,Fos-sur-Mer,Port of Fos-sur-Mer,Marseille Fos Port Authority,"23 place de la Joliette
BP 81965
Marseille, Cedex 2 13226
France",33 4 91 39 40 00,33 4 91 39 57 00,,gpmm@marseille-port.fr,www.marseille-port.fr,"43° 25' 27"" N","4° 54' 56"" E",FRFOS,Seaport,Medium,
FRA,La Pallice,Port of La Pallice,Port  Autonome de La Rochelle,"BP 2057
Chaussee de Ceinture Nord
La Rochelle 17010
France",33 5 46 00 53 60,33 5 46 43 12 54,,lapallice@larochelle.port.fr,www.larochelle.port.fr,"46° 9' 26"" N","1° 13' 41"" W",FRLPE,Seaport,Medium,
FRA,Nantes - Saint Nazaire,Port of Nantes - Saint Nazaire,Autonomous Port Authority of Nantes - Saint Nazaire,"BP 18609
18 quai Ernest Renaud
Nantes 44186
France",33 2 40 44 20 20,33 2 40 44 20 01,,,www.nantes.port.fr,"47° 16' 39"" N","2° 11' 58"" W",,Seaport,Medium,
FRA,Rouen,Port of Rouen,Rouen Port Autonome,"34, Boulevard de Boisguilbert
BP 4075
Rouen, Cedex 3 76022
France",33.02.35.52.54.56,33.02.35.52.54.13,,informatique@rouen.port.fr,www.rouen.port.fr,"49° 26' 36"" N","1° 3' 14"" E",FRURO,River Port,Medium,
FRA,Ambes,Port of Ambes,Port Autonome de Bordeaux,"Palais de la Bourse
3, place Gabriel
Bordeaux, Cedex 33075
France",33 5 56 90 58 00,33 5 56 90 58 77,,postoffice@bordeaux-port.fr,www.bordeaux-port.fr,"45° 1' 7"" N","0° 34' 41"" W",FRAMS,River Port,Medium,
FRA,Bassens,Port of Bassens,Port Autonome de Bordeaux,"Palais de la Bourse
3, place Gabriel
Bordeaux, Cedex 33075
France",33 5 56 90 58 00,33 5 56 90 58 77,,postoffice@bordeaux-port.fr,www.bordeaux-port.fr,"44° 54' 18"" N","0° 32' 17"" W",FRBAS,River Port,Medium,
FRA,Bayonne,Port of Bayonne,Chambre de Commerce et d'Industrie de Bayonne Pays Basque,"50-51, Allees Marines
B.P. 215
Bayonne, Cedex 64102
France",00 33 5 59 46 59 46,00 33 5 59 46 59 47,,exploitation@bayonne.cci.fr,www.bayonne.cci.fr,"43° 31' 11"" N","1° 29' 59"" W",FRBAY,Seaport,Medium,
FRA,Bordeaux,Port of Bordeaux,Port Autonome de Bordeaux,"Palais de la Bourse
3, place Gabriel
Bordeaux, Cedex 33075
France",33 5 56 90 58 00,33 5 56 90 58 77,,postoffice@bordeaux-port.fr,www.bordeaux-port.fr,"44° 51' 55"" N","0° 33' 18"" W",FRBOD,River Port,Medium,
FRA,Boulogne-sur-Mer,Port of Boulogne-sur-Mer,Chambre de commerce et d'Industrie Boulogne-sur-Mer Cote d'Opale,"98 boulevard Gambetta, BP 269
Boulogne-sur-Mer 62204
France",03.21.99.62.00,03.21.99.62.01,,,www.portboulogne.com,"50° 43' 25"" N","1° 34' 50"" E",FRBOL,Seaport,Medium,
FRA,Caen,Port of Caen,Chambre de Commerce et d'Industrie de Caen,"Direction des Equipements Portuaires
Bassin d'Herouville
Herouville-Saint-Clair 14200
France",02.31.35.63.00,02.31.35.63.06,,info@caen.port.fr,www.caen.port.fr,"49° 11' 26"" N","0° 19' 55"" W",FRCFR,River Port,Medium,
FRA,Calais,Port of Calais,Chambre de Commerce et d'Industrie de Calais,"24, Bd. Des Allies - BP199
Calais 62104
France",03 21 46 00 00,03 21 46 00 99,,ccic@calais.cci.fr,www.calais-port.com,"50° 57' 57"" N","1° 51' 1"" E",FRCQF,Seaport,Medium,
FRA,Cherbourg,Port of Cherbourg,Chambre de Commerce et d'Industrie de Cherbourg-Cotentin,"Boulevard Felix Amiot - BP 839
Cherbourg-Octeville Cedex 50108
France",33 2 33.23.32.25,33 2 33.23.32.36,,port@cherbourg-cotentin.cci.fr,www.port-cherbourg.com,"49° 39' 8"" N","1° 37' 5"" W",FRCER,Seaport,Medium,
FRA,Fos-sur-Mer,Port of Fos-sur-Mer,Marseille Fos Port Authority,"23 place de la Joliette
BP 81965
Marseille, Cedex 2 13226
France",33 4 91 39 40 00,33 4 91 39 57 00,,gpmm@marseille-port.fr,www.marseille-port.fr,"43° 25' 27"" N","4° 54' 56"" E",FRFOS,Seaport,Medium,
FRA,Gennevilliers,Port of Gennevilliers,Port Autonome de Paris,"2, quai de Grenelle
Paris, Cedex 15 75732
France",01 40 58 29 99,01 45 78 08 57,,dcom@paris-ports.fr,www.paris-ports.fr,"48° 56' 33"" N","2° 16' 36"" E",FRGVL,River Port,Medium,
FRA,Guadeloupe,Port of Guadeloupe,Port Autonome de la Guadeloupe,"BP 485
Pointe-a-Pitre 97165
France",05.90.21.39.00,05.90.21.39.69,,c-broutin@port-guadeloupe.com,www.port-guadeloupe.com,"16° 14' 6"" N","61° 32' 34"" W",,Seaport,Medium,
FRA,La Pallice,Port of La Pallice,Port  Autonome de La Rochelle,"BP 2057
Chaussee de Ceinture Nord
La Rochelle 17010
France",33 5 46 00 53 60,33 5 46 43 12 54,,lapallice@larochelle.port.fr,www.larochelle.port.fr,"46° 9' 26"" N","1° 13' 41"" W",FRLPE,Seaport,Medium,
FRA,Lorient,Port of Lorient,Morbihan Chamber of Commerce and Industry (CCIM),"3, boulevard de la Rade
Lorient 56100
France",33 0 2 97 87 76 00,33 0 2 97 37 22 19,,lorient.port.commerce@morbihan.cci.fr,www.lorient.port.fr,"47° 44' 3"" N","3° 21' 12"" W",FRLRT,Seaport,Medium,
FRA,Nantes - Saint Nazaire,Port of Nantes - Saint Nazaire,Autonomous Port Authority of Nantes - Saint Nazaire,"BP 18609
18 quai Ernest Renaud
Nantes 44186
France",33 2 40 44 20 20,33 2 40 44 20 01,,,www.nantes.port.fr,"47° 16' 39"" N","2° 11' 58"" W",,Seaport,Medium,
FRA,Port La Nouvelle,Port of Port La Nouvelle,Capitainerie du Port,"229 avenue de la Mer
Port La Nouvelle 11210
France",33 4 68 48 17 64,33 4 68 40 31 42,,,www.narbonne.cci.fr/port-la-nouvelle,"43° 1' 10"" N","3° 3' 17"" E",,Seaport,Medium,
FRA,Port St Louis du Rhone,Port St Louis du Rhone,,"Port St Louis du Rhone
France",,,,,,"43° 22' 59"" N","4° 49' 38"" E",FRPSL,Seaport,Medium,
FRA,Rouen,Port of Rouen,Rouen Port Autonome,"34, Boulevard de Boisguilbert
BP 4075
Rouen, Cedex 3 76022
France",33.02.35.52.54.56,33.02.35.52.54.13,,informatique@rouen.port.fr,www.rouen.port.fr,"49° 26' 36"" N","1° 3' 14"" E",FRURO,River Port,Medium,
FRA,Sete,Port of Sete,"CCI Sete, Frontighan, Meze","2 quai Philippe Regy
BP 169
Sete, Cedex 34203
France",04 67 46 28 28,04 67 46 28 18,,president@sete.cci.fr,www.sete.port.fr,"43° 24' 17"" N","3° 42' 58"" E",FRSET,Seaport,Medium,
FRA,Strasbourg,Port of Strasbourg,Port Autonome de Strasbourg,"25, rue de la Nuee Bleue
BP 80407
Strasbourg, Cedex 67002
France",33 03 88 21 74 74,33 03 88 23 56 57,,pas@strasbourg.port.fr,www.strasbourg.port.fr,"48° 33' 16"" N","7° 47' 43"" E",FRSXB,River Port,Medium,
FRA,Toulon,Port of Toulon La Seyne,Toulon La Seyne Port Authority,"244 ave de I'Infanterie de Mar
BP 501
Toulon, Cedex 9 83041
France",33 4 94 03 27 60,33 4 94 03 38 69,,,,"43° 6' 38"" N","5° 54' 27"" E",FRTLN,Seaport,Medium,
GUF,Cayenne,Port of Degrad des Cannes,Direction des Services Portuaires,"Cayenne 97354
French Guiana",05 94 35 44 90,,,,www.guyane.cci.fr,"4° 51' 11"" N","52° 16' 30"" W",GFCAY,Seaport,Medium,
PYF,Papeete,Port of Papeete,Port Autonome de Papeete,"BP 9164 Motu Uta
Papeete 98715
French Polynesia",5054 54,42 19 50,,direction@portppt.pf,www.portdepapeete.pf,"17° 31' 52"" S","149° 34' 17"" W",PFPPT,Harbor,Medium,
GAB,Port Gentil,Port of Port Gentil,Office des Ports et Rades du Gabon,"Owendo Po Box 1051
Libreville
Gabon",241 70 00 48,241 70 37 35,,info@ports-gabon.com,www.ports-gabon.com,"0° 42' 43"" S","8° 47' 11"" E",GAPOG,Seaport,Medium,
GEO,Batumi,Port of Batumi,Batumi Sea Trading Port,"No 1, Kutaisi str.
Batumi 6003
Georgia",995 222 7-62-61,995 222 7-69-58,,bsport@batumiport.com,www.batumiport.com,"41° 38' 56"" N","41° 39' 3"" E",GEBUS,Seaport,Medium,
GEO,Poti,Port of Poti,Poti Port Authority,"ul David Agmashenebeli 52
Poti 384691
Georgia",995 393 20660,995 393 20688,,admin@potiseaport.com,www.potiseaport.com,"42° 9' 18"" N","41° 39' 16"" E",GEPTI,Seaport,Medium,
DEU,Bremen,Port of Bremen,Bremenports,"Hafenstrabe 49
Bremen 28217 
Germany",+49 (0) 421 309 01-0,,,office@bremenports.de,www.bremen-ports.de,"53° 5' 51"" N","8° 45' 6"" E",DEBRE,River Port,Medium,
DEU,Brunsbuttel,Port of Brunsbuttel,Hafengesellschaft Brunsbuttel mbH,"Elbehafen
Brunsbuettel 25541
Germany",49 0 4852 884-0,49 0 4852 884-26,,info@elbehafen.de,www.elbehafen.de,"53° 53' 45"" N","9° 8' 9"" E",DEBRB,Seaport,Medium,
DEU,Emden,Port of Emden,Emder Hafenforderungsgesellschaft e. V.,"Friedrich-Naumann-StraBe 7 - 9
Emden D - 26725
Germany",49-4921-51770,49-4921-979860,,info@seaport-emden.de,www.seaport-emden.de,"53° 20' 46"" N","7° 11' 54"" E",DEEME,Seaport,Medium,
DEU,Frankfurt,Port of Frankfurt,Hafen Frankfurt Managementgesellschaft mbH,"Lindleystrasse 14
Frankfurt 60314
Germany",49 69-212-36037,49 69-212-40617,,,www.hafen-frankfurt.de,"50° 6' 43"" N","8° 43' 46"" E",,River Port,Medium,
DEU,Kiel,Port of Kiel,Seehafen Kiel GmbH Co.,"Kommanditgesellschaft
Bollhornkai 1
Kiel 24103
Germany",49 431 98 22-0,49 431 98 22-105,,info@port-of-kiel.com,www.port-of-kiel.de,"54° 19' 51"" N","10° 9' 39"" E",DEKEL,Seaport,Medium,
DEU,Berlin,Port of Berlin,,"Berlin
Germany",,,,,www.berlin.de,"52° 31' 20"" N","13° 24' 18"" E",,River Port,Medium,
DEU,Bremen,Port of Bremen,Bremenports,"Hafenstrabe 49
Bremen 28217 
Germany",+49 (0) 421 309 01-0,,,office@bremenports.de,www.bremen-ports.de,"53° 5' 51"" N","8° 45' 6"" E",DEBRE,River Port,Medium,
DEU,Brunsbuttel,Port of Brunsbuttel,Hafengesellschaft Brunsbuttel mbH,"Elbehafen
Brunsbuettel 25541
Germany",49 0 4852 884-0,49 0 4852 884-26,,info@elbehafen.de,www.elbehafen.de,"53° 53' 45"" N","9° 8' 9"" E",DEBRB,Seaport,Medium,
DEU,Dortmund,Port of Dortmund,,"Dortmund, North Rhine-Westphalia
Germany",,,,,www.dortmund.de,"51° 32' 11"" N","7° 26' 17"" E",,River Port,Medium,
DEU,Dusseldorf,Port of Dusseldorf,GmbH and Co. KG,"Hammer Landstrasse 3
Neuss 41460
Germany",49 2131 53230,49 213 1532 3105,,info@nd-haefen.de,www.nd-haefen.de,"51° 13' 2"" N","6° 44' 33"" E",DEDUS,River Port,Medium,
DEU,Emden,Port of Emden,Emder Hafenforderungsgesellschaft e. V.,"Friedrich-Naumann-StraBe 7 - 9
Emden D - 26725
Germany",49-4921-51770,49-4921-979860,,info@seaport-emden.de,www.seaport-emden.de,"53° 20' 46"" N","7° 11' 54"" E",DEEME,Seaport,Medium,
DEU,Frankfurt,Port of Frankfurt,Hafen Frankfurt Managementgesellschaft mbH,"Lindleystrasse 14
Frankfurt 60314
Germany",49 69-212-36037,49 69-212-40617,,,www.hafen-frankfurt.de,"50° 6' 43"" N","8° 43' 46"" E",,River Port,Medium,
DEU,Holtenau,Port of Holtenau,,"Holtenau
Germany",,,,,,"54° 21' 48"" N","10° 8' 41"" E",DEHTU,Seaport,Medium,
DEU,Karlsruhe,Port of Karlsruhe,KVVH GmbH - Rhine Ports Division,"Werftstrasse 2
Karlsruhe 76189
Germany",49 0 721 599 74 00,49 0 721 599 74 09,,schwarzer@rheinhafen.de,www.rheinhafen.de,"49° 0' 51"" N","8° 19' 28"" E",DEKAE,River Port,Medium,
DEU,Kehl,Port of Kehl,Hafenverwaltung Kehl,"Korperschaft des offen Rechts
Hafenstrasse 19
Kehl am Rhein 77694
Germany",49 7851 8970,49 7851 89766,,,,"48° 35' 37"" N","7° 48' 48"" E",DEKEH,River Port,Medium,
DEU,Kiel,Port of Kiel,Seehafen Kiel GmbH Co.,"Kommanditgesellschaft
Bollhornkai 1
Kiel 24103
Germany",49 431 98 22-0,49 431 98 22-105,,info@port-of-kiel.com,www.port-of-kiel.de,"54° 19' 51"" N","10° 9' 39"" E",DEKEL,Seaport,Medium,
DEU,Magdeburg,Port of Magdeburg,,"Magdeburg, Bundesland
Germany",,,,,www.magdeburg.de,"52° 9' 8"" N","11° 40' 20"" E",,River Port,Medium,
DEU,Munster,Port of Munster,,"Munster, North Rhine-Westphalia
Germany",,,,,www.muenster.de,"51° 56' 34"" N","7° 38' 32"" E",,River Port,Medium,
DEU,Neuss,Port of Neuss,GmbH and Co. KG,"Hammer Landstrasse 3
Neuss 41460
Germany",49 2131 53230,49 213 1532 3105,,info@nd-haefen.de,www.nd-haefen.de,"51° 12' 38"" N","6° 42' 0"" E",DENSS,River Port,Medium,
DEU,Ostermoor,Port of Ostermoor,Hafengesellschaft Brunsbuttel mbH,"Elbehafen
Brunsbuettel 25541
Germany",49 0 4852 884-0,49 0 4852 884-26,,info@elbehafen.de,www.elbehafen.de,"53° 53' 56"" N","9° 9' 0"" E",DEOSR,Seaport,Medium,
DEU,Rostock,Port of Rostock,Hafen-Entwicklungsgesellschaft Rostock mbH,"Ost-West-Str. 32
Rostock D-18147
Germany",49 381 350 0,49 381 350 5515,,info@rostock-port.de,www.rostock-port.de,"54° 9' 9"" N","12° 7' 7"" E",DERSK,Seaport,Medium,
DEU,Travemunde,Port of Travemunde,,"Travemunde
Germany",,,,,,"53° 57' 8"" N","10° 52' 9"" E",DETRV,Seaport,Medium,
DEU,Weserport,Port of Weserport,,"Weserport
Germany",,,,,,"53° 31' 5"" N","8° 34' 43"" E",,Seaport,Medium,
DEU,Wilhelmshaven,Port of Wilhelmshaven,Niedersachsen Ports GmbH Co. KG,"Niederlassung Wilhelmshaven
Neckarstrasse 10
Wilhelmshaven D-26382
Germany",04421/4800-0,04421/4800-599,,wilhelmshaven@nports.de,www.wilhelmshaven-port.de,"53° 31' 48"" N","8° 7' 31"" E",DEWVN,Seaport,Medium,
DEU,Wismar,Port of Wismar,Seehafen Wismar GmbH,"Kopenhagener Strasse
Hafenhaus
Wismar 23966
Germany",49 0 38 41-45 2-0,49 0 38 41-45 23 04,,info@hafen-wismar.de,www.hafen-wismar.de,"53° 54' 23"" N","11° 26' 33"" E",DEWIS,Seaport,Medium,
GHA,Tema,Port of Tema,Ghana Ports and Harbours Authority,"PO Box 488
Tema
Ghana",233 22 204385,233 22 204136,,atorkornoo@ghanaports.net,www.ghanaports.gov.gh,"5° 37' 55"" N","0° 0' 42"" E",GHTEM,Seaport,Medium,
GIB,Gibraltar,Port of Gibraltar,Gibraltar Port Authority (GPA),"P O Box 1179
North Mole GX11 1AA
Gibraltar",+350 200 46254,+350 200 46254,,gpaenquiries@port.gov.gi,www.gibraltarport.com,"36° 8' 13"" N","5° 21' 41"" W",GIGIB,Seaport,Medium,
GRC,Thessaloniki,Port of Thessaloniki,Thessaloniki Port Authority S.A.,"P.O. Box 10467
Thessaloniki GR-541 10
Greece",30 31 0 593129,30 31 0 510500,,info@thpa.gr,www.thpa.gr,"40° 38' 6"" N","22° 55' 6"" E",GRSKG,Seaport,Medium,
GRC,Volos,Port of Volos,Volos Central Port Authority,"Limeniko Tameio Volou
Kentriki provlita
Volos GR-43455
Greece",30 24210 - 31226,30 24210-31115,,admin@port-volos.gr,www.port-volos.gr,"39° 21' 10"" N","22° 56' 19"" E",GRVOL,Seaport,Medium,
GRC,Aspropyrgos,Port of Aspropyrgos,Eleusis Port Authority,"10 Kanelopoulou GR-192 00
Greece",30 210 554 3504,30 210 554 7980,,,,"38° 2' 15"" N","23° 34' 45"" E",GRASS,Seaport,Medium,
GRC,Corinth,Corinth Canal,,"Corinth
Greece",,,,,,"37° 56' 0"" N","22° 59' 5"" E",,Canal,Medium,
GRC,Drapetsona,Port of Drapetsona,,Greece,,,,,,"37° 57' 37"" N","23° 34' 5"" E",,Port Terminal,Medium,
GRC,Eleusis,Port of Eleusis,Port Authority of Eleusis,"28 Kanelopoulou Street
Eleusis
Greece",30 210 554 6671,30 210 554 7980,,,,"38° 2' 22"" N","23° 31' 29"" E",,Seaport,Medium,
GRC,Keratsini,Port of Keratsini,,"Keratsini
Greece",,,,,,"37° 57' 27"" N","23° 36' 27"" E",,Seaport,Medium,
GRC,Mikron Vathy,Port of Mikron Vathy,,"Mikron Vathy
Greece",,,,,,"38° 26' 18"" N","23° 35' 49"" E",,Seaport,Medium,
GRC,Patras,Port of Patras,Central Port Authority of Patras,"Othonos Amalias and Gounari St
Patras 261 00
Greece",30 2610 362.648,30 2610 341.450,,info@patrasport.gr,www.patrasport.gr,"38° 15' 16"" N","21° 44' 9"" E",GRGPA,Seaport,Medium,
GRC,Souda,Port of Souda,Port Authority Department of Souda,"21 Akti Tompazi
Souda 73200
Greece",30 28210 89240,30 28210 89884,,,,"35° 29' 35"" N","24° 4' 41"" E",GRSUD,Seaport,Medium,
GRC,Thessaloniki,Port of Thessaloniki,Thessaloniki Port Authority S.A.,"P.O. Box 10467
Thessaloniki GR-541 10
Greece",30 31 0 593129,30 31 0 510500,,info@thpa.gr,www.thpa.gr,"40° 38' 6"" N","22° 55' 6"" E",GRSKG,Seaport,Medium,
GRC,Volos,Port of Volos,Volos Central Port Authority,"Limeniko Tameio Volou
Kentriki provlita
Volos GR-43455
Greece",30 24210 - 31226,30 24210-31115,,admin@port-volos.gr,www.port-volos.gr,"39° 21' 10"" N","22° 56' 19"" E",GRVOL,Seaport,Medium,
GLP,Pointe-a-Pitre,Port of Pointe-a-Pitre,Port Autonome de la Guadeloupe,"97165 Pointe-a-Pitre
Cedex
Guadeloupe",590 590 213900,590 590 213969,,presidentpag@wanadoo.fr,www.port-guadeloupe.com,"16° 14' 2"" N","61° 32' 29"" W",,Seaport,Medium,
GUM,Piti,Jose D. Leon Guerrero Commercial Port,Port Authority of Guam,"1026 Cabras Highway
Suite 201
Piti 96915
Guam",671-477-5931,671-477-2689,,webmaster@portofguam.com,www.portofguam.com,"13° 26' 34"" N","144° 39' 28"" E",GUAPR,Seaport,Medium,
GTM,Puerto Quetzal,Puerto Quetzal,Empresa Portuaria Quetzal,"Puerto Quetzal
Guatemala",,,,mercadeo@puerto-quetzal.com,www.puerto-quetzal.com,"13° 55' 20"" N","90° 47' 31"" W",GTPRQ,Harbor,Medium,
GUY,Georgetown,Port of Georgetown,Guyana National Shipping Corporation Limited,"5 - 9 Lombard Street
Georgetown
Guyana",592-226-1732,,,,www.gnsc.com,"6° 49' 10"" N","58° 10' 3"" W",GYGEO,Seaport,Medium,
HUN,Budapest,Port of Csepel,Ferroport Kft.,"Szabadkikoto ut 5-7
Budapest H1211
Hungary",36 1 278-4001,36 1 278-4000,,,www.ferroport.hu,"47° 26' 37"" N","19° 3' 41"" E",HUBUD,River Port,Medium,
IND,Haldia,Port of Haldia,Kolkata Port Trust,"Haldia, Purba Medinipur, West Bengal 721657
India",91-03224 263-114,,,haldia.dock@nic.in,www.kolkataporttrust.gov.in,"22° 2' 13"" N","88° 5' 54"" E",INHAL,Seaport,Medium,
IND,Mundra,Port of Mundra,Adani Group,"Post Box No. 1
Mundra (Kutch), Gujarat 370421
India",91-2838-289248,91-2838-289200,,mktg@portofmundra.com,www.portofmundra.com,"22° 44' 13"" N","69° 42' 29"" E",INMUN,Seaport,Medium,
IND,Pipavav,Port of Pipavav,Gujarat Pipavav Port Ltd.,"Port of Pipavav
Post Uchaiya via Rajula
District Amreli, Gujarat 365 560
India",91-22-2438 3301,91-22-2438 3332,,,www.pipavav.com,"20° 55' 8"" N","71° 30' 15"" E",,Seaport,Medium,
IND,Bedi Bunder,Port of Bedi Bunder,Gujarat Maritime Board,"Sector 10-A, Opp. Air Force Station
Gandhinagar, Gujarat 382 010
India",079-23238346,079-23234703,,gmbad1@sancharnet.in,www.gmbports.org,"22° 32' 54"" N","70° 1' 51"" E",,Seaport,Medium,
IND,Dholera,Port of Dholera,Dholera Port Ltd,"51 Greekini House
5th Floor
Ahmedabad, Gujarat 380006
India",91 792 640 1782,91 792 640 1892,,jkwc-amd@satyam.net.in,,"22° 18' 6"" N","72° 23' 29"" E",INDHR,Seaport,Medium,
IND,Haldia,Port of Haldia,Kolkata Port Trust,"Haldia, Purba Medinipur, West Bengal 721657
India",91-03224 263-114,,,haldia.dock@nic.in,www.kolkataporttrust.gov.in,"22° 2' 13"" N","88° 5' 54"" E",INHAL,Seaport,Medium,
IND,Kakinada,Port of Kakinada,Kakinada Seaports Limited," 2nd Floor, Port Administrative Building
Beach Road
Kakinada, Andhra Pradesh 533 007
India",91 884 - 2365089,91 884 - 2385402,,mails@kakinadaseaports.in,www.kakinadaseaports.in,"16° 58' 40"" N","82° 16' 45"" E",INKAK,Seaport,Medium,
IND,Magdalla,Port of Magdalla,Gujarat Maritime Board,"Sector 10-A, Opp. Air Force Station
Gandhinagar, Gujarat 382 010
India",079-23238346,079-23234703,,gmbad1@sancharnet.in,www.gmbports.org,"21° 8' 27"" N","72° 44' 26"" E",INMDA,Seaport,Medium,
IND,Mandvi,Port of Mandvi,Gujarat Maritime Board,"Sector 10-A, Opp. Air Force Station
Gandhinagar, Gujarat 382 010
India",079-23238346,079-23234703,,gmbad1@sancharnet.in,www.gmbports.org,"22° 49' 37"" N","69° 21' 11"" E",INMDV,Seaport,Medium,
IND,Mangalore,Port of Mangalore,New Mangalore Port Trust,"Panambur
Manglore 575010
India",091-824-2407341,091-824-2408390,,nmptchairman@sify.com,www.newmangalore-port.com,"12° 55' 37"" N","74° 48' 42"" E",INIXE,Seaport,Medium,
IND,Mormugao,Port of Mormugao,Mormugao Port Trust,"Headland
Sada, Goa 403804
India",91-834-512177,91-834-513065,,mpt@mptgoa.com,www.mptgoa.com,"15° 24' 35"" N","73° 48' 2"" E",INMRM,Seaport,Medium,
IND,Mundra,Port of Mundra,Adani Group,"Post Box No. 1
Mundra (Kutch), Gujarat 370421
India",91-2838-289248,91-2838-289200,,mktg@portofmundra.com,www.portofmundra.com,"22° 44' 13"" N","69° 42' 29"" E",INMUN,Seaport,Medium,
IND,Navlakhi,Port of Navlakhi,Gujarat Maritime Board,"Sector 10-A, Opp. Air Force Station
Gandhinagar, Gujarat 382 010
India",079-23238346,079-23234703,,gmbad1@sancharnet.in,www.gmbports.org,"22° 57' 31"" N","70° 26' 50"" E",INNAV,Seaport,Medium,
IND,Pipavav,Port of Pipavav,Gujarat Pipavav Port Ltd.,"Port of Pipavav
Post Uchaiya via Rajula
District Amreli, Gujarat 365 560
India",91-22-2438 3301,91-22-2438 3332,,,www.pipavav.com,"20° 55' 8"" N","71° 30' 15"" E",,Seaport,Medium,
IND,Porbandar,Port of Porbandar,Gujarat Maritime Board,"Sector 10-A, Opp. Air Force Station
Gandhinagar, Gujarat 382 010
India",079-23238346,079-23234703,,gmbad1@sancharnet.in,www.gmbports.org,"21° 38' 5"" N","69° 35' 30"" E",INPBD,Seaport,Medium,
IND,Salaya,Port of Salaya,Gujarat Maritime Board,"Opp: Air Force Station
Gandhinagar, Gujarat 382043
India",91-2712-38346,02712-34703,,,www.gmbports.org,"22° 18' 51"" N","69° 35' 55"" E",INSAL,River Port,Medium,
IND,Tuticorin,Port of Tuticorin,Tuticorin Port Trust,"Tuticorin 628 004
India",0461 2352290,0461 2352301,,tutport@sancharnet.in,tuticorinport.gov.in,"8° 45' 30"" N","78° 11' 21"" E",INTUT,Seaport,Medium,
IND,Veraval,Port of Veraval,Gujarat Maritime Board,"Sector 10-A, Opp. Air Force Station
Gandhinagar
Gujarat 382 010
India",079-23238346,079-23234703,,gmbad1@sancharnet.in,www.gmbports.org,"20° 54' 8"" N","70° 22' 34"" E",INVVA,Seaport,Medium,
IDN,Banjarmasin,Port of Banjarmasin,PT (Persero) Pelabuhan Indonesia III Banjarmasin,"Jl Barito Hilir No 6
Banjarmasin 70117
Indonesia",62 51 153670,62 51 152552,,,www.pp3.co.id,"3° 19' 19"" S","114° 33' 30"" E",IDBDJ,Seaport,Medium,
IDN,Belawan,Port of Belawan,Port of Indonesia Corporate I,"Jalan Sumatera No. 1
Belawan, Sumatera Utara 20411
Indonesia",061 6941919,061 6941300,,belawan@inaport1.co.id,belawan.inaport1.co.id,"3° 47' 11"" N","98° 41' 54"" E",IDBLW,Seaport,Medium,
IDN,Dumai,Port of Dumai,Port of Indonesia Corporate I,"Cabang Dumai
Jalan Dakuk Laksamana
Dumai
Indonesia",62-765-31986,62-765-31758,,port1dmi@dumai.wasantara.net.id,dumai.inaport1.co.id,"1° 41' 15"" N","101° 27' 26"" E",IDDUM,Seaport,Medium,
IDN,Surabaya,Port of Surabaya,PT Terminal Petikemas Surabaya,"Jl. Tanjung Mutiara 1
Surabaya 60177
Indonesia",62 (31) 3283265-70,62 (31) 3291628,,,www.tps.co.id,"7° 12' 23"" S","112° 43' 41"" E",IDSUB,Seaport,Medium,
IDN,Teluk Bayur,Port of Teluk Bayur,Indonesia Port Corp II,"Teluk Bayur
Indonesia",62 21 435 1226,62 21 435 1225,,,portal.inaport2.co.id,"0° 59' 55"" S","100° 22' 27"" E",IDPDG,Seaport,Medium,
IDN,Balikpapan,Port of Balikpapan,Balikpapan Port Authority,"Jl Yos Sudarso No 30
Balikpapan, Kalimantan Timur
Indonesia",62 54 231223,62 54 231227,,,,"1° 15' 37"" S","116° 48' 43"" E",IDBPN,Seaport,Medium,
IDN,Banjarmasin,Port of Banjarmasin,PT (Persero) Pelabuhan Indonesia III Banjarmasin,"Jl Barito Hilir No 6
Banjarmasin 70117
Indonesia",62 51 153670,62 51 152552,,,www.pp3.co.id,"3° 19' 19"" S","114° 33' 30"" E",IDBDJ,Seaport,Medium,
IDN,Banten,Port of Banten,Indonesia Port Corporation II,"Jl. Raya Pelabuhan No:1
Ciwandan
Banten 42166
Indonesia",62-254-601418,62-254-601419,,cbtn2dt@indosat.net.id,www.bantenport.co.id,"6° 0' 42"" S","105° 57' 23"" E",IDBTN,Seaport,Medium,
IDN,Batu Ampar,Port of Batu Ampar,,"Batu Ampar
Indonesia",,,,,,"1° 10' 11"" N","104° 1' 12"" E",IDBUR,Seaport,Medium,
IDN,Belawan,Port of Belawan,Port of Indonesia Corporate I,"Jalan Sumatera No. 1
Belawan, Sumatera Utara 20411
Indonesia",061 6941919,061 6941300,,belawan@inaport1.co.id,belawan.inaport1.co.id,"3° 47' 11"" N","98° 41' 54"" E",IDBLW,Seaport,Medium,
IDN,Cirebon,Port of Cirebon,Indonesia Port Corporation II Cirebon Branch,"Perniagaan Street No.4
Cirebon, Java 45112
Indonesia",62-231-204109,62-231-203201,,humas@cirebonport.com,www.cirebonport.com,"6° 42' 43"" S","108° 34' 18"" E",IDCBN,Seaport,Medium,
IDN,Dumai,Port of Dumai,Port of Indonesia Corporate I,"Cabang Dumai
Jalan Dakuk Laksamana
Dumai
Indonesia",62-765-31986,62-765-31758,,port1dmi@dumai.wasantara.net.id,dumai.inaport1.co.id,"1° 41' 15"" N","101° 27' 26"" E",IDDUM,Seaport,Medium,
IDN,Gresik,Port of Gresik,Adpel Gresik,"Dit Jen Perhubungan Laut
Jl Yos Sudarso
Gresik, Jatim
Indonesia",62 31 398 1902,62 31 398 1902,,,www.pp3.co.id,"7° 9' 34"" S","112° 40' 3"" E",IDGRE,Seaport,Medium,
IDN,Jambi,Port of Jambi,Indonesia Port Corp II,"Jambi
Indonesia",62 21 435 1226,62 21 435 1225,,,portal.inaport2.co.id,"1° 17' 51"" N","103° 39' 51"" E",IDDJB,Seaport,Medium,
IDN,Makassar,Port of Makassar,,"Makassar
Indonesia",,,,,,"5° 7' 44"" S","119° 24' 53"" E",IDMAK,Seaport,Medium,
IDN,Pontianak,Port of Pontianak,Indonesia Port Corp II,"Pontianak
Indonesia",62 21 435 1226,62 21 435 1225,,,portal.inaport2.co.id,"0° 1' 22"" S","109° 20' 42"" E",IDPNK,Seaport,Medium,
IDN,Sekupang,Port of Sekupang,,"Sekupang
Indonesia",,,,,,"1° 5' 26"" N","103° 54' 52"" E",,Seaport,Medium,
IDN,Sunda Kelapa,Port of Sunda Kelapa,Indonesia Port Corporation II,"l.Maritim No.8
Sunda Kelapa 14430
Indonesia",021 6928888,,,,portal.inaport2.co.id,"6° 6' 24"" S","106° 48' 46"" E",,Seaport,Medium,
IDN,Surabaya,Port of Surabaya,PT Terminal Petikemas Surabaya,"Jl. Tanjung Mutiara 1
Surabaya 60177
Indonesia",62 (31) 3283265-70,62 (31) 3291628,,,www.tps.co.id,"7° 12' 23"" S","112° 43' 41"" E",IDSUB,Seaport,Medium,
IDN,Tanjung Emas,Port of Tanjung Emas,Tanjung Emas Semarang Port Authority,"Pelabuhan Indonesia lll
Jl Coaster No 10
Semarang, Jawa Tengah
Indonesia",62 24 545721,62 24 542649,,,,"6° 56' 47"" S","110° 25' 52"" E",IDSRG,Seaport,Medium,
IDN,Tanjung Intan,Port of Tanjung Intan,,"Tanjung Intan
Indonesia",,,,,,"7° 43' 4"" S","109° 0' 8"" E",IDCXP,Seaport,Medium,
IDN,Tanjung Uban,Port of Tanjung Uban,Tanjung Uban Port Administration Office,"Jl Nusa Indah 1
Tanjung Uban, Bintan Utara 29152
Indonesia",62 771 81064,62 771 483454,,,,"1° 4' 4"" N","104° 12' 50"" E",IDTUB,Seaport,Medium,
IDN,Teluk Bayur,Port of Teluk Bayur,Indonesia Port Corp II,"Teluk Bayur
Indonesia",62 21 435 1226,62 21 435 1225,,,portal.inaport2.co.id,"0° 59' 55"" S","100° 22' 27"" E",IDPDG,Seaport,Medium,
IRN,Amirabad,Port of Amirabad,Ports and Shipping Organization,"Amirabad
Iran",98 152546 2017,,,manager@amirabadport-sez.ir,www.pso.ir,"36° 50' 28"" N","53° 18' 40"" E",,Seaport,Medium,
IRN,Anzali,Port of Anzali,Association of Ports and Harbors of Guilan,"Anzali
Iran",98 2321 813 4005,98 2321 813 3902,,Koohsari@anzaliport.ir,www.anzaliport.ir,"37° 28' 28"" N","49° 27' 49"" E",,Seaport,Medium,
IRN,Bandar Abbas,Port of Bandar Abbas,,"Bandar Abbas
Iran",98 761 564015,98 761 564063,,,,"27° 8' 27"" N","56° 12' 24"" E",IRBND,Seaport,Medium,
IRN,Shahid Rajaee,Port of Shahid Rajaee,,"Shahid Rajaee
Iran",,,,,shahidrajaeeport.ir,"27° 5' 49"" N","56° 3' 51"" E",,Seaport,Medium,
IRQ,Basrah,Port of Basrah,,Iraq,,,,,,"30° 33' 22"" N","47° 47' 51"" E",,River Port,Medium,
IRQ,Umm Qasr,Port of Umm Qasr,,Iraq,,,,,,"30° 2' 7"" N","47° 57' 4"" E",IQUQR,Seaport,Medium,
IRL,Bantry,Bantry Bay Harbour,Bantry Bay Harbour Commissioners,"Wolfe Tone Square
Bantry, Co Cork
Ireland",353 27 53277,353 27 51202,,harbourmaster@bantrybayport.com,bantrybayport.com,"51° 40' 51"" N","9° 27' 39"" W",IEBYT,Harbor,Medium,
IRL,Dublin,Dublin Port,Dublin Port Company,"Port Centre / Alexandra Road
Dublin 1
Ireland",+353 1 8550888,+353 1 8557400,,info@dublinport.ie,www.dublinport.ie,"53° 20' 40"" N","6° 12' 34"" W",IEDUB,Seaport,Medium,
IRL,Galway,Port of Galway,Galway Harbour Co,"Harbour Office
New Docks
Galway
Ireland",353 91 561874,353 91 563738,,info@galwayharbour.com,www.galwayharbour.com,"53° 16' 12"" N","9° 2' 59"" W",IEGWY,Seaport,Medium,
IRL,Bantry,Bantry Bay Harbour,Bantry Bay Harbour Commissioners,"Wolfe Tone Square
Bantry, Co Cork
Ireland",353 27 53277,353 27 51202,,harbourmaster@bantrybayport.com,bantrybayport.com,"51° 40' 51"" N","9° 27' 39"" W",IEBYT,Harbor,Medium,
IRL,Drogheda,Drogheda Port,Drogheda Port Company,"Maritime House
The Mall
Drogheda, Co Louth
Ireland",+353 41 983 8378,+353 41 983 2844,,maritimehouse@droghedaport.ie,www.droghedaport.ie,"53° 43' 2"" N","6° 19' 34"" W",IEDRO,River Port,Medium,
IRL,Dublin,Dublin Port,Dublin Port Company,"Port Centre / Alexandra Road
Dublin 1
Ireland",+353 1 8550888,+353 1 8557400,,info@dublinport.ie,www.dublinport.ie,"53° 20' 40"" N","6° 12' 34"" W",IEDUB,Seaport,Medium,
IRL,Galway,Port of Galway,Galway Harbour Co,"Harbour Office
New Docks
Galway
Ireland",353 91 561874,353 91 563738,,info@galwayharbour.com,www.galwayharbour.com,"53° 16' 12"" N","9° 2' 59"" W",IEGWY,Seaport,Medium,
IRL,Limerick,Limerick Dock,Shannon Foynes Port Company,"Harbour Office
Foynes, County Limerick
Ireland",353 69 73100,353 69 65142,,info@sfpc.ie,www.sfpc.ie,"52° 39' 46"" N","8° 38' 0"" W",IELMK,River Port,Medium,
ISR,Ashdod,Port of Ashdod,Israeli Ports and Railways Authority,"Derech Petach Tikva 74
P.O.Box 20121
Tel Aviv 61201
Israel",972 8 851 7211,972 8 852 4202,,,www.ashdodport.co.il,"31° 49' 50"" N","34° 38' 52"" E",ILASH,Seaport,Medium,
ISR,Haifa,Port of Haifa,Israeli Ports and Railways Authority,"Derech Petach Tikva 74
P.O.Box 20121
Tel Aviv 61201
Israel",972 8 851 7211,972 8 852 4202,,info@israports.org.il,www.haifaport.org.il,"32° 49' 21"" N","35° 1' 9"" E",ILHFA,Harbor,Medium,
ITA,Cagliari,Port of Cagliari,Autorita Portuale di Cagliari,"Molo Sanita Porto di Cagliari
Cagliari 09123
Italy",39 070 679531,39 070 67953345,,autorita.portuale@tiscali.it,www.porto.cagliari.it,"39° 12' 15"" N","9° 6' 43"" E",ITCAG,Seaport,Medium,
ITA,Civitavecchia,Port of Civitavecchia,Autorita Portuale Civitavecchia,"Molo Vespucci
Civitavecchia, RM 00053
Italy",39 0766 366201,39 0766 366243,,civitavecchia@portidiroma.it,www.portidiroma.it,"42° 5' 56"" N","11° 46' 51"" E",ITCVV,Seaport,Medium,
ITA,Gioia Tauro,Gioia Tauro Harbour,,"Contrada Lamia
Gioia Tauro, RC 89013
Italy",39 0966 766415,39 0966 505438,,info@portodigioiatauro.it,www.portodigioiatauro.it,"38° 27' 24"" N","15° 54' 16"" E",ITGIT,Seaport,Medium,
ITA,Ravenna,Port of Ravenna,Port Authority of Ravenna,"Via Magazzini Anteriori, 63
Ravenna, RA 48100
Italy",+39 0544 424511,+39 0544 421945,,info@port.ravenna.it,www.port.ravenna.it,"44° 27' 44"" N","12° 15' 2"" E",ITRAN,Seaport,Medium,
ITA,Augusta,Port of Augusta,Augusta Port Authority,"Via Millo Enrico, 2
Augusta, SR 96011
Italy",0931524080,0931523652,,compamareauop@interfree.it,www.harbours.net/augusta,"37° 14' 7"" N","15° 13' 0"" E",ITAUG,Seaport,Medium,
ITA,Brindisi,Port of Brindisi,Autorita Portuale di Brindisi,"7, Vittorio Emanuele II Square
Brindisi, Puglia 72100
Italy",+39 0831 562649,+39 0831 562225,,info@porto.br.it,www.porto.br.it,"40° 38' 47"" N","17° 57' 34"" E",ITBDS,Seaport,Medium,
ITA,Cagliari,Port of Cagliari,Autorita Portuale di Cagliari,"Molo Sanita Porto di Cagliari
Cagliari 09123
Italy",39 070 679531,39 070 67953345,,autorita.portuale@tiscali.it,www.porto.cagliari.it,"39° 12' 15"" N","9° 6' 43"" E",ITCAG,Seaport,Medium,
ITA,Civitavecchia,Port of Civitavecchia,Autorita Portuale Civitavecchia,"Molo Vespucci
Civitavecchia, RM 00053
Italy",39 0766 366201,39 0766 366243,,civitavecchia@portidiroma.it,www.portidiroma.it,"42° 5' 56"" N","11° 46' 51"" E",ITCVV,Seaport,Medium,
ITA,Gioia Tauro,Gioia Tauro Harbour,,"Contrada Lamia
Gioia Tauro, RC 89013
Italy",39 0966 766415,39 0966 505438,,info@portodigioiatauro.it,www.portodigioiatauro.it,"38° 27' 24"" N","15° 54' 16"" E",ITGIT,Seaport,Medium,
ITA,Messina,Port of Messina,Messina Port Authority,"	Via V Emanuele 11, n 3
Messina, ME 98100
Italy",39 090 679991,39 090 710120,,,,"38° 12' 1"" N","15° 33' 52"" E",ITMSN,Harbor,Medium,
ITA,Oristano,Port of Oristano,Oristano Port Authority,"Uff Circondariale Marittimo
Oristano, Sardinia, OR 09170
Italy",,,,,,"39° 51' 48"" N","8° 33' 16"" E",ITQOS,Seaport,Medium,
ITA,Palermo,Port of Palermo,Autorita Portuale di Palermo,"Via Piano dell'Ucciardone, 4
Palermo, PA 90139
Italy",39 091 627 7111,39 091 637 4291,,autport@autport.pa.it,www.autport.pa.it,"38° 7' 51"" N","13° 22' 18"" E",ITPMO,Seaport,Medium,
ITA,Priolo Gargallo,Melilli Oil Terminal,,"Priolo Gargallo
Italy",,,,,,"37° 10' 50"" N","15° 11' 56"" E",ITMLZ,Seaport,Medium,
ITA,Punto Franco,Punto Franco,Autorita Portuale Trieste,"Via Von Bruck, 3
Trieste, TS 34143
Italy",040.6731,040.6732406,,info@porto.trieste.it,www.porto.trieste.it,"45° 36' 57"" N","13° 46' 43"" E",,Seaport,Medium,
ITA,Ravenna,Port of Ravenna,Port Authority of Ravenna,"Via Magazzini Anteriori, 63
Ravenna, RA 48100
Italy",+39 0544 424511,+39 0544 421945,,info@port.ravenna.it,www.port.ravenna.it,"44° 27' 44"" N","12° 15' 2"" E",ITRAN,Seaport,Medium,
ITA,Salerno,Port of Salerno,Salerno Port Authority,"Via A Sabatini 8
Salerno, SA 84121
Italy",39 089 258 8111,39 089 251450,,cpsalerno@libero.it,,"40° 40' 19"" N","14° 44' 47"" E",ITSAL,Harbor,Medium,
ITA,Taranto,Port of Taranto,Autorita Portuale di Taranto,"Porto Mercantile
CP 267
Taranto, TA 74100
Italy",39 099 4711611,39 099 4706877,,authority@port.taranto.it,www.port.taranto.it,"40° 29' 17"" N","17° 11' 32"" E",ITTAR,Seaport,Medium,
ITA,Trieste,Port of Trieste,Autorita Portuale Trieste,"Via Von Bruck, 3
Trieste, TS 34143
Italy",040.6731,040.6732406,,info@porto.trieste.it,www.porto.trieste.it,"45° 38' 42"" N","13° 45' 24"" E",ITTRS,Seaport,Medium,
JAM,Kingston,Port of Kingston,Port Authority of Jamaica,"15-17 Duke Street
Kingston
Jamaica",876 922-0290-8,876 924-9437,,paj@portjam.com,www.portjam.com,"17° 58' 54"" N","76° 49' 46"" W",JMKIN,Seaport,Medium,
JPN,Kashima,Port of Kashima,Kashima Port Administration,"13 Higashi Fukashiba
Kamisu-cho
Kashima-gun, Ibaraki 314-0103
Japan",81 29 992 2111,81 29 992 2328,,,,"35° 55' 35"" N","140° 41' 29"" E",,Seaport,Medium,
JPN,Mizushima,Port of Mizushima,Mizushima Port Authority,"Mizushima Port Office
1-12 Mizushima Fukuzaki-cho
Kurashiki City, Okayama 712-8056
Japan",81 86 444 7141,81 86 448 3010,,,www.pref.okayama.jp/bichu/mizu/port.htm,"34° 30' 15"" N","133° 44' 12"" E",JPMIZ,Seaport,Medium,
JPN,Moji,Port of Moji,Moji Port Authority,"Port and Harbour Bureau
2-7 Nishi Kaigan, 1-chome
Moji-ku, Kitakyushu, Fukuoka 801-0841
Japan",81 93 321 5941,81 93 321 5933,,,,"33° 56' 57"" N","130° 57' 42"" E",,Seaport,Medium,
JPN,Sendai,Port of Sendai,Council for Sendai International Commercial Port Development,"16-12,Honcho 2-chome
Aoba-ku
Sendai, Miyagi 980-8414
Japan",022 265-8181,022 217-1551,,kokusai@sendaicei.or.jp,www.sendaicci.or.jp/minato/english,"38° 16' 12"" N","141° 1' 18"" E",,Seaport,Medium,
JPN,Abashiri,Port of Abashiri,Abashiri Port Authority,"Minami 6
Abashiri, Hokkaido Pref 093-0006
Japan",81 15 244 6111,81 15 243 6151,,,www.hkd.mlit.go.jp/zigyoka/z_kowan/bayport/profile/abashiri.html,"44° 1' 5"" N","144° 17' 17"" E",JPABA,Seaport,Medium,
JPN,Aioi,Port of Aioi,Aioi Port Authority,"Kamigori Doboku (Public Works)
500-5 Aza Maruogami, Kamigori, Kamigoori-cho
Ako-gun, Hyogo Pref 678-1231
Japan",81 79 152 5111,,,,,"34° 47' 6"" N","134° 27' 43"" E",JPAIO,Seaport,Medium,
JPN,Akita,Port of Akita,Akita Prefectural Government,"7-1, Tsuchizaki-minato, Nishi 1-chome
Akita
Japan",81-18-845-2021,,,,www.city.akita.akita.jp/city/in/hb/port,"39° 45' 44"" N","140° 2' 37"" E",JPAXT,Seaport,Medium,
JPN,Amagasaki,Port of Amagasaki,Amagasaki Port Authority,"Port Division, Planning Branch, Hyogo Prefectural Government
5-10 Shimoyamate-dori
Chuo-ku, Kobe 650-8567
Japan",81 78 341 7711,,,,,"34° 41' 29"" N","135° 23' 0"" E",JPAMA,Seaport,Medium,
JPN,Choshi,Port of Choshi,,"Choshi, Chiba Prefecture 260-8667
Japan",0479-24-8181,,,,www.city.choshi.chiba.jp,"35° 43' 19"" N","140° 51' 1"" E",,Seaport,Medium,
JPN,Fukui,Port of Fukui,"City of Fukui, Ports and Harbor Division","Fukui
Japan",+81 77 621 1111,+81 77 624 9296,,,www.fukuiport.com,"36° 12' 5"" N","136° 7' 36"" E",JPFKJ,Seaport,Medium,
JPN,Fukuyama,Port of Fukuyama,Fukuyama Port Authority,"Port Section of Hiroshima
Motomachi, 10-52 Naka-ku
Hiroshima City, Hiroshima Pref 730-0011
Japan",81 84 921 1311,,,,,"34° 27' 30"" N","133° 25' 36"" E",,Seaport,Medium,
JPN,Funakawa,Port of Funakawa,Funakawa Port Authority,"134 Aza Sotogasawa
Funakawa Minato
Oga City, Akita 010-0511
Japan",81 185 233721,81 185 244780,,,,"39° 52' 33"" N","139° 51' 18"" E",,Seaport,Medium,
JPN,Gamagori,Port of Gamagori,,"Gamagori, Aichi Prefecture
Japan",,,,,www.city.gamagori.lg.jp,"34° 48' 56"" N","137° 14' 18"" E",,Seaport,Medium,
JPN,Hachinohe,Port of Hachinohe,Hachinohe Port Authority,"1-131 Aza Kitanuma
Oaza Kawaragi
Hachinohe, Aomori 039-1161
Japan",81 17 828 2105,,,,www.pref.aomori.lg.jp/kowankuko/english/minato/hachinohe/hachinohe.htm,"40° 32' 45"" N","141° 31' 39"" E",JPHHE,Seaport,Medium,
JPN,Hakodate,Port of Hakodate,"Depertment of Port, Harbar and Airport","4-13 Shinonome-cho
Hakodate, Hokkaido 040-0036
Japan",81-138-21-3487,81-138-26-2656,,,www.hakodate-port.jp,"41° 47' 16"" N","140° 42' 51"" E",JPHKD,Seaport,Medium,
JPN,Hamakanaya,Port of Hamakanaya,Chiba Prefecture,"1-1, Ichibacho
Chuou-ku
Chiba City, Chiba 260-8667
Japan",043-223-2110,,,,www.pref.chiba.lg.jp/business/kowan/otherport-e.html,"35° 9' 55"" N","139° 49' 12"" E",JPHKW,Seaport,Medium,
JPN,Hannan,Port of Hannan,Hannan Port Authority,"Port Administration Office
34-3 Nammatsu-cho
Kishiwada City, Osaka 596-0052
Japan",81 72 439 5261,,,,www.pref.osaka.jp/osaka-pref/kowan/port/hannan.htm,"34° 27' 45"" N","135° 20' 50"" E",JPHAN,Seaport,Medium,
JPN,Hatsukaichi,Hatsukaichi Harbor,,"Hatsukaichi, Hiroshima Prefecture
Japan",,,,,www.city.hatsukaichi.hiroshima.jp,"34° 20' 53"" N","132° 20' 54"" E",,Seaport,Medium,
JPN,Hibiki,Hibiki Port,Kitakyushu Seaport and Airport Bureau,"1-2-7 Nishi-Kaigan
Moji-Ku
Kitakyushu 801-8555
Japan",81-93-321-5941,81-093-321-5933,,kqport@kitaqport.or.jp,www.kitaqport.or.jp,"33° 56' 15"" N","130° 46' 17"" E",JPHBK,Seaport,Medium,
JPN,Higashi-Harima,Port of Higashi-Harima,Higashi-Harima Port Authority,"5-10-1 Yamate-dori
Chuo-ku
Kobe, Hyogo 650-8567
Japan",81 78 341 7711,81 78 341 6477,,,,"34° 42' 47"" N","134° 49' 54"" E",,Seaport,Medium,
JPN,Hikari,Hikari Harbor,,"Hikari, Yamaguchi Prefecture
Japan",,,,,www.city.hikari.yamaguchi.jp,"33° 57' 20"" N","131° 56' 17"" E",,Seaport,Medium,
JPN,Himeji,Port of Himeji,Himeji Port Administration Office,"294 Suka
Shikama-ku
Himeji, Hyogo 672-8063
Japan",81 79 235 0176,,,,,"34° 46' 27"" N","134° 36' 19"" E",JPHIM,Seaport,Medium,
JPN,Hirao,Port of Hirao,Hirao-cho Town Office,"Economics Section Hirao
Kumage-gun
Hirao, Yamaguchi 742-1101
Japan",81 82 056 7117,81 82 056 7123,,,,"33° 55' 16"" N","132° 3' 18"" E",JPHRA,Seaport,Medium,
JPN,Hirohata,Port of Hirohata,Hirohata Port Office,"c/o Himeji Port Admin Office
294 Suka
Shikama-ku, Himeji City, Hyogo 672-8063
Japan",81 79 235 0176,,,,,"34° 46' 54"" N","134° 37' 45"" E",JPHRH,Seaport,Medium,
JPN,Hiroshima,Port of Hiroshima,Hiroshima Port Promotion Association,"10-52 Motomachi
Nakaku, Hiroshima 730-8511
Japan",81 82 228 2111,81 82 223 2463,,,www.pref.hiroshima.lg.jp,"34° 21' 55"" N","132° 25' 27"" E",JPHIJ,Seaport,Medium,
JPN,Hitachi,Port of Hitachi,Hitachi Port Authority,"Hitachi City Office
3-21 Kuji-cho, 1-chome
Hitachi, Ibaraki 319-1222
Japan",81 29 452 4000,81 29 453 5337,,,,"36° 29' 27"" N","140° 37' 22"" E",JPHTC,Seaport,Medium,
JPN,Hososhima,Port of Hososhima,Hososhima Port Authority,"Port Administration Office
17371-2 Shinkai
Hichiya, Hyuga City, Miyazaki 883-0062
Japan",81 98 252 5366,81 98 252 5368,,,,"32° 26' 23"" N","131° 39' 43"" E",JPHSM,Seaport,Medium,
JPN,Imabari,Port of Imabari,Imabari Port Authority,"Imabari Port Administration
2 Katahara-cho, 1-chome
Imabari, Ehime 794-0013
Japan",81 89 822 4120,81 89 822 4121,,,,"34° 4' 5"" N","133° 0' 35"" E",JPIMB,Seaport,Medium,
JPN,Imari,Port of Imari,Imari Port Authority,"Public Works Office
122-4 Shinten-cho
Imari, Saga 848-0041
Japan",81 95 523 4151,,,,,"33° 18' 19"" N","129° 49' 24"" E",JPIMI,Seaport,Medium,
JPN,Innoshima,Port of Innoshima,Innoshima Port Authority,"Mihara Doboku (Public Works)
1834-65 Enichi-cho
Mihara, Hiroshima 723-0015
Japan",81 84 864 2322,,,,,"34° 16' 48"" N","133° 11' 13"" E",JPINS,Seaport,Medium,
JPN,Ishikari,Ishikariwan Bay New Port,Ishikari Bay New Port Authority,"PO Box 061-3242
202 Shinko-chou, 1-chome
Ishikari, Hokkaido 061-3242
Japan",81 13 364 6661,81 13 364 6666,,banan@seagreen.ocn.ne.jp,,"43° 12' 11"" N","141° 17' 19"" E",JPISI,Seaport,Medium,
JPN,Ishinomaki,Port of Ishinomaki,"Port and Harbor Section,  City of Ishinomaki","17-2 Nakajima-cho
Ishinomaki, Miyagi
Japan",986-0845,,81 22 595 6271,,www.port-ishinomaki.jp,"38° 24' 48"" N","141° 15' 57"" E",JPISM,Seaport,Medium,
JPN,Itozaki,Port of Itozaki,Itozaki Port Authority,"Mihara Harbour Bureau
840-5 Minato-machi
Mihara, Hiroshima 723-0017
Japan",81 84 867 6107,81 84 864 6057,,,,"34° 23' 31"" N","133° 5' 11"" E",JPITO,Seaport,Medium,
JPN,Iwakuni,Port of Iwakuni,Iwakuni Port Authority,"557-15 Shozoku
6-chome
Iwakuni, Yamaguchi 740-0001
Japan",81 82 721 2495,,,,,"34° 10' 37"" N","132° 14' 11"" E",JPIWK,Seaport,Medium,
JPN,Kainan,Port of Kainan,Kainan Port Authority,"c/o Wakayam Shimotsu Port Office
22 Chikko, 6-chome
Wakayama, Wakayama 640-8287
Japan",81 734 317266,,,,,"34° 9' 11"" N","135° 11' 29"" E",JPKAI,Seaport,Medium,
JPN,Kakogawa,Port of Kakogawa,Kakogawa Port Authority,"Kakogawa Doboku Office
97-1 Tenjingi, Jike-machi
Kakogawa-cho, Kakogawa, Hyogo 675-0066
Japan",81 79 421 1101,,,,,"34° 42' 36"" N","134° 50' 16"" E",JPKGA,Seaport,Medium,
JPN,Kamaishi,Port of Kamaishi,Kamaishi Port Administration Office,"5-12 Minato-machi
1-chome
Kamaishi, Iwate 026-0011
Japan",81 19 322 0616,,,,,"39° 16' 10"" N","141° 53' 43"" E",JPKIS,Seaport,Medium,
JPN,Kanazawa,Port of Kanazawa,Kanazawa Port Authority,"Port Administration Office
12 Minato, 4-chome
Kanazawa, Ishikawa 920-0211
Japan",81-76-225-1516,,,,www.pref.ishikawa.jp,"36° 37' 1"" N","136° 36' 37"" E",JPKNZ,Seaport,Medium,
JPN,Kanda,Port of Kanda,Kanda Port Authority,"Port Administration Office
29 Minato-machi, Kanda-machi
Miyako-gun, Fukuoka 800-0315
Japan",81 93 434 0585,,,,,"33° 47' 17"" N","131° 0' 22"" E",,Seaport,Medium,
JPN,Kanokawa,Port of Kanokawa,Kanokawa Port Authority,"Ohgaki Dobuko Office
1274-3 Obara, Ogaki-cho
Saeki-ku, Hiroshima 737-2213
Japan",81 82 357 3434,,,,,"34° 11' 23"" N","132° 26' 27"" E",JPKKW,Seaport,Medium,
JPN,Karatsu,Port of Karatsu,Karatsu Port Authority,"1-1-59 Jonai
Saga, Saga 840-0041
Japan",81 95 224 2111,,,,,"33° 28' 15"" N","129° 57' 33"" E",JPKAR,Seaport,Medium,
JPN,Kasaoka,Port of Kasaoka,Kasaoka Port Authority,"Ikasa Chiho Shinko-kyoku
2-5 Rokuban-cho
Kasaoka, Okayama 714-0087
Japan",81 86 563 5252,,,,,"34° 27' 40"" N","133° 26' 12"" E",JPKSA,Seaport,Medium,
JPN,Kashima,Port of Kashima,Kashima Port Administration,"13 Higashi Fukashiba
Kamisu-cho
Kashima-gun, Ibaraki 314-0103
Japan",81 29 992 2111,81 29 992 2328,,,,"35° 55' 35"" N","140° 41' 29"" E",,Seaport,Medium,
JPN,Kiire,Port of Kiire,Kiire Port Authority,"Ibusuki Public Works Office
301 Takanohara, 12-chome
Ibusuki City, Kagoshima 891-1400
Japan",81 993 222171,,,,,"31° 23' 20"" N","130° 32' 56"" E",JPKII,Seaport,Medium,
JPN,Kinwan,Port of Kinwan,Kinwan Port Authority,"Port and Harbour Department
1-2-32 Senzaki
Naha City, Okinawa 900-0000
Japan",81 98 866 2395,81 98 866 2800,,,,"26° 21' 21"" N","127° 57' 35"" E",JPKIN,Seaport,Medium,
JPN,Kudamatsu,Port of Kudamatsu,Kudamatsu Port Authority,"Shunan Port Admin Office
111 Chikko-cho
Tokuyama City, Yamaguchi 745-0025
Japan",81 83 421 1787,,,,,"34° 0' 10"" N","131° 51' 6"" E",JPKUD,Seaport,Medium,
JPN,Kure,Port of Kure,Kure Port and Harbour Bureau,"1-6 Chuo, 4-chome
Kure City, Hiroshima 737-0051
Japan",81 82 325 3333,81 93 321 5915,,,,"34° 13' 56"" N","132° 32' 42"" E",,Seaport,Medium,
JPN,Kushiro,Port of Kushiro,"Port and Harbor Department, City of Kushiro","1-100-17 Nishi-ko
Kushiro, Hokkaido 084-0904
Japan",81 15 453 3371,81 15 452 4761,,ku210101@city.kushiro.hokkaido.jp,www.city.kushiro.hokkaido.jp,"42° 59' 19"" N","144° 21' 13"" E",JPKUH,Seaport,Medium,
JPN,Maizuru,Port of Maizuru,Maizuru Port Promotion Association,"3rd Flr, Maizuru 21 Building
1105-1 Kita
Maizuru City, Kyoto 624 - 0945
Japan",81-0773-75-7184,81-0773-75-7198,,m-port@mxa.nkansai.ne.jp,www.port.maizuru.kyoto.jp,"35° 28' 54"" N","135° 23' 11"" E",JPMAI,Seaport,Medium,
JPN,Mishima-Kawanoe,Port of Mishima-Kawanoe,Mishima-Kawanoe Port Authority,"6-45 Kamiya-cho
Iyo Mishima City, Ehime 799-0402
Japan",81 89 623 5267,,,,,"34° 0' 21"" N","133° 33' 25"" E",,Seaport,Medium,
JPN,Miyazaki,Miyazaki Harbor,,"Miyazaki, Miyazaki Prefecture
Japan",,,,,www.city.miyazaki.miyazaki.jp,"31° 54' 45"" N","131° 27' 48"" E",,Seaport,Medium,
JPN,Mizushima,Port of Mizushima,Mizushima Port Authority,"Mizushima Port Office
1-12 Mizushima Fukuzaki-cho
Kurashiki City, Okayama 712-8056
Japan",81 86 444 7141,81 86 448 3010,,,www.pref.okayama.jp/bichu/mizu/port.htm,"34° 30' 15"" N","133° 44' 12"" E",JPMIZ,Seaport,Medium,
JPN,Moji,Port of Moji,Moji Port Authority,"Port and Harbour Bureau
2-7 Nishi Kaigan, 1-chome
Moji-ku, Kitakyushu, Fukuoka 801-0841
Japan",81 93 321 5941,81 93 321 5933,,,,"33° 56' 57"" N","130° 57' 42"" E",,Seaport,Medium,
JPN,Muroran,Port of Muroran,Muroran Port Authority,"Mubanchi
Kaigan-cho, 1-chome
Muroran City, Hokkaido 051-0022
Japan",81 14 322 3191,81 14 322 6069,,,,"42° 20' 9"" N","140° 57' 23"" E",JPMUR,Seaport,Medium,
JPN,Mutsuogawara,Port of Mutsuogawara,Aomori Prefecture,"Mutsuogawara
Japan",,,,,www.pref.aomori.lg.jp/kowankuko/english/minato/mutsuogawara/mutsuogawara.htm,"40° 56' 44"" N","141° 23' 23"" E",JPMUT,Seaport,Medium,
JPN,Nagasu,Port of Nagasu,,"Nagasu, Kumamoto Prefecture
Japan",,,,,,"32° 55' 1"" N","130° 27' 8"" E",,Seaport,Medium,
JPN,Naha,Port of Naha,Naha Port Authority,"2-1 Tondo-cho
Naha, Okinawa 900-0035
Japan",81-98-868-4544,81-98-868-2629,,kumiai@nahaport.jp,www.nahaport.jp,"26° 14' 15"" N","127° 40' 35"" E",,Seaport,Medium,
JPN,Namikata,Port of Namikata,Namikata Port Authority,"Matsuyama Port Admin Office
6-29 Mitsu, 1-chome
Matsuyama City, Ehime 791-8061
Japan",81 89 951 2148,,,,,"34° 7' 8"" N","132° 54' 26"" E",JPNIT,Seaport,Medium,
JPN,Nanao,Port of Nanao,Nanao Port Administration,"162-2 Nibu
Yada Shin-machi
Nanao City, Ishikawa 926-0015
Japan",81 76 753 0440,,,,www.pref.ishikawa.jp,"37° 3' 31"" N","136° 58' 59"" E",JPNNO,Seaport,Medium,
JPN,Naoetsu,Port  of Naoetsu,"Bureau of Port and Airport Development, Niigata Prefecture","4-1 Shinko-cho
Niigata City, Niigata 950-8570
Japan",81 025-543-4167,81 025-544-4529,,T1700102@mail.pref.niigata.jp,www.pref.niigata.lg.jp/jouetsu_naoetsu/1203613273875.html,"37° 11' 57"" N","138° 15' 41"" E",JPNAO,Seaport,Medium,
JPN,Oarai,Port of Oarai,,"Oarai, Ibaraki Prefecture
Japan",,,,,,"36° 18' 20"" N","140° 34' 30"" E",,Seaport,Medium,
JPN,Oita,Port of Oita,The Port Authority of Oita,"1-1 3 Chome
Otemachi
Oita City, Oita 870-8501
Japan",097-536-1111,097-537-0907,,,www.pref.oita.jp/14300/faz/faz1/english/faz_en.html,"33° 16' 20"" N","131° 40' 48"" E",JPOIT,Seaport,Medium,
JPN,Omaezaki,Port of Omaezaki,Omaezaki Port Administration Office,"6129-1 Omaezaki
Omazaeki-chou
Haibara-gun, Shizuoka 421-0601
Japan",81 54 863 3211,81 54 863 5594,,,,"34° 37' 10"" N","138° 13' 1"" E",JPOMZ,Seaport,Medium,
JPN,Onahama,Port of Onahama,Fukushima Prefecture,"38-1 Aza-Tatsumi-cho
Onahama, Fukushima 971-8101
Japan",24-521-7496,24-521-7953,,port-harbour@mail.pref.fukushima.jp,www.pref.fukushima.jp,"36° 55' 43"" N","140° 53' 13"" E",JPONA,Seaport,Medium,
JPN,Onoda,Port of Onoda,Onoda Port Authority,"Onoda, Yamaguchi 756-0000
Japan",81 83 922 8111,81 83 925 8862,,,,"33° 58' 23"" N","131° 10' 2"" E",JPOND,Seaport,Medium,
JPN,Onomichi,Port of Onomichi,,"Onomichi, Hiroshima Prefecture 723-0015
Japan",81 84 864 2322,,,,www.city.onomichi.hiroshima.jp,"34° 23' 57"" N","133° 11' 20"" E",JPONO,Seaport,Medium,
JPN,Otake,Otake Harbor,,"Otake, Hiroshima Prefecture
Japan",,,,,www.city.otake.hiroshima.jp,"34° 12' 58"" N","132° 14' 4"" E",,Seaport,Medium,
JPN,Sakai,Port of Sakai,Sakai Port Authority,"1 Shiohama-cho
Sakai City, Osaka 590-0981
Japan",81 72 238 5241,,,info@sakaiminato-faz.co.jp,www.sakaiminato-faz.co.jp,"34° 34' 31"" N","135° 26' 7"" E",JPSAK,Seaport,Medium,
JPN,Sakaide,Port of Sakaide,Sakaide Port Administration,"5-32 Irifune-cho
1-chome
Sakaide City, Kagawa 762-0002
Japan",81 87 746 2518,,,,www.city.sakaide.kagawa.jp,"34° 20' 10"" N","133° 50' 29"" E",JPSKD,Seaport,Medium,
JPN,Sakaiminato,Port of Sakaiminato,Sakaiminato Port Authority,"Mubanchi
Sakae-machi
Sakaiminato City, Tottori 684-0000
Japan",81 85 942 3705,,,,,"35° 32' 10"" N","133° 15' 37"" E",JPSMN,Seaport,Medium,
JPN,Sasebo,Port of Sasebo,Sasebo Port and Harbour Bureau,"1-10 Hachiman-cho
Sasebo, Nagasaki
Japan",81 95 622 6128,,,,www.city.sasebo.nagasaki.jp,"33° 9' 25"" N","129° 42' 44"" E",JPSSB,Seaport,Medium,
JPN,Sendai,Port of Sendai,Council for Sendai International Commercial Port Development,"16-12,Honcho 2-chome
Aoba-ku
Sendai, Miyagi 980-8414
Japan",022 265-8181,022 217-1551,,kokusai@sendaicei.or.jp,www.sendaicci.or.jp/minato/english,"38° 16' 12"" N","141° 1' 18"" E",,Seaport,Medium,
JPN,Shikama,Port of Shikama,Shikama Port Authority,"c/o Himeji Port Admin Office
294 Suka, Shikama-ku
Himeji City, Hyogo 672-8063
Japan",81 79 235 0176,,,,,"34° 46' 43"" N","134° 39' 16"" E",JPSKM,Seaport,Medium,
JPN,Shimizu,Port of Shimizu,Shimizu Port Authority,"9-25 Hinode
Shimizu-ku
Shizuoka City, Shizuoka Prefecture 424-0922
Japan",+81-543-53-2203,+81-543-54-0380,,port@mail.wbs.ne.jp,www.portofshimizu.com,"35° 0' 52"" N","138° 30' 56"" E",JPSMZ,Seaport,Medium,
JPN,Shimonoseki,Port of Shimonoseki,"Port and Harbour Bureau, Shimonoseki City Government","1-1, Nabe-cho
Shimonoseki 750-8521
Japan",+81-832-31-1111,+81-832-33-0860,,webmaster@shimonoseki-port.com,www.shimonoseki-port.com,"33° 56' 4"" N","130° 54' 6"" E",JPSHS,Seaport,Medium,
JPN,Shiogama,Port of Shiogama,Shiogama Port Authority,"Miyagi Prefectural Government
8-1 Honcho, 3-chome
Sendai City, Miyagi 980-0014
Japan",81 22 211 3211,81 22 211 3296,,,,"38° 19' 9"" N","141° 3' 4"" E",,Seaport,Medium,
JPN,Susaki,Port of Susaki,Kochi Port Authority,"1-2-2 Marunouchi
Kochi City, Kochi 780-8570
Japan",81 88 823 1111,81 88 823 9896,,175201@ken.pref.kochi.lg.jp,www.pref.kochi.lg.jp,"33° 23' 27"" N","133° 17' 29"" E",JPSUZ,Seaport,Medium,
JPN,Takamatsu,Port of Takamatsu,Takamatsu Port Authority,"Port Administration Office
10-10 Tamamo-cho
Takamatsu City, Kagawa 760-0030
Japan",81 87 851 3442,,,,,"34° 21' 19"" N","134° 3' 19"" E",JPTAK,Seaport,Medium,
JPN,Tokuyama,Port of Tokuyama,Tonda Port Authority,"Shunan Port Admin Office
111 Chikko-cho
Tokuyama City, Yamaguchi 745-0025
Japan",81 83 421 1787,,,,,"34° 3' 16"" N","131° 47' 38"" E",JPTKY,Seaport,Medium,
JPN,Tomakomai,Port of Tomakomai,Tomakomai Port Authority,"6-38 Minato-machi
1-chome
Tomakomai City, Hokkaido Hokkaido
Japan",81 14 434 5551,81 14 434 5559,,h-arisawa@jptmk.com,www.jptmk.com,"42° 38' 15"" N","141° 39' 19"" E",JPTMK,Seaport,Medium,
JPN,Tonda,Port of Tonda,Tonda Port Authority,"c/o Shunan Port Admin Office
111 Chikko-cho
Tokuyama City, Yamaguchi 745-0025
Japan",81 83 421 1787,,,,,"34° 3' 48"" N","131° 44' 47"" E",JPTND,Seaport,Medium,
JPN,Toyohashi,Port of Toyohashi,,"Toyohashi, Aichi Prefecture
Japan",,,,,www.city.toyohashi.aichi.jp,"34° 43' 17"" N","137° 18' 33"" E",JPTHS,Seaport,Medium,
JPN,Tsu,Port of Tsu,,"Tsu, Mie Prefecture
Japan",,,,+81 59 2293180,www.info.city.tsu.mie.jp,"34° 40' 34"" N","136° 32' 33"" E",,Seaport,Medium,
JPN,Ube,Port of Ube,Ube Port Administration Office,"5-7 Minato-machi
1-chome
Ube City, Yamaguchi 755-0027
Japan",81 83 631 3311,81 83 925 8862,,,,"33° 56' 18"" N","131° 14' 25"" E",JPUBJ,Seaport,Medium,
JPN,Uraga,Port of Uraga,,"Uraga
Yokosuka City, Kanagawa Prefecture
Japan",,,,,www.city.yokosuka.kanagawa.jp,"35° 13' 13"" N","139° 43' 8"" E",,Seaport,Medium,
JPN,Ushibuka,Port of Ushibuka,,"Ushibuka District
Amakusa, Kumamoto Prefecture
Japan",,,,,www.city.amakusa.kumamoto.jp,"32° 12' 1"" N","130° 1' 27"" E",,Seaport,Medium,
JPN,Wakkanai,Port of Wakkanai,Wakkanai Base Company (WABCO),"Kaiun 2-1-7
Wakkanai, Hokkaido 097-0023
Japan",81 162-29-0111,81 162-29-0112,,wabco02@poppy.ocn.ne.jp,www.city.wakkanai.hokkaido.jp,"45° 24' 38"" N","141° 41' 33"" E",JPWKJ,Seaport,Medium,
JPN,Yawata,Port of Yawata,Kitakyushu Seaport and Airport Bureau,"1-2-7 Nishi-Kaigan
Moji-Ku
Kitakyushu 801-8555
Japan",81-93-321-5941,81-093-321-5933,,kqport@kitaqport.or.jp,www.kitaqport.or.jp,"33° 53' 38"" N","130° 47' 53"" E",,Seaport,Medium,
JPN,Yokkaichi,Port of Yokkaichi,Yokkaichi Port Authority,"1 - 1, Kasumi 2 - Chome
Yokkaichi, Mie 510-0011
Japan",81 059-366-7006,81 059-366-7048,,kanri@yokkaichi-port.or.jp,www.yokkaichi-port.or.jp,"34° 57' 26"" N","136° 38' 58"" E",JPYKK,Seaport,Medium,
JPN,Yokosuka,Port of Yokosuka,Yokosuka City Hall Port and Harbor Department,"11 Ogawa-cho
Yokosuka City, Kanagawa 238-8550
Japan",81 46 822 4000,81 46 826 3210,,pg-ph@city.yokosuka.kanagawa.jp,www.city.yokosuka.kanagawa.jp/minato,"35° 18' 16"" N","139° 39' 25"" E",JPYOS,Seaport,Medium,
JOR,Aqaba,Mo'ta Berth and Moshterak Berth,Ports Corporation,"PO Box 115
Aqaba 77110
Jordan",962 3 2014031,962 3 2016204,,info@aqabaports.gov.jo,www.aqabaports.com.jo,"29° 28' 11"" N","34° 58' 45"" E",,Port Terminal,Medium,
JOR,Aqaba,Port of Aqaba,Ports Corporation,"PO Box 115
Aqaba 77110
Jordan",962 3 2014031,962 3 2016204,,info@aqabaports.gov.jo,www.aqabaports.com.jo,"29° 31' 6"" N","34° 59' 52"" E",,Seaport,Medium,
KAZ,Aktau,Morskoy Port Aktau,,"Aktau
Kazakhstan",,,,,,"43° 36' 6"" N","51° 12' 53"" E",,Seaport,Medium,
KAZ,Atyrau,Port of Atyrau,,"Atyrau
Kazakhstan",,,,,,"47° 4' 21"" N","51° 52' 3"" E",,Seaport,Medium,
KEN,Mombasa,Port of Mombasa,Kenya Ports Authority,"P.O Box 95009
Mombasa
Kenya",254-041-2312211,254-041-2311867,,,www.kpa.co.ke,"4° 3' 4"" S","39° 38' 6"" E",KEMBA,Seaport,Medium,
KIR,Betio,Port of Betio,Kiribati Ports Authority,"PO Box 50
Betio, Tarawa
Kiribati",686 26972,686 26164,,kpa@tskl.net.ki,,"1° 21' 44"" N","172° 55' 53"" E",,Harbor,Medium,
PRK,Chongjin,Port of Chongjin,,"Chongjin
Korea, North",,,,,,"41° 45' 40"" N","129° 47' 29"" E",KPCHO,Seaport,Medium,
PRK,Haeju,Port of Haeju,,"Haeju
Korea, North",,,,,,"38° 0' 0"" N","125° 42' 14"" E",KPHAE,Seaport,Medium,
PRK,Hungnam,Port of Hungnam,,"Hungnam
Korea, North",,,,,,"39° 49' 34"" N","127° 38' 7"" E",KPHGM,Seaport,Medium,
PRK,Wonsan,Port of Wonsan,,"Wonsan
Korea, North",,,,,,"39° 10' 5"" N","127° 26' 53"" E",KPWON,Seaport,Medium,
KOR,Daesan,Port of Daesan,Daesan Regional Office of Oceans and Fisheries,"42 Hongcheonro (Jamheung-dong)
Seosan-si
Daesan, Chuncheongnam-do
Korea, South",+82-41-660-7700,+82-41-663-0356,,,daesan.mof.go.kr/eng/index.do,"37° 0' 51"" N","126° 22' 48"" E",,Seaport,Medium,
KOR,Donghae,Port of Donghae,Donghae Regional Maritime Affairs and Fisheries Office,"806 Cheongok-dong
Donghae City, Gangwon 240-716
Korea, South",033-533-3011,033-533-1415,,,,"37° 29' 35"" N","129° 8' 12"" E",KRTGH,Seaport,Medium,
KOR,Jeju (Cheju),Port of Jeju (Cheju),Jeju Regional Maritime Affairs and Fisheries Office,"Korea, South",064 720 2600,064 752 2163,,,jeju.momaf.go.kr,"33° 31' 33"" N","126° 32' 16"" E",,Seaport,Medium,
KOR,Pohang,Port of Pohang,Pohang Regional Maritime Affair and Fisheries Office,"(791-120) 58-7 Hanggu-dong
Buk-gu
Pohang
Korea, South",054-242-1812,054-247-2122,,,,"36° 1' 11"" N","129° 24' 16"" E",KRKPO,Seaport,Medium,
KOR,Pyeongtaek,Port of Pyeongtaek,Pyeongtaek Regional Maritime Affairs and Fisheries Office,"566 Manho-Ii Poseung-myun
Pyeongtaek, Gyeonggi 451-821
Korea, South",82-31-683-0313,82-31-680-7219,,,www.momaf.go.kr,"36° 59' 34"" N","126° 47' 31"" E",KRPTK,Seaport,Medium,
KOR,Yeosu,Port of Yeosu,Yeosu Regional Maritime Affairs and Fisheries Office,"335-1  Sujeong-dong
Yeosu city 550-705
Korea, South",061-650-6000,061-654-2358,,http://yeosu.momaf.go.kr/,,"34° 44' 48"" N","127° 45' 25"" E",KRYOS,Seaport,Medium,
KWT,Shuaiba,Port of Shuaiba,Kuwait Ports Authority,"P.O Box 3874
Safat 13039
Kuwait",4812622,4819714,,,www.kpa.gov.kw,"29° 2' 41"" N","48° 9' 35"" E",KWSAA,Seaport,Medium,
KWT,Shuwaikh,Port of Shuwaikh,Kuwait Ports Authority,"P.O Box 3874
Safat 13039
Kuwait",4812622,4819714,,,www.kpa.gov.kw,"29° 21' 9"" N","47° 55' 31"" E",KWSWK,Seaport,Medium,
LBY,Benghazi,Port of Benghazi,Socialist Ports Company,"PO Box 18342
Misratah
Libya",+218 21 43946,+218 21 43946,,,,"32° 6' 33"" N","20° 2' 51"" E",,Seaport,Medium,
LBY,Marsa El Brega,Port Marsa El Brega,Sirt Oil Company,Libya,+218 61 2230216-225,+218 21 3610376-90,,,,"30° 24' 48"" N","19° 35' 22"" E",,Seaport,Medium,
LBY,Tripoli,Port of Tripoli,Socialist Ports Company,"PO Box 2342
Misratah
Libya",+218 21 43946,+218 21 43946,,tripoli@lpclibya.com,www.lpclibya.com,"32° 54' 27"" N","13° 11' 58"" E",LYTIP,Seaport,Medium,
MDG,Toamasina,Port of Toamasina,Port Autonome de Toamasina,"Soc d Exploitation du Port
Toamasina
Madagascar",261 5 32155,261 5 33558,,,,"18° 9' 26"" S","49° 25' 30"" E",MGTOA,Seaport,Medium,
MYS,Johor,Johor Port,Johor Port Berhad,"PO Box 151
Pasir Gudang, Johor 81700
Malaysia",607-253 5888,607- 251 0980,,jpb@johorport.com.my,www.johorport.com.my,"1° 26' 46"" N","103° 53' 10"" E",,Seaport,Medium,
MYS,Kota Kinabalu,Kota Kinabalu Port,Sabah Ports SDN BHD,"Sabah Ports Authority Building
Jalan Tun Fuad
Kota Kinabalu, Tanjong Lipat 88617
Malaysia",6088-538 500,6088-254 089,,,www.portsworld.com/Ports/kotakinabalu.htm,"5° 59' 15"" N","116° 4' 34"" E",,Seaport,Medium,
MYS,Labuan,Labuan Port,Labuan Liberty Port Management Sdn. Bhd.,"W-2 Liberty Port Storage Area
P.O. Box 81858
Labuan 87028
Malaysia",60 87 421699,60 87 421850,,labuanport@llpm.com.my,www.llpm.com.my,"5° 16' 18"" N","115° 14' 31"" E",,Seaport,Medium,
MYS,Lumut Port,Lumut Port,Lumut Maritime Terminal Sdn Bhd.,"Pulau Lekir Satu
Jalan Teluk Rubiah
Sri Manjung, Perak Darul Ridzuan 32040
Malaysia",605 688 9166,605 688 9800,,,www.lumutport.com,"4° 15' 48"" N","100° 39' 46"" E",,Seaport,Medium,
MYS,Penang,Port of Penang,Penang Port Commision,"3A-6 Bangunan Sri Weld
Pangkalan Weld
Penang 10300
Malaysia",04-2633211,,,sppp@po.jaring.my,www.penangport.gov.my,"5° 23' 18"" N","100° 21' 9"" E",,Seaport,Medium,
MYS,Sepangar Bay,Sepangar Bay Oil Terminal,Sabah Ports SDN BHD,"Pejabat Pos Mini Indah Permai
P.O. Box 57
Kota Kinabalu, Sabah 88450
Malaysia",6088-411 069,6088-411 130,,,www.portsworld.com/Ports/sepangarbay.htm,"6° 4' 54"" N","116° 7' 34"" E",,Seaport,Medium,
MYS,Tanjung Pelepas,Tanjung Pelepas Port,Johor Port Authority,"Bangunan Pentadbiran Pelabuhan
Jalan Pelabuhan Tanjung Pelepas
Gelang Patah, Johor Darul Takzim 81560
Malaysia",07-5042222,07-5042288,,,www.portsworld.com/Ports/tanjungpelepas.htm,"1° 21' 13"" N","103° 32' 39"" E",MYTPP,Seaport,Medium,
MLT,Marsaxlokk,Malta Freeport,Malta Freeport Corporation Ltd,"Freeport Centre
Kalafrana BBG 3011
Malta",356 21 650200,356 22 251900,,info@mfc.gov.mt,www.maltafreeport.com.mt,"35° 49' 34"" N","14° 32' 45"" E",MTMAR,Seaport,Medium,
MRT,Nouadhibou,Port of Nouadhibou,Nouadhibou Port Authority,"BP 236
Nouadhibou
Mauritania",222 574 5134,222 574 5136,,,,"20° 54' 27"" N","17° 2' 48"" W",MRNDB,Seaport,Medium,
MUS,Port Louis,Port of Port Louis,Mauritius Ports Authority,"H.Ramnarain Building
Mer RougePort Louis
Mauritius",230 206 5400,230 240 0856,,mauport@intnet.mu,www.mauport.com,"20° 8' 53"" S","57° 29' 37"" E",MUPLU,Seaport,Medium,
MEX,Altamira,Puerto de Altamira,"Administracion Portuaria Integral Altamira, S.A. de C.V.","Calle Río Tamesí km. 0+800
Puerto Industrial de Altamira, Tamaulipas C.P. 89608
Mexico",833 2606060,833 2606069,,garguelles@puertoaltamira.com.mx,www.puertoaltamira.com.mx,"22° 29' 14"" N","97° 52' 29"" W",MXATM,Seaport,Medium,
MEX,Dos Bocas,Puerto de Dos Bocas,"Administracion Portuaria Integral de Dos Bocas, S.A. de C.V.","Carretera Federal Puerto Ceiba-Paraiso, No. 414
Col Quintin Arauz
Paraiso, Tabasco C.P. 86600
Mexico",,,,dosbocas@apidosbocas.com,www.apidosbocas.com,"18° 26' 39"" N","93° 12' 2"" W",,Seaport,Medium,
MEX,Ensenada,Puerto de Ensenada,"Administracion Portuaria Integral de Ensenada, S.A. de C.V.","Blvd. Teniente Azueta No. 224
Recinto Portuario
Ensenada, Baja California C.P. 22800
Mexico",52 646 178-2860,52 646  174-0370,,informacion@apiensenada.com.mx,www.puertoensenada.com.mx,"31° 51' 3"" N","116° 37' 35"" W",MXESE,Seaport,Medium,
MEX,Guaymas,Puerto de Guaymas,"Administracion Portuaria Integral de Guaymas, S.A. de C. V:","Recinto portuario, zona franca S/N
Col. Punta Arena
Guaymas, Sonora C.P. 01020
Mexico",622 225-22-50,622 225-22-50,,,www.puertodeguaymas.com,"27° 55' 13"" N","110° 52' 35"" W",MXGYM,Seaport,Medium,
MEX,Lazaro Cardenas,Puerto de Lazaro Cardenas,"Administracion Portuaria Integral de Lazaro Cardenas, Michoacan","Prol. Av. Lazaro Cardenas No. 1
Colonia Centro
Ciudad Lazaro Cardenas, Michoacan C.P. 60950
Mexico",52 753 532 20 64,52 753 537 2150,,,www.apilac.com.mx,"17° 56' 3"" N","102° 10' 49"" W",MXLZC,Seaport,Medium,
MEX,Manzanillo,Puerto de Manzanillo,Administracion Portuaria Integral de Manzanillo S.A. de C.V.,"Av. Teniente Azueta No. 9
Col. Burocrata
Manzanillo, Colima C.P. 28250
Mexico",52 314 331 1400,52 314 331 1400,,,www.puerto-de-manzanillo.com.mx,"19° 4' 14"" N","104° 18' 5"" W",MXZLO,Seaport,Medium,
MEX,Mazatlan,Puerto de Mazatlan,Administracion Portuaria Integral de Mazatlan S.A de C.V.,"Interior recinto fiscal S/N
Mazatlan, Sinaloa
Mexico",669 982-30-19,,,apimaz@apimazatlan.com.mx,www.apimazatlan.com.mx,"23° 11' 32"" N","106° 23' 57"" W",MXMZT,Seaport,Medium,
MEX,Tampico,Puerto de Tampico,Administracion Portuaria Integral de Tampico S.A. de C.V.,"Edificio API Tampico S/N Recinto Portuario
Zona Centro Tampico, Tampico C.P. 89000
Mexico",833 212 46 60,833 212 57 44,,acamarillo@puertodetampico.com.mx,www.puertodetampico.com.mx,"22° 14' 13"" N","97° 50' 2"" W",MXTAM,Seaport,Medium,
MEX,Altamira,Puerto de Altamira,"Administracion Portuaria Integral Altamira, S.A. de C.V.","Calle Río Tamesí km. 0+800
Puerto Industrial de Altamira, Tamaulipas C.P. 89608
Mexico",833 2606060,833 2606069,,garguelles@puertoaltamira.com.mx,www.puertoaltamira.com.mx,"22° 29' 14"" N","97° 52' 29"" W",MXATM,Seaport,Medium,
MEX,Coatzacoalcos,Puerto de Coatzacoalcos,"Administracion Portuaria Integral de Coatzacoalcos, S.A. de C.V.","Interior Del Recinto Portuario S/N
Col. Centro
Coatzacoalcos, VER. C.P. 96400
Mexico",921 21 10 270,921 21 10 272,,,www.apicoatza.com,"18° 7' 47"" N","94° 25' 13"" W",MXCOA,Seaport,Medium,
MEX,Dos Bocas,Puerto de Dos Bocas,"Administracion Portuaria Integral de Dos Bocas, S.A. de C.V.","Carretera Federal Puerto Ceiba-Paraiso, No. 414
Col Quintin Arauz
Paraiso, Tabasco C.P. 86600
Mexico",,,,dosbocas@apidosbocas.com,www.apidosbocas.com,"18° 26' 39"" N","93° 12' 2"" W",,Seaport,Medium,
MEX,Ensenada,Puerto de Ensenada,"Administracion Portuaria Integral de Ensenada, S.A. de C.V.","Blvd. Teniente Azueta No. 224
Recinto Portuario
Ensenada, Baja California C.P. 22800
Mexico",52 646 178-2860,52 646  174-0370,,informacion@apiensenada.com.mx,www.puertoensenada.com.mx,"31° 51' 3"" N","116° 37' 35"" W",MXESE,Seaport,Medium,
MEX,Guaymas,Puerto de Guaymas,"Administracion Portuaria Integral de Guaymas, S.A. de C. V:","Recinto portuario, zona franca S/N
Col. Punta Arena
Guaymas, Sonora C.P. 01020
Mexico",622 225-22-50,622 225-22-50,,,www.puertodeguaymas.com,"27° 55' 13"" N","110° 52' 35"" W",MXGYM,Seaport,Medium,
MEX,Lazaro Cardenas,Puerto de Lazaro Cardenas,"Administracion Portuaria Integral de Lazaro Cardenas, Michoacan","Prol. Av. Lazaro Cardenas No. 1
Colonia Centro
Ciudad Lazaro Cardenas, Michoacan C.P. 60950
Mexico",52 753 532 20 64,52 753 537 2150,,,www.apilac.com.mx,"17° 56' 3"" N","102° 10' 49"" W",MXLZC,Seaport,Medium,
MEX,Manzanillo,Puerto de Manzanillo,Administracion Portuaria Integral de Manzanillo S.A. de C.V.,"Av. Teniente Azueta No. 9
Col. Burocrata
Manzanillo, Colima C.P. 28250
Mexico",52 314 331 1400,52 314 331 1400,,,www.puerto-de-manzanillo.com.mx,"19° 4' 14"" N","104° 18' 5"" W",MXZLO,Seaport,Medium,
MEX,Mazatlan,Puerto de Mazatlan,Administracion Portuaria Integral de Mazatlan S.A de C.V.,"Interior recinto fiscal S/N
Mazatlan, Sinaloa
Mexico",669 982-30-19,,,apimaz@apimazatlan.com.mx,www.apimazatlan.com.mx,"23° 11' 32"" N","106° 23' 57"" W",MXMZT,Seaport,Medium,
MEX,Pajaritos,Port of Pajaritos,,"Pajaritos
Mexico",,,,,,"18° 7' 39"" N","94° 24' 3"" W",MXPAJ,Seaport,Medium,
MEX,Tampico,Puerto de Tampico,Administracion Portuaria Integral de Tampico S.A. de C.V.,"Edificio API Tampico S/N Recinto Portuario
Zona Centro Tampico, Tampico C.P. 89000
Mexico",833 212 46 60,833 212 57 44,,acamarillo@puertodetampico.com.mx,www.puertodetampico.com.mx,"22° 14' 13"" N","97° 50' 2"" W",MXTAM,Seaport,Medium,
MEX,Topolobampo,Puerto de Topolobampo,Administracion Portuaria Integral de Topolobampo S.A. de C.V.,"Acceso al Parque Industrial Pesquero S. N.
Topolobampo, Sinaloa C.P. 81370
Mexico",668 862-04-94,,,apitopo@apitopo.com.mx,www.apitopo.com.mx,"25° 35' 39"" N","109° 3' 16"" W",MXTPB,Seaport,Medium,
MEX,Tuxpan,Puerto de Tuxpan,Administracion Portuaria Integral de Tuxpan S.A. de C.V.,"Carretera La Barra Norte km. 6.5
Ejido La Calzada
Tuxpan, Veracruz C.P. 92800
Mexico",783 837 00 15,783 837 01 30,,,www.puerto-de-tuxpan.com.mx,"20° 56' 26"" N","97° 22' 22"" W",MXTUX,Seaport,Medium,
FSM,Yap,Tomil Harbour,Tomil Harbour Authority,"PO Box 290
Sea Transportation Office
Yap FM 96943
Micronesia, Federated States of",691 350 2403,691 350 2267,,,,"9° 30' 48"" N","138° 7' 16"" E",FMYAP,Harbor,Medium,
MAR,Agadir,Port of Agadir,Societe D'Exploitation des Ports (SODEP),"Agadir
Morocco",061.91.07.28,,,b_ajouhi@marsamaroc.co.ma,www.marsamaroc.co.ma,"30° 25' 26"" N","9° 38' 9"" W",MAAGA,Seaport,Medium,
MAR,Casablanca,Port of Casablanca,Societe D'Exploitation des Ports (SODEP),"Casablanca
Morocco",022 54 67 18,022 31 79 10,,c_sefraoui@marsamaroc.co.ma,www.marsamaroc.co.ma,"33° 36' 32"" N","7° 36' 1"" W",MACAS,Seaport,Medium,
MAR,Nador,Port of Nador,Societe D'Exploitation des Ports (SODEP),"Nador
Morocco",061.91.57.39,,,n_ouakka@marsamaroc.co.ma,www.marsamaroc.co.ma,"35° 16' 54"" N","2° 55' 34"" W",MANDR,Seaport,Medium,
MAR,Safi,Port of Safi,Societe D'Exploitation des Ports (SODEP),"Safi
Morocco",061.91.57.33,,,n_elmallah@marsamaroc.co.ma,www.sodep.co.ma,"32° 18' 27"" N","9° 14' 53"" W",MASFI,Seaport,Medium,
MOZ,Beira,Port of Beira,"Portos e Caminhos de Ferro de Mocambique, E.P.","Largo dos CFM
C.P. No. 236
Beira
Mozambique",258 23 321000,258 23 329290,,,www.cfmnet.co.mz,"19° 49' 9"" S","34° 50' 1"" E",MZBEW,Seaport,Medium,
MOZ,Maputo,Port of Maputo,Maputo Port Development Company SARL,"P O Box 2841
Maputo
Mozambique",+258 21 313920,+258 21 313921,,info@portmaputo.com,www.portmaputo.com,"25° 58' 22"" S","32° 33' 40"" E",MZMPM,Seaport,Medium,
MMR,Yangon,Port of Yangon,Myanmar Ports Corporation,"Traffic Dept, Agency Div 83-91
Bo Aung Gyaw Street
Yangon
Myanmar",95 1 283122,,,mpa-sad@mptmail.net.mm,www.mot.gov.mm/mpa/index.html,"16° 45' 57"" N","96° 10' 12"" E",MMRGN,Seaport,Medium,
NLD,Dordrecht,Port of Dordrecht,Dordrecht Port Authority,"Merwekade 56
Dordrecht 3311 TH
Netherlands",31 78 639 7878,31 78 639 7879,,hvndordt@worldonline.nl,,"51° 48' 21"" N","4° 39' 8"" E",NLDOR,Seaport,Medium,
NLD,Moerdijk,Port of Moerdijk,Moerdijk Port Authority,"Havenschap Moerdijk
Plaza 3
Moerdijk, SL NL-4782
Netherlands",31-0 168 - 38 88 88,31-0168 - 38 88 99,,info@havenschapmoerdijk.nl,www.portofmoerdijk.nl,"51° 41' 22"" N","4° 35' 22"" E",NLMOE,Seaport,Medium,
NLD,The Hague,Scheveningen Port,City of The Hague,"Scheveningen
Netherlands",,,,,www.denhaag.com,"52° 5' 57"" N","4° 15' 41"" E",,Seaport,Medium,
NLD,Vlaardingen,Port of Vlaardingen,Vlaardingen Port Authority,"Postbus 141
Harbour No 660
Vlaardingen 3130 AC
Netherlands",31 10 434 4700,31 10 434 4373,,havenkantoor@vlaardingen.nl,www.vlaardingen.nl,"51° 54' 8"" N","4° 20' 39"" E",NLVLA,Seaport,Medium,
NCL,Noumea,Port of Noumea,Port Autonome de Nouvelle,"BP 14
Avenue Cook
Noumeau 98845
New Caledonia",687 255000,687 275490,,noumeaportnc@canl.nc,,"22° 15' 35"" S","166° 25' 52"" E",NCNOU,Seaport,Medium,
NZL,Lyttelton,Port of Lyttelton,Lyttelton Port Company Limited,"Private Bag 501
Norwich Quay
Lyttelton
New Zealand",03 328 8198,03 328 7828,,marketing@lpc.co.nz,www.lpc.co.nz,"43° 36' 22"" S","172° 42' 58"" E",NZLYT,Seaport,Medium,
NZL,Marsden Point,Port of Marsden Point,Northport Limited,"Ralph Trimmer Drive
PO Box 44
Ruakaka
New Zealand",64-9-432 5010,64-9-432 8749,,brett.armour@northport.co.nz,www.northport.co.nz,"35° 50' 15"" S","174° 29' 29"" E",NZMAP,Seaport,Medium,
NZL,Napier,Port of Napier,Port of Napier Ltd,"PO Box 947
Breakwater Road
Napier
New Zealand",+64 6 974 4400,+64 6 974 4408,,info@portofnapier.co.nz,www.portofnapier.co.nz,"39° 28' 30"" S","176° 55' 8"" E",NZNPE,Seaport,Medium,
NZL,Nelson,Port Nelson,Port Nelson Limited,"PO Box 844
Nelson
New Zealand",+ 64 3 548 2099,+64 3 546 9015,,info@portnelson.co.nz,www.portnelson.co.nz,"41° 15' 35"" S","173° 16' 30"" E",NZNSN,Seaport,Medium,
NZL,Port Otago,Port Chalmers,Port Otago Limited,"Beach Street
P.O.Box 8
Port Chalmers
New Zealand",64-3-472 7890,64-3-472 7891,,pol@portotago.co.nz,www.portotago.co.nz,"45° 48' 47"" S","170° 37' 35"" E",NZPOE,Seaport,Medium,
NZL,Tauranga,Port of Tauranga,Port of Tauranga Limited,"Salisbury Avenue
Post Bag 1
Mount Maunganui 3030
New Zealand",00 64 7 572 8899,00 64 7 572 8800,,administration@port-tauranga.co.nz,www.port-tauranga.co.nz,"37° 39' 34"" S","176° 10' 42"" E",NZTRG,Seaport,Medium,
NZL,Wellington,Port of Wellington,CentrePort Wellington,"CentrePort House
Harbour Quays
Wellington 6011
New Zealand",+64 4 495 3800,+64 4 495 3873,,customerservices@centreport.co.nz,www.centreport.co.nz,"41° 16' 39"" S","174° 47' 37"" E",NZWLG,Seaport,Medium,
NZL,Westport,Port of Westport,Buller Port Services Ltd,"P. O. Box 335
Palmerston Street
Westport
New Zealand",64 3 788 8081,64 3 788 8081,,westportharbour-nz@xtra.co.nz,www.westportharbour.co.nz,"41° 45' 1"" S","171° 35' 45"" E",NZWSZ,Seaport,Medium,
NIC,Corinto,Port of  Corinto,Empresa Portuaria Nacional (EPN),"De la Optica Nicaraguense 1/2 cuadra al lago
1 cuadra abajo
Managua
Nicaragua",505-222-3837,,,,www.epn.com.ni,"12° 28' 55"" N","87° 10' 14"" W",NICIO,Harbor,Medium,
NGA,Apapa,Port of Apapa,Nigerian Ports Authority,"P.M.B 1021
Apapa, Lagos
Nigeria",234 1 5452820,234 1 5452662,,apapa@nigerianports.org,www.nigerianports.org,"6° 26' 43"" N","3° 25' 34"" E",NGAPP,Seaport,Medium,
NGA,Apapa,Tin Can Island Port (TCIP),Nigerian Ports Authority,"P.M.B 1201
Apapa, Lagos
Nigeria",234 1 5873210,234 1 5873565,,tincan@nigerianports.org,www.nigerianports.org,"6° 26' 3"" N","3° 21' 1"" E",NGAPP,Seaport,Medium,
NGA,Onne,Port of Onne,Nigerian Ports Authority,"Onne Port Complex
Onne
Nigeria",234 84 239185,234 84 239185,,fot@nigerianports.org,www.nigerianports.org,"4° 41' 6"" N","7° 9' 49"" E",NGONN,Seaport,Medium,
NGA,Port Harcourt,Port of Port Harcourt,Nigerian Ports Authority,"Basket House
P.M.B 5043
Port Harcourt
Nigeria",234 84 235908,234 84 235402,,ph@nigerianports.org,www.nigerianports.org,"4° 46' 9"" N","7° 0' 18"" E",NGPHC,Seaport,Medium,
NOR,Bergen,Port of Bergen,Bergen og Omland havensesen,"Nestegaten 30
Bergen NO-5010
Norway",55 56 89 50,55 56 89 86,,bergen.havn@bergen.kommune.no,www.bergenhavn.no,"60° 23' 49"" N","5° 19' 17"" E",NOBGO,Seaport,Medium,
NOR,Haugesund,Port of Haugesund,Karmsund Havnevesen IKS,"Postboks 186
Haugesund 5501
Norway",47 52 70 37 50,47 52 70 37 69,,post@karmsund-havn.no,www.karmsund-havn.no,"59° 24' 44"" N","5° 15' 32"" E",NOHAU,Seaport,Medium,
NOR,Narvik,Narvik Havn KF,Narvik Havn KF,"Havnegata 2
Narvik, Nordland 8514
Norway",+47 769 50 370,+47 769 50 384,,firmapost@narvikhavn.no,www.narvikhavn.no,"68° 25' 22"" N","17° 25' 3"" E",NONVK,Seaport,Medium,
NOR,Oslo,Port of Oslo,Oslo Port Authority,"P.O.Box. 230 Sentrum
Oslo N-0103
Norway",+ 47 23 49 26 00,+47 23 49 26 01,,eva.hagen@ohv.oslo.no,www.ohv.oslo.no,"59° 53' 50"" N","10° 44' 7"" E",NOOSL,Seaport,Medium,
NOR,Stavanger,Port of Stavanger,Stavanger Interkommunale Havn IKS,"Nedre Strandgt 51
Stavanger 4001
Norway",51 50 12 00,51 50 12 22,,info@stavanger.havn.no,www.stavanger-havn.no,"58° 58' 44"" N","5° 44' 22"" E",NOSVG,Harbor,Medium,
NOR,Tromso,Port of Tromso,Tromso Havn KF,"Postboks 392
Kirkegata 1
Tromso 9254
Norway",47 77 66 18 50,47 77 66 18 51,,adm@tromso.havn.no,www.tromso.havn.no,"69° 39' 21"" N","18° 58' 12"" E",NOTOS,Seaport,Medium,
NOR,Bergen,Port of Bergen,Bergen og Omland havensesen,"Nestegaten 30
Bergen NO-5010
Norway",55 56 89 50,55 56 89 86,,bergen.havn@bergen.kommune.no,www.bergenhavn.no,"60° 23' 49"" N","5° 19' 17"" E",NOBGO,Seaport,Medium,
NOR,Bodo,Port of Bodo,Bodo Havn KF,"Postboks 138
Bodo, Nordland 8001
Norway",,,,firmapost@bodohavn.no,www.bodohavn.no,"67° 17' 18"" N","14° 22' 40"" E",NOBOO,Seaport,Medium,
NOR,Brattvag,Brattvag Havn,,"Brattvag, More og Romsdal 6270
Norway",,,,,,"62° 35' 40"" N","6° 26' 52"" E",,Seaport,Medium,
NOR,Drammen,Port of Drammen,Port of Drammen Authority,"Hans Kiaersgate 1A
P.O. Box 636
Drammen N - 3003
Norway",47 32 20 86 50,47  32 20 86 51,,firmapost@drammenhavn.no,www.drammenhavn.no,"59° 44' 12"" N","10° 13' 47"" E",NODRM,Seaport,Medium,
NOR,Gamle Fredrikstad,Port of Borg,Borg Havn IKS,"Postboks 1205
Oraveien 27
Gamle Fredrikstad 1631
Norway",47 69 35 89 00,47 69 35 89 20,,firmapost@borg-havn.no,www.borg-havn.no,"59° 11' 13"" N","10° 57' 11"" E",NOGFR,Seaport,Medium,
NOR,Glomfjord,Glomfjord Havn,,"Glomfjord, Nordland 8160
Norway",,,,,,"66° 48' 29"" N","13° 55' 43"" E",,Seaport,Medium,
NOR,Harstad,Port of Harstad,Harstad Port Authority,"Postboks 193
Rikfard Kaarboset 2
Harstad, Troms og Finnmark fylke 9405
Norway",47 77 00 12 10,47 77 00 12 13,,harstadhavn@harstad.kommune.no,harstadhavn.no,"68° 47' 42"" N","16° 32' 49"" E",NOHRD,Seaport,Medium,
NOR,Haugesund,Port of Haugesund,Karmsund Havnevesen IKS,"Postboks 186
Haugesund 5501
Norway",47 52 70 37 50,47 52 70 37 69,,post@karmsund-havn.no,www.karmsund-havn.no,"59° 24' 44"" N","5° 15' 32"" E",NOHAU,Seaport,Medium,
NOR,Molde,Port of Molde,Molde and Romsdal Port IKS,"Hamnegata 8
Molde 6413
Norway",47 71 19 16 20,,,office@molde-romsdalhavn.no,www.molde-romsdalhavn.no,"62° 44' 3"" N","7° 10' 14"" E",NOMOL,Seaport,Medium,
NOR,Narvik,Narvik Havn KF,Narvik Havn KF,"Havnegata 2
Narvik, Nordland 8514
Norway",+47 769 50 370,+47 769 50 384,,firmapost@narvikhavn.no,www.narvikhavn.no,"68° 25' 22"" N","17° 25' 3"" E",NONVK,Seaport,Medium,
NOR,Oslo,Port of Oslo,Oslo Port Authority,"P.O.Box. 230 Sentrum
Oslo N-0103
Norway",+ 47 23 49 26 00,+47 23 49 26 01,,eva.hagen@ohv.oslo.no,www.ohv.oslo.no,"59° 53' 50"" N","10° 44' 7"" E",NOOSL,Seaport,Medium,
NOR,Sandnes,Port of Sandnes,Sandnes Havn KF,"Postboks 320
Sandnes 4303
Norway",51608990,51608991,,sahv@sandnes-havn.no,www.sandnes-havn.no,"58° 51' 34"" N","5° 44' 59"" E",NOSAS,Seaport,Medium,
NOR,Sortland,Port of Sortland,Sortland Port Authority,"Havnegata 23
Postboks 144
Sortland, Nordland 8401
Norway",76 10 99 00,76 10 99 01,,firmapost@sortland-havn.no,www.sortland-havn.no,"68° 41' 52"" N","15° 25' 11"" E",NOSLX,Seaport,Medium,
NOR,Stavanger,Port of Stavanger,Stavanger Interkommunale Havn IKS,"Nedre Strandgt 51
Stavanger 4001
Norway",51 50 12 00,51 50 12 22,,info@stavanger.havn.no,www.stavanger-havn.no,"58° 58' 44"" N","5° 44' 22"" E",NOSVG,Harbor,Medium,
NOR,Stokmarknes,Port of Stokmarknes,Hadsel Havn KF,"Markedsgata 1
Stokmarknes, Nordland 8450
Norway",+47 91 76 51 22,,,hadsel.havn@hadsel.kommune.no,www.hadselhavn.no,"68° 34' 7"" N","14° 55' 46"" E",NOSKN,Seaport,Medium,
NOR,Svolvaer,Port of Svolvaer,Vagan havn KF,"Fiskgergata 23, Havneterminalen
Svolvaer, Nordland 8301
Norway",+47 760 67 990,+47 760 67 991,,vaganhavn@vagan.kommune.no,www.vaganhavn.no,"68° 13' 58"" N","14° 34' 5"" E",,Seaport,Medium,
NOR,Tromso,Port of Tromso,Tromso Havn KF,"Postboks 392
Kirkegata 1
Tromso 9254
Norway",47 77 66 18 50,47 77 66 18 51,,adm@tromso.havn.no,www.tromso.havn.no,"69° 39' 21"" N","18° 58' 12"" E",NOTOS,Seaport,Medium,
NOR,Trondheim,Port of Trondheim,Trondheimfjord Intermunicipal Harbour (TIH),"Trondheim Havn IKS
Skippergata 14
Trondheim 7462
Norway",47 739 91 700,47 739 91 717,,firmapost@trondheim.havn.no,www.trondheim.havn.no,"63° 26' 30"" N","10° 24' 45"" E",NOTRD,Seaport,Medium,
OMN,Muscat,Port Sultan Qaboos,Port Services Corporation S.A.O.G,"Post Box 133
Muscat 113
Oman",968 24714000,968 24714007,,mktg@pscoman.com,www.pscoman.com,"23° 37' 27"" N","58° 34' 9"" E",OMMCT,Seaport,Medium,
OMN,Salalah,Port of Salalah,Salalah Port Services Company (S.A.O.G),"P O Box 105
Muscat Postal Code 118
Oman",968-24-600586,968-24-600736,,info@salalahport.com,www.salalahport.com,"16° 56' 30"" N","54° 0' 18"" E",OMSLL,Seaport,Medium,
PAK,Karachi,Hutchison Ports Pakistan,Hutchison Ports Pakistan,"No. 1 Container Port Road
Kaemari South
Karachi, Sindh 75620
Pakistan",+92 21 3286 2771,+92 21 3286 2771,,info@sapt.com.pk,www.sapt.com.pk,"24° 48' 14"" N","66° 59' 2"" E",,Seaport,Medium,
PAK,Muhammad Bin Qasim,Port Muhammad Bin Qasim,,"Bin Qasim
Karachi, 75020
Pakistan",92-21-9272111,92-21-473010,,,www.portqasim.org.pk,"24° 46' 23"" N","67° 20' 9"" E",,Port Terminal,Medium,
PAN,Balboa,Port of Balboa,Panama Ports Company (PPC),"Arnulfo Arias Madrid Avenue, Building 1501
P.O. Box 0843-00574
Panama
Panama",507-207 5100,507-232 5697,,info@ppc.com.pa,www.ppc.com.pa,"8° 57' 20"" N","79° 34' 12"" W",PABLB,Seaport,Medium,
PAN,Colon,Colon Container Terminal,"Colon Container Terminal, S.A.","Coco Solo Norte
P.O. BOX 0301-04335
Colon
Panama",507 430-9500,507 430-9530,,cctmkt@cct-pa.com,www.cct-pa.com,"9° 22' 24"" N","79° 53' 10"" W",PAONX,Seaport,Medium,
PAN,Colon,Manzanillo International Terminal,"Manzanillo International Terminal - Panama, S.A.","P.O.Box 0302-00239
Colon Free Zone
Colon
Panama",507 430-9800,507 430-9809,,info@mitpan.com,www.mitpan.com,"9° 21' 49"" N","79° 53' 7"" W",PAONX,Seaport,Medium,
PAN,Cristobal,Port of Cristobal,Panama Ports Company (PPC),"Building 1010 Roosevelt Ave.
P.O. Box 0301-03240
Panama
Panama",507-433-7900,507-441-4676,,info@ppc.com.pa,www.ppc.com.pa,"9° 21' 1"" N","79° 54' 27"" W",PACTB,Seaport,Medium,
PNG,Lae,Port of Lae,PNG Ports Corporation Ltd.,"PO Box 671
Port Moresby
Papua New Guinea",321 1400,321 2440,,,www.pngports.com.pg,"6° 44' 28"" S","146° 59' 8"" E",PGLAE,Seaport,Medium,
PNG,Madang,Port of Madang,PNG Ports Corporation Ltd.,"PO Box 671
Port Moresby
Papua New Guinea",321 1400,321 2440,,,www.pngports.com.pg,"5° 12' 48"" S","145° 48' 3"" E",PGMAG,Seaport,Medium,
PNG,Port Moresby,Port of Port Moresby,PNG Ports Corporation Ltd.,"PO Box 671
Port Moresby
Papua New Guinea",321 1400,321 2440,,,www.pngports.com.pg,"9° 28' 2"" S","147° 9' 6"" E",PGPOM,Seaport,Medium,
PER,Iquitos,Port of Iquitos,Empresa Nacional de Puertos S.A.,"Av. Contralmirante Raygada 110
Callao
Peru",51 1 429-9210,51 1 469-1010,,,www.enapu.com.pe,"3° 43' 42"" S","73° 14' 12"" W",PEIQT,River Port,Medium,
PER,Iquitos,Port of Iquitos,Empresa Nacional de Puertos S.A.,"Av. Contralmirante Raygada 110
Callao
Peru",51 1 429-9210,51 1 469-1010,,,www.enapu.com.pe,"3° 43' 42"" S","73° 14' 12"" W",PEIQT,River Port,Medium,
PHL,Batangas,Port of Batangas,"Philippine Ports Authority, PMO Batangas","Sta. Clara
Batangas City 4200
Philippines",043 723-1701,043 723-0164,,ctf@ppa.com.ph,www.ppa.com.ph,"13° 44' 51"" N","121° 0' 44"" E",,Seaport,Medium,
PHL,Cebu,Port of Cebu,,"Cebu
Philippines",,,,,,"10° 18' 23"" N","123° 55' 34"" E",PHCEB,Seaport,Medium,
PHL,Davao,Port of Davao,"Philippine Ports Authority, PMO Davao","Sasa Wharf
P.O. Box 502
Davao City 8000
Philippines",082 235-2569,082 234-2330,,ppapmodavao@pldtdsl.net,www.ppa.com.ph,"7° 6' 30"" N","125° 39' 22"" E",,Seaport,Medium,
PHL,Iloilo,Port of Iloilo,"Philippine Ports Authority, PMO Iloilo","Barangay Loboc
Lapaz
Iloilo City
Philippines",033 337-69-45,033 337-69-45,,ppailo@philwebinc.com,www.ppa.com.ph,"10° 41' 37"" N","122° 34' 57"" E",,Seaport,Medium,
PHL,Subic Bay,Port of Subic Bay,Subic Bay Metropolitan Authority,"Subic Bay
Philippines",6347 252-4693,6347 252-4241,,,www.sbma.com,"14° 48' 30"" N","120° 16' 46"" E",PHSFS,Seaport,Medium,
PHL,Batangas,Port of Batangas,"Philippine Ports Authority, PMO Batangas","Sta. Clara
Batangas City 4200
Philippines",043 723-1701,043 723-0164,,ctf@ppa.com.ph,www.ppa.com.ph,"13° 44' 51"" N","121° 0' 44"" E",,Seaport,Medium,
PHL,Cebu,Port of Cebu,,"Cebu
Philippines",,,,,,"10° 18' 23"" N","123° 55' 34"" E",PHCEB,Seaport,Medium,
PHL,Davao,Port of Davao,"Philippine Ports Authority, PMO Davao","Sasa Wharf
P.O. Box 502
Davao City 8000
Philippines",082 235-2569,082 234-2330,,ppapmodavao@pldtdsl.net,www.ppa.com.ph,"7° 6' 30"" N","125° 39' 22"" E",,Seaport,Medium,
PHL,Iloilo,Port of Iloilo,"Philippine Ports Authority, PMO Iloilo","Barangay Loboc
Lapaz
Iloilo City
Philippines",033 337-69-45,033 337-69-45,,ppailo@philwebinc.com,www.ppa.com.ph,"10° 41' 37"" N","122° 34' 57"" E",,Seaport,Medium,
PHL,Subic Bay,Port of Subic Bay,Subic Bay Metropolitan Authority,"Subic Bay
Philippines",6347 252-4693,6347 252-4241,,,www.sbma.com,"14° 48' 30"" N","120° 16' 46"" E",PHSFS,Seaport,Medium,
POL,Gdansk,Port Polnocny,Port of Gdansk Authority SA,"18 Zamknieta Str.
Gdansk 80-955
Poland",+48 58 737 91 00,+48 58 737 94 85,,info@portgdansk.pl,www.portgdansk.pl,"54° 23' 40"" N","18° 43' 15"" E",,Seaport,Medium,
POL,Kolobrzeg,Port of Kolobrzeg,,"Kolobrzeg
Poland",,,,,,"54° 11' 1"" N","15° 33' 12"" E",PLKOL,Harbor,Medium,
POL,Swinoujscie,Port Handlowy Swinoujscie,Handlowy Swinoujscie Spolka z o.o.,"1 Bunkrowa str.
P.O. Box 78
Swinoujscie 72-602
Poland",+48 (91) 32 77 331,+48 (91) 32 15 292,,phs@phs.com.pl,www.phs.com.pl,"53° 54' 18"" N","14° 16' 11"" E",PLSWI,Seaport,Medium,
POL,Szczecin,Port of Szczecin,Authority of Szczecin  and Swinoujscie Seaports,"Bytomska 7 St.
Szczecin 70-603
Poland",48 91 43 08 220,48 91 46 23 412,,d.rutkowski@port.szczecin.pl,www.port.szczecin.pl,"53° 25' 50"" N","14° 35' 14"" E",PLSZZ,Seaport,Medium,
PRT,Aveiro,Porto de Aveiro,"Administracao do Porto de Aveiro, S.A. (APA, S.A)","EdifÃ½cio 9 - Forte da Barra
Apartado 91,
Gafanha da Nazare 3834-908
Portugal",+351 23 439 3339,+351 23 439 3399,,geral@portodeaveiro.pt,www.portodeaveiro.pt,"40° 38' 33"" N","8° 42' 44"" W",PTAVE,Seaport,Medium,
PRT,Faro,Port of Faro,"Ports of Sines and the Algarve Authority, S. A.","Apartado 16
Sines 7521-953
Portugal",+ 351 269 860 600 ,,,geral@apsinesalgarve.pt,www.portodefaro.pt,"37° 0' 10"" N","7° 55' 7"" W",PTFAO,Seaport,Medium,
PRT,Figueira Da Foz,Port of Figueira Da Foz,IPC Instituto Portuario do Centro,"Avenida de Espanha
Figueira Da Foz 3080-901
Portugal",351 23 340 2910,351 23 340 2920,,iptm.sec@mail.telepac.pt,,"40° 8' 43"" N","8° 51' 27"" W",PTFDF,Seaport,Medium,
PRT,Leixoes,Port of Leixoes,"Administracao dos Portos do Douro e Leixoes, SA","Avenida da Liberdade
4451-851 Leca da Palmeira
Leixoes 3004
Portugal",(351) 22 999 0700,(351) 22 995 5062,,correio@apdl.pt,www.apdl.pt,"41° 11' 6"" N","8° 41' 54"" W",PTLEI,Seaport,Medium,
PRT,Lisbon,Port of Lisbon,"APL - Administration of the Port of Lisbon, S.A.","Alcantara Maritime Station
Lisbon, Lisbon 1350-355
Portugal",+351 213 922 097,,,tp@portodelisboa.pt,www.portodelisboa.pt/en/home,"38° 41' 57"" N","9° 9' 32"" W",PTLIS,Seaport,Medium,
PRT,Portimao,Port of Portimao,"Ports of Sines and the Algarve Authority, S. A.","Apartado 16
Sines 7521-953
Portugal",+ 351 269 860 600,,,,www.portodeportimao.pt,"37° 7' 35"" N","8° 31' 34"" W",PTPRM,Harbor,Medium,
PRT,Porto,Port of Douro River,"Administracao dos Portos do Douro e Leixoes, SA","Avenida da Liberdade
4451-851 Leca da Palmeira
Leixoes 3004
Portugal",(351) 22 999 0700,(351) 22 995 5062,,correio@apdl.pt,www.apdl.pt,"41° 8' 20"" N","8° 36' 57"" W",PTOPO,River Port,Medium,
PRT,Setubal,Port of Setubal,"APSS, SA","Praca da Republica
Setubal 2904-508
Portugal",351 265 542000,351 265 230992,,geral@portodesetubal.pt,www.portodesetubal.pt,"38° 29' 34"" N","8° 50' 8"" W",PTSET,Seaport,Medium,
PRI,Ceiba,Roosevelt Roads Naval Station,,Puerto Rico,,,,,www.roosey-roads.com,"18° 13' 38"" N","65° 36' 57"" W",,Seaport,Medium,
PRI,San Juan,Port of San Juan,Autoridad de los Puertos de Puerto Rico,"Calle Lindbergh #64
San Juan 00907
Puerto Rico",787-723-2260,,,webmaster@prpa.gobierno.pr,www.prpa.gobierno.pr,"18° 27' 23"" N","66° 6' 8"" W",PRSJU,Seaport,Medium,
PRI,San Juan,Puerto Nuevo,Autoridad de los Puertos de Puerto Rico,"Calle Lindbergh #64
San Juan 00907
Puerto Rico",787-723-2260,,,webmaster@prpa.gobierno.pr,www.prpa.gobierno.pr,"18° 26' 10"" N","66° 5' 45"" W",PRSJU,Seaport,Medium,
QAT,Doha,Port of Doha,Doha Port Authority,"PO Box 81
Department of Ports
Doha
Qatar",974 445 7457,974 441 3563,,harbourdohaport@qatar.net.qa,,"25° 17' 53"" N","51° 33' 32"" E",QADOH,Seaport,Medium,
QAT,Ras Laffan,Port of Ras Laffan,Qatar Petroleum,"PO Box 47
Doha
Qatar",974 440 2517,974 440 2498,,marketing@qp.com.qa,www.qp.com.qa,"25° 55' 12"" N","51° 36' 13"" E",QARLF,Seaport,Medium,
REU,Reunion,East Port (New Port),Chamber of Commerce and Industry of Reunion,"5 Bis Rue de Paris
BP 120 97463
Saint Denis Cedex 97821
Reunion",262 262 94 20 00,,,,www.reunion.cci.fr,"20° 55' 50"" S","55° 19' 11"" E",,Seaport,Medium,
ROM,Constantza,Port of Constantza,Maritime Ports Administration SA Constantza,"Incinta Port, Gara Maritima
Constantza 8700
Romania",40.241.611540,40.241.619512,,apmc@constantza-port.ro,www.portofconstantza.com,"44° 7' 51"" N","28° 39' 43"" E",,Seaport,Medium,
ROM,Mangalia,Port of Mangalia,,"Mangalia, Constanta 
Romania",,,,,www.mangalia.ro,"43° 48' 4"" N","28° 34' 27"" E",,Seaport,Medium,
RUS,Nakhodka,Port of Nakhodka,Joint Stock Company Nakhodka Commercial Sea Port,"Portovaya 22
Nakhodka, Primorskiy 692900
Russia",4236 67-98-00,4236 67-98-37,,ncsp@ncsp.ru,www.ncsp.ru,"42° 48' 0"" N","132° 53' 16"" E",RUNJK,Seaport,Medium,
RUS,Taganrog,Port of Taganrog,Taganrog Port Authority,"Komsomolsky Spusk 2
Taganrog, Rostov 347922
Russia",7 8634 319-690,7 8634 319-566,,kuryanov@seaport.ru,www.taganrog.seaport.ru,"47° 12' 9"" N","38° 57' 2"" E",RUTAG,Seaport,Medium,
RUS,Astrakhan,Port of Astrakhan,Astrakhan Sea Commercial Port,"Zhelyabova 1
Astrakhan 414000
Russia",,,,rmp@astranet.ru,,"46° 20' 0"" N","47° 59' 37"" E",RUASF,River Port,Medium,
RUS,Bratsk,Port of Bratsk,,"Bratsk
Russia",,,,,,"56° 7' 7"" N","101° 37' 20"" E",,River Port,Medium,
RUS,Kazan,Port of Kazan,,"Kazan
Russia",,,,,,"55° 46' 9"" N","49° 5' 20"" E",,River Port,Medium,
RUS,Magadan,Magadan Commercial Port,,"Portovoye Shosse, 1
Magadan, Magadan Oblast 685000
Russia",+7 413 269-21-65,,,,,"59° 33' 48"" N","150° 43' 31"" E",,Seaport,Medium,
RUS,Moscow,Port of Moscow,,"Moscow
Russia",,,,,,"55° 51' 0"" N","37° 27' 51"" E",,River Port,Medium,
RUS,Murmansk,Port of Murmansk,Murmansk Port Authority,"Portoviy Proezd 19
Murmansk 183024
Russia",7 815 248 0644,7 815 248 0499,,mmtp@mmtp.ru,,"68° 58' 21"" N","33° 2' 46"" E",RUMMK,Seaport,Medium,
RUS,Nakhodka,Port of Nakhodka,Joint Stock Company Nakhodka Commercial Sea Port,"Portovaya 22
Nakhodka, Primorskiy 692900
Russia",4236 67-98-00,4236 67-98-37,,ncsp@ncsp.ru,www.ncsp.ru,"42° 48' 0"" N","132° 53' 16"" E",RUNJK,Seaport,Medium,
RUS,Nikolaevsk on Amur,Port of Nikolaevsk on Amur,Nikolaevsk on Amur Sea Port,"Nevel'skogo 10
Nikolaevsk on Amur, Khabarovsk 682430
Russia",7 421 352 2496,7 421 352 2496,,,,"53° 7' 56"" N","140° 42' 56"" E",RUNIA,Seaport,Medium,
RUS,Petropavlovsk - Kamchatskiy,Port of Petropavlovsk - Kamchatskiy,,Russia,415-2 43-41-00,415-2 43-43-44,,sea@port.kamchatka.ru,port.kamchatka.ru,"53° 0' 28"" N","158° 38' 59"" E",RUPKC,Seaport,Medium,
RUS,Primorsk,Port of Primorsk,PO Box 8,"Primorsk 188910
Russia",7 812 380 7071,7 812 380 7073,,primorskauthority@mail.pasp.ru,,"60° 20' 5"" N","28° 42' 51"" E",RUPRI,"Pier, Jetty or Wharf",Medium,
RUS,Rostov-on-Don,Port of Rostov-on-Don,,"Rostov-on-Don
Russia",,,,,,"47° 12' 41"" N","39° 42' 47"" E",RURND,River Port,Medium,
RUS,Samara,Port of Samara,,"Samara
Russia",,,,,,"53° 11' 12"" N","50° 6' 8"" E",,River Port,Medium,
RUS,Saratov,Port of Saratov,,"Saratov
Russia",,,,,,"51° 29' 8"" N","45° 58' 31"" E",,River Port,Medium,
RUS,Taganrog,Port of Taganrog,Taganrog Port Authority,"Komsomolsky Spusk 2
Taganrog, Rostov 347922
Russia",7 8634 319-690,7 8634 319-566,,kuryanov@seaport.ru,www.taganrog.seaport.ru,"47° 12' 9"" N","38° 57' 2"" E",RUTAG,Seaport,Medium,
RUS,Tiksi,Port of Tiksi,Tiksi Sea Trade Port,"Morskaya 1
Tiksi, Sakha (Yakutia) 678400
Russia",,,,,,"71° 38' 35"" N","128° 52' 35"" E",RUIKS,Seaport,Medium,
RUS,Tuapse,Port of Tuapse,Tuapse Port Authorities,"8, Gorkogo Street
Tuapse 352800
Russia",7 86167 76-4-00,7 86167 76-4-03,,map@tuapseport.ru,www.tuapseport.ru,"44° 5' 31"" N","39° 4' 0"" E",RUTUA,Seaport,Medium,
RUS,Vanino,Port of Vanino,Vanino Port Authority,"Zheleznodorozhnaya 2
Vanino, Khabarovsk 682860
Russia",7 421 377 7799,7 421 377 7575,,vanino.port@gin.ru,,"49° 5' 6"" N","140° 16' 18"" E",RUVNN,Seaport,Medium,
RUS,Vysotsk,Port of Vysotsk,Vysotsk Marine Authority,"Yuzhniy Val 1
Vysotsk 188800
Russia",7 812 782 0477,7 812 782 0477,,mapvy@vbg.spb.ru,,"60° 37' 16"" N","28° 33' 47"" E",,Seaport,Medium,
RUS,Yaroslavl,Port of Yaroslavl,,"Yaroslavl
Russia",,,,,,"57° 37' 14"" N","39° 54' 38"" E",,River Port,Medium,
SAU,Dammam,King Abdul Aziz Port,Saudi Ports Authority,"P.O. Box 28062
Dammam 31188
Saudi Arabia",966-3-8583199,966-3-8571727,,,www.ports.gov.sa,"26° 29' 19"" N","50° 12' 4"" E",SADMN,Seaport,Medium,
SAU,Jeddah,Jeddah Islamic Port,Saudi Ports Authority,"P.O. Box 9285
Jeddah 21188
Saudi Arabia",966-2-6471200,966-2-6477411,,,www.ports.gov.sa,"21° 27' 31"" N","39° 9' 51"" E",SAJED,Seaport,Medium,
SAU,Jubail,Jubail Commercial Port,Saudi Ports Authority,"P.O. Box 276
Jubail
Saudi Arabia",966-3-3620600,966-3-3613337,,,www.ports.gov.sa,"27° 1' 43"" N","49° 40' 24"" E",SAJUB,Seaport,Medium,
SAU,Yanbu,King Fahad Industrial Port in Yanbu,Saudi Ports Authority,"P.O. Box 30325
Yanbu
Saudi Arabia",966-4-3967000,966-4-3967037,,,www.ports.gov.sa,"23° 57' 28"" N","38° 13' 14"" E",,Seaport,Medium,
SEN,Dakar,Port of Dakar,Port Autonome de Dakar,"BP 3195
21 Boulevard de la Liberation
Dakar
Senegal",221 849 4545,221 823 3606,,,www.portdakar.sn,"14° 40' 56"" N","17° 25' 48"" W",SNDKR,Seaport,Medium,
SGP,Singapore,Jurong Port,Jurong Port Pte Ltd,"37 Jurong Port Road
Singapore 619110
Singapore",(65) 6413 9600,(65) 6413 9696,,jpcss@jp.com.sg,www.jp.com.sg,"1° 18' 16"" N","103° 43' 4"" E",,Seaport,Medium,
SVK,Bratislava,Port of Bratislava,"Slovenska plavba a pristavy, a.s.","Horarska 12
Bratislava 815 24
Slovakia (Slovak Republic)",421 2 58271 500,421 2 58271 514,,spap@spap.sk,www.spap.sk,"48° 7' 50"" N","17° 8' 42"" E",SKBTS,River Port,Medium,
SVN,Koper,Port of Koper,Luka Koper d.d.,"Vojkovo nabrezje 38
Koper 6501
Slovenia",+386 5 66 56 100,+386 5 639 5020,,PortKoper@luka-kp.si,www.luka-kp.si,"45° 33' 25"" N","13° 44' 10"" E",SIKOP,Seaport,Medium,
SLB,Honiara,Port of Honiara,Solomon Islands Ports Authority,"PO Box 307
Honiara, Guadalcanal Island
Solomon Islands",677 22646,677 23994,,ports@solomon.com.sb,,"9° 25' 35"" S","159° 58' 38"" E",,Seaport,Medium,
ZAF,Cape Town,Port of Cape Town,Transnet National Ports Authority,"P O Box 4245
Cape Town, Roggebaai 8000
South Africa",21 449 3408,21 449 3107,,,www.transnetnationalportsauthority.net,"33° 54' 33"" S","18° 26' 11"" E",ZACPT,Seaport,Medium,
ZAF,Ngqura,Port of Ngqura,Transnet National Ports Authority,"P O Box 32696
Braamfontein 2017
South Africa",11 351 9001,11 351 9023,,,www.transnetnationalportsauthority.net,"33° 48' 17"" S","25° 41' 22"" E",,Seaport,Medium,
ZAF,Port Elizabeth,Port of Port Elizabeth,,"P O Box 162
Port Elizabeth 6000
South Africa",41 507 1885,41 507 2793,,,www.transnetnationalportsauthority.net,"33° 57' 41"" S","25° 38' 11"" E",ZAPLZ,Seaport,Medium,
ZAF,Richards Bay,Port of Richards Bay,Transnet National Ports Authority,"P O Box 181
Richards Bay 3900
South Africa",35 905 3604,35 905 3333,,,www.transnetnationalportsauthority.net,"28° 48' 17"" S","32° 3' 35"" E",ZARCB,Seaport,Medium,
ZAF,Simon's Town,Naval Base Simon's Town,Simon's Town Naval Base,"Private Bag x 1
Simon's Town 7995
South Africa",27 21 862300,,,,,"34° 11' 24"" S","18° 26' 13"" E",ZASMN,Seaport,Medium,
ESP,Algeciras,Port of Algeciras Bay,Autoridad Portuaria de la Bahia de Algeciras,"Avda. de la Hispanidad, 2
Algeciras, Cadiz 11207
Spain",34 956 58 54 00,34 956 58 54 43,,apba@apba.es,www.apba.es,"36° 8' 55"" N","5° 23' 58"" W",ESALG,Seaport,Medium,
ESP,Bilbao,Port of Bilbao,Port Authority of Bilbao,"Muelle de la Ampliacion
Santurtzi, Bizkaia 48980 
Spain",+34 944 871 200,+34 944 871 208,,,www.bilbaoport.eus,"43° 21' 6"" N","3° 2' 50"" W",ESBIO,Seaport,Medium,
ESP,Cartagena,Puerto de Cartagena,Autoridad Portuaria de Cartagena,"Plaza Heroes de Cavite
Cartagena, Murcia 30201
Spain",+34 968 325800,+34 968 325815,,cartagena@apc.es,www.apc.es,"37° 35' 43"" N","0° 59' 8"" W",ESCAR,Seaport,Medium,
ESP,Las Palmas,Port of Las Palmas,Autoridad Portuaria de Las Palmas,"Tomas Quevedo Ramírez, s/n Edif. A.P.L.P.
Las Palmas de Gran Canaria
Las Palmas 35008
Spain",34 928300400,34 928300422,,info@palmasport.es,www.palmasport.es,"28° 8' 14"" N","15° 25' 6"" W",ESLPA,Seaport,Medium,
ESP,Palma,Port of Palma,Port Authority of the Balearic Islands,"Moll Vell, 3
Palma 07012
Spain",971 228 150,971 726 948,,portsdebalears@portsdebalears.com,www.portsdebalears.com,"39° 33' 28"" N","2° 37' 49"" E",,Seaport,Medium,
ESP,Seville,Port of Seville,Port Authority of Seville,"Avenida de Moliní, 6 
Seville, Seville 41012
Spain",+34 954 24 73 00,+34 954 24 73 43,,sevilla@sevilla.portel.es,www.apsevilla.com,"37° 21' 7"" N","5° 59' 34"" W",ESSVQ,River Port,Medium,
ESP,A Coruna,Port of A Coruna,Autoridad Portuaria de  A Coruna,"Avd. de la Marina, 3
A Coruna, A Coruna 15001
Spain",34 981219621,34 981219607,,,www.puertocoruna.com,"43° 21' 47"" N","8° 23' 26"" W",ESLCG,Seaport,Medium,
ESP,Algeciras,Port of Algeciras Bay,Autoridad Portuaria de la Bahia de Algeciras,"Avda. de la Hispanidad, 2
Algeciras, Cadiz 11207
Spain",34 956 58 54 00,34 956 58 54 43,,apba@apba.es,www.apba.es,"36° 8' 55"" N","5° 23' 58"" W",ESALG,Seaport,Medium,
ESP,Alicante,Alicante Port,Autoridad Portuaria de Alicante,"Muelle de Poniente, 11
Alicante, Alicante 03001
Spain",34 965 13 00 95,34 965 13 00 34,,a.portuaria@puertoalicante.com,www.puertoalicante.com,"38° 19' 55"" N","0° 29' 21"" W",ESALC,Seaport,Medium,
ESP,Almeria,Puerto de Almeria,Port Authority of Almeria,"Muelle Levante s/n
Almeria, Almeria 04071
Spain",+34 950 236 033 ,+34 950 232 949,,almeria@apalmeria.com,www.apalmeria.com,"36° 49' 49"" N","2° 28' 23"" W",ESLEI,Seaport,Medium,
ESP,Aviles,Puerto de Aviles,Port Authority of Aviles,"Travesia de la Industria 98
Aviles, Asturias 33401
Spain",34 985 54 11 11,34 985 56 68 00,,info@avilesport.com,www.avilesport.com,"43° 34' 43"" N","5° 55' 19"" W",ESAVS,Seaport,Medium,
ESP,Bilbao,Port of Bilbao,Port Authority of Bilbao,"Muelle de la Ampliacion
Santurtzi, Bizkaia 48980 
Spain",+34 944 871 200,+34 944 871 208,,,www.bilbaoport.eus,"43° 21' 6"" N","3° 2' 50"" W",ESBIO,Seaport,Medium,
ESP,Cartagena,Puerto de Cartagena,Autoridad Portuaria de Cartagena,"Plaza Heroes de Cavite
Cartagena, Murcia 30201
Spain",+34 968 325800,+34 968 325815,,cartagena@apc.es,www.apc.es,"37° 35' 43"" N","0° 59' 8"" W",ESCAR,Seaport,Medium,
ESP,Castellon,Port of Castellon,Autoridad Portuaria de Castellon,"Muelle Serrano Lloberes, s/n
Grao de Castellon 12100
Spain",964 28 11 40,964 28 14 11,,direccion@portcastello.com,www.portcastello.com,"39° 57' 45"" N","0° 1' 7"" E",ESCAS,Seaport,Medium,
ESP,Eivissa (Ibiza),Port of Eivissa,Port Authority of the Balearic Islands,"Moll Interior, 1.
Eivissa 07800
Spain",971 310 611,971 310 400,,portsdebalears@portsdebalears.com,www.portsdebalears.com,"38° 54' 37"" N","1° 26' 28"" E",ESIBZ,Seaport,Medium,
ESP,El Puerto De Santa Maria,Port of El Puerto De Santa Maria,Autoridad Portuaria de la Bahia de Cadiz (APBC),"Pza. de Espana, 17
Cadiz, Cadiz 11006
Spain",+34 956-240400,+34 956-240476,,cadiz@puertocadiz.com,www.puertocadiz.com,"36° 35' 10"" N","6° 13' 54"" W",ESPSM,Seaport,Medium,
ESP,Escombreras,Puerto de Escombreras,Autoridad Portuaria de Cartagena,"Plaza Heroes de Cavite
Cartagena, Murcia 30201
Spain",+34 968 325800,+34 968 325815,www.apc.es,cartagena@apc.es,,"37° 34' 4"" N","0° 57' 52"" W",ESESC,Seaport,Medium,
ESP,Gijon,Port of Gijon,Autoridad Portuaria de Gijon,"Claudio Alvargonzalez 32
Gijon 33201
Spain",34 985 179600,34 985 359917,,informacion@puertogijon.es,www.puertogijon.es,"43° 33' 56"" N","5° 41' 31"" W",ESGIJ,Seaport,Medium,
ESP,Huelva,Port of Huelva,Autoridad Portuaria de Huelva,"Avda. Real Sociedad
Colombina Onubense, s/n
Huelva 21001
Spain",34 900 213 100,34 959 493 137,,sac@puertohuelva.com,www.puertohuelva.com,"37° 10' 39"" N","6° 55' 21"" W",ESHUV,Seaport,Medium,
ESP,Las Palmas,Port of Las Palmas,Autoridad Portuaria de Las Palmas,"Tomas Quevedo Ramírez, s/n Edif. A.P.L.P.
Las Palmas de Gran Canaria
Las Palmas 35008
Spain",34 928300400,34 928300422,,info@palmasport.es,www.palmasport.es,"28° 8' 14"" N","15° 25' 6"" W",ESLPA,Seaport,Medium,
ESP,Malaga,Port of Malaga,Autoridad Portuaria de Malaga,"Muelle de Canovas, s/n
Malaga, Malaga 29001
Spain",34 952 125 000,34 952 125 002,,sac@puertomalaga.com,www.puertomalaga.com,"36° 42' 33"" N","4° 25' 9"" W",ESAGP,Seaport,Medium,
ESP,Marin,Puerto de Marin,Port Authority of Marin y Ria de Pontevedra,"Avenida de las Corbaceiras s/n
Pontevedra 36002
Spain",34 986 85 52 00,34 986 84 01 93,,sac@marin.portel.es,www.apmarin.com,"42° 23' 59"" N","8° 41' 48"" W",ESMAR,Seaport,Medium,
ESP,Melilla,Port of Melilla,Autoridad Portuaria de Melilla,"Avda de la Marina Espanola 4
Melilla 29804
Spain",34 95 267 3600,34 95 267 4838,,,www.puertodemelilla.es,"35° 16' 48"" N","2° 55' 35"" W",ESMLN,Seaport,Medium,
ESP,Palma,Port of Palma,Port Authority of the Balearic Islands,"Moll Vell, 3
Palma 07012
Spain",971 228 150,971 726 948,,portsdebalears@portsdebalears.com,www.portsdebalears.com,"39° 33' 28"" N","2° 37' 49"" E",,Seaport,Medium,
ESP,Palma de Mallorca,Port of Mallorca,Marina Port de Mallorca,"Paseo Marítimo 35 A
Palma de Mallorca 07014
Spain",34 971.739.030,34 971.221.621,,comercial@portdemallorca.com,www.portdemallorca.com,"39° 33' 4"" N","2° 37' 49"" E",ESPMI,Seaport,Medium,
ESP,Pasajes,Puerto de Pasajes,Pasaia Port Authority,"Edificio Transatlantico
Recinto portuario s/n. Apdo.56
Pasajes, Gipuzkoa 20110
Spain",+34 943 35 18 44,+34 943 35 25 80,,,www.pasaiaport.eus,"43° 19' 25"" N","1° 55' 4"" W",ESPAS,Seaport,Medium,
ESP,San Fernando,Naval Station of La Carraca,Armada Espanola,"San Fernando, Cadiz 11100
Spain",,,,,www.armada.mde.es,"36° 29' 42"" N","6° 10' 43"" W",,Seaport,Medium,
ESP,Santa Cruz de Tenerife,Puertos de Tenerife,Autoridad Portuaria de Santa Cruz de Tenerife,Spain,922 605465,922 605480,,presidencia@puertosdetenerife.org,www.puertosdetenerife.org,"28° 28' 29"" N","16° 13' 56"" W",ESSCT,Harbor,Medium,
ESP,Santander,Port of Santander,Autoridad Portuaria de Santander,"Edificio de Explotacion
Muelle de Maliano s/n
Santander, Cantabria 39009
Spain",34  942 20 36 00,34 942 20 36 33,,info@puertosantander.es,www.puertosantander.es,"43° 26' 32"" N","3° 48' 28"" W",ESSDR,Seaport,Medium,
ESP,Seville,Port of Seville,Port Authority of Seville,"Avenida de Moliní, 6 
Seville, Seville 41012
Spain",+34 954 24 73 00,+34 954 24 73 43,,sevilla@sevilla.portel.es,www.apsevilla.com,"37° 21' 7"" N","5° 59' 34"" W",ESSVQ,River Port,Medium,
ESP,Vigo,Port of Vigo,Autoridad Portuaria de Vigo,"Plaza de la Estrella n-1
Vigo, Pontevedra 36201
Spain",34 986 268 021,34 986 268 020,,apvigo@apvigo.es,www.apvigo.com,"42° 14' 33"" N","8° 43' 54"" W",ESVGO,Seaport,Medium,
ESP,Vilagarcia de Arousa,Porto de Villagarcia,Autoridad Portuaria de Villagarcia,"Muelle de Pasajeros, 1
Vilagarcia de Arousa, Pontevedra 36600
Spain",34 986 565 129,+34 986 565 800,,sac@portovilagarcia.com,www.portovilagarcia.com,"42° 35' 46"" N","8° 46' 41"" W",ESVIL,Seaport,Medium,
SDN,Port Sudan,Port Sudan,Sea Ports Corporation,"Port Sudan
Sudan",249-311-822061,249-183-779349,,,www.sudanports.gov.sd,"19° 36' 57"" N","37° 13' 28"" E",SDPZU,Seaport,Medium,
SUR,Paramaribo,Port of Paramaribo,NV Havenbeheer Suriname,"Van 't Hogerhuysstraat
Paramaribo
Suriname",597 40 2375,597 40 3691,,smeport@sr.net,,"5° 49' 12"" N","55° 8' 32"" W",SRPBM,River Port,Medium,
SWE,Gavle,Port of Gavle,,"Fredriksskans
Gavle 805 95
Sweden",46 26 17 88 43,46 26 14 09 79,,gavle.hamn@gavle.se,www.gavle.se,"60° 41' 4"" N","17° 11' 53"" E",SEGVX,Seaport,Medium,
SWE,Goteborg,Port of Goteborg,Port of Goteborg AB,"Port of Goteborg
Goteborg SE-403 38
Sweden",46 31 731 20 00,46 31 731 22 51,,info@portgot.se,,"57° 41' 21"" N","11° 52' 19"" E",SEGOT,Seaport,Medium,
SWE,Helsingborg,Port of Helsingborg,Helsingborg Hamn AB,"Box 821
Helsingborg 251 08
Sweden",46 0 42 10 63 00,46 0 42 28 22 99,,information@port.helsingborg.se,www.port.helsingborg.se,"56° 2' 0"" N","12° 41' 24"" E",SEHEL,Seaport,Medium,
SWE,Stockholm,Ports of Stockholm,Stockholms Hamn AB and the City of Stockholm,"Magasin 3, Frihamnen
P.O. Box 27314
Stockholm 102 54
Sweden",46 8 670 2600,46 8 665 0838,,info@stoports.com,www.stoports.com,"59° 20' 6"" N","18° 6' 53"" E",SESTO,Seaport,Medium,
SWE,Wallhamn,Port Wallhamn,Wallhamn AB,"Wallhamn SE-471 99
Sweden",46(0)304 67 99 51,46(0)304 66 08 89,,henrik.sundin@wallhamn.com,www.wallhamn.com,"58° 0' 32"" N","11° 42' 0"" E",SEWAL,Seaport,Medium,
SWE,Ahus,Port of Ahus,Ahus Hamn and Stuveri AB,"Krangatan 2
Ahus 296 32
Sweden",46 44-28 86 00,46 44-24 11 28,,info@ahushamn.se,www.ahushamn.se,"55° 55' 32"" N","14° 18' 31"" E",SEAHU,Seaport,Medium,
SWE,Falkenberg,Falkenbergs Terminal,Falkenbergs Terminal AB,"Box 144
Falkenberg 311 22
Sweden",46 346 55600,46 346 17266,,info@falkenbergs-terminal.se,www.falkenbergs-terminal.se,"56° 53' 22"" N","12° 28' 55"" E",SEFAG,Seaport,Medium,
SWE,Gavle,Port of Gavle,,"Fredriksskans
Gavle 805 95
Sweden",46 26 17 88 43,46 26 14 09 79,,gavle.hamn@gavle.se,www.gavle.se,"60° 41' 4"" N","17° 11' 53"" E",SEGVX,Seaport,Medium,
SWE,Goteborg,Port of Goteborg,Port of Goteborg AB,"Port of Goteborg
Goteborg SE-403 38
Sweden",46 31 731 20 00,46 31 731 22 51,,info@portgot.se,,"57° 41' 21"" N","11° 52' 19"" E",SEGOT,Seaport,Medium,
SWE,Helsingborg,Port of Helsingborg,Helsingborg Hamn AB,"Box 821
Helsingborg 251 08
Sweden",46 0 42 10 63 00,46 0 42 28 22 99,,information@port.helsingborg.se,www.port.helsingborg.se,"56° 2' 0"" N","12° 41' 24"" E",SEHEL,Seaport,Medium,
SWE,Kalmar,Port of Kalmar,Kalmar Port Administration,"Box 810
Kalmar 391 28
Sweden",46 480 45 14 50,46 480 45 14 58,,kalmar.hamn@kommun.kalmar.se,www.kalmar.se/kalmarhamn,"56° 39' 33"" N","16° 22' 14"" E",SEKLR,Seaport,Medium,
SWE,Karlskrona,Port of Karlskrona,,"Ostra Hamngatan 7B 371 83
Sweden",46 455-30 30 00,46 455-30 30 30,,tekniskaforvaltningen@karlskrona.se,www.karlskrona.se/hamn,"56° 9' 36"" N","15° 35' 15"" E",SEKAA,Harbor,Medium,
SWE,Norrkoping,Port of Norrkoping,Norrkopings Hamn Och Stuveri AB,"PO Box 6075
Norrkoping 600 06
Sweden",46 11 25 06 00,46 11 15 93 58,,info@norrkoping-port.se,www.norrkoping-port.se,"58° 36' 37"" N","16° 13' 51"" E",SENRK,Harbor,Medium,
SWE,Stockholm,Ports of Stockholm,Stockholms Hamn AB and the City of Stockholm,"Magasin 3, Frihamnen
P.O. Box 27314
Stockholm 102 54
Sweden",46 8 670 2600,46 8 665 0838,,info@stoports.com,www.stoports.com,"59° 20' 6"" N","18° 6' 53"" E",SESTO,Seaport,Medium,
SWE,Wallhamn,Port Wallhamn,Wallhamn AB,"Wallhamn SE-471 99
Sweden",46(0)304 67 99 51,46(0)304 66 08 89,,henrik.sundin@wallhamn.com,www.wallhamn.com,"58° 0' 32"" N","11° 42' 0"" E",SEWAL,Seaport,Medium,
CHE,Basel,Port of Basel,Rheinschifffahrtsdirektion Basel,"Hochbergerstrasse 160
Basel CH-4019
Switzerland",41 61 631 45 45,41 61 631 45 94,,rsd@portofbasel.ch,port-of-switzerland.ch,"47° 33' 44"" N","7° 36' 43"" E",,River Port,Medium,
SYR,Lattakia,Port of Lattakia,Lattakia Port General Company,"P.O.Box 220
Baghdad street
Lattakia
Syria",00963 41 476452,00963 41 475760,,,www.lattakiaport.gov.sy,"35° 31' 9"" N","35° 45' 50"" E",SYLTK,Seaport,Medium,
SYR,Tartous,Port of Tartous,Tartous Port Authority,"BP 86
Tartous
Syria",963 43 20562,963 43 315602,,ta-pco@mail.sy,www.tartousport.com/english,"34° 54' 21"" N","35° 51' 52"" E",,Seaport,Medium,
TWN,Hualien,Hualien Port,Hualien Harbor Bureau,Taiwan,,,,lly@mail.hlhb.gov.tw,www.hlhb.gov.tw,"23° 59' 14"" N","121° 38' 2"" E",TWHUN,Seaport,Medium,
TWN,Kaohsiung,Port of Kaohsiung,,"No. 62 Linhai 2nd Road. Gushan District
Kaohsiung
Taiwan",886-7-561-2311,,,,www.khb.gov.tw,"22° 33' 55"" N","120° 18' 40"" E",TWKHH,Seaport,Medium,
TWN,Mailiao,Mailiao Harbor,MaiLiao Harbor Company,Taiwan,05-681 5015,05-68 1213 5,,,www.moeaidb.gov.tw/iphw/mlharb/en/index.jsp,"23° 47' 19"" N","120° 11' 30"" E",,Seaport,Medium,
TWN,Taichung,Port of Taichung,,"No.2 ,Chung-Chi Rd., Sec. 3
Taichung County
Wu-Chi
Taiwan",886-4-26562611,886-4-26565720,,,www.tchb.gov.tw,"24° 15' 30"" N","120° 30' 22"" E",TWTXG,Seaport,Medium,
THA,Bangkok,Bangkok Modern Terminal,Chaiyaporn Group,"120 Suksawad Rd., Mu 2, Pak Khlong Bang Plakot
Phra Samut Chedi
Samutprakan 10290
Thailand",(662)4258999,(662) 4258786,,,www.bmt.co.th,"13° 36' 25"" N","100° 34' 14"" E",THBKK,Seaport,Medium,
THA,Bangkok,Port of Bangkok,Port Authority of Thiland,"Bangkok
Thailand",2249 7878,,,patonline@port.co.th,www.bkp.port.co.th,"13° 41' 45"" N","100° 35' 9"" E",THBKK,Seaport,Medium,
THA,Map Ta Phut,Port of Map Ta Phut,"Thai Prosperity Terminal Company, Ltd","199/2 M. 3
Map Ta Phut, Rayong 21150
Thailand",66 3868-3328,66 3868-3175,,,www.tptport.com,"12° 39' 33"" N","101° 8' 53"" E",,Seaport,Medium,
THA,Sattahip,Sattahip Comercial Port,Royal Thai Navy,"Sattahip Naval Base
2002/1 Moo.2 Plutaluang
Sattahip, Chonburi 20180
Thailand",66 38 431349,66 38 431261,,,scp.yod.net,"12° 37' 28"" N","100° 55' 11"" E",THSAT,Seaport,Medium,
TUN,Bizerte,Port of Bizerte,Office of Merchant Navy and Ports,"Administrative building-2060
La Goulette 3029
Tunisia",216 71 735 300,216 71 735 812,,ommp@ommp.nat.tn,www.ommp.nat.tn,"37° 15' 58"" N","9° 52' 32"" E",TNBIZ,Seaport,Medium,
TUN,Rades,Port of Rades,Office of Merchant Navy and Ports,"Administrative building-2060
La Goulette 3029
Tunisia",216 71 735 300,216 71 735 812,,ommp@ommp.nat.tn,www.ommp.nat.tn,"36° 48' 16"" N","10° 16' 9"" E",,Seaport,Medium,
TUN,Sfax,Port of Sfax,Office of Merchant Navy and Ports,"Administrative building-2060
La Goulette 3029
Tunisia",216 71 735 300,216 71 735 812,,ommp@ommp.nat.tn,www.ommp.nat.tn,"34° 43' 18"" N","10° 46' 3"" E",TNSFA,Seaport,Medium,
TUR,Aliaga,Port of Aliaga,Aliaga Liman Baskanligi,"Kultur Mahallesi
Fevzipasa Cad No 10
Aliaga
Turkey",90 232 616 1993,90 232 616 4106,,aliaga@denizcilik.gov.tr,www.aliagadenizcilik.gov.tr,"38° 49' 3"" N","26° 56' 57"" E",TRALI,Seaport,Medium,
TUR,Ambarli,Port of Ambarli,Altas Ambarli Liman Tesisleri Ticaret AS,"Ambarli Tesisleri
Angurya Ciftligi Mevkii   Yakuplu - B Cekmece
Ambarli 34900
Turkey",212 875 2800,212 875 2802,,altas@altasliman.com,www.altasliman.com,"40° 57' 54"" N","28° 41' 28"" E",,Seaport,Medium,
TUR,Gemlik,Port of Gemlik,Gemlik Port and Warehousing Administration Co. Inc.,"Kocacukur Mevkii
P.K. 101
Gemlik 16600
Turkey",224 524 88 31,224 524 88 30,,gemport@gemport.com.tr,www.gemport.com.tr,"40° 25' 4"" N","29° 7' 0"" E",TRGEM,Seaport,Medium,
TUR,Haydarpasa,Port of Haydarpasa,General Directorate of Turkish Sate Railways (TCDD),"TCDD Liman Isletmesi Mudurlugu
Haydarpasa
Turkey",0216 337 99 88,0216 345 17 05,,haydarpasaliman@tcdd.gov.tr,www.tcdd.gov.tr,"41° 0' 3"" N","28° 57' 30"" E",TRHAY,Seaport,Medium,
TUR,Izmir,Port of Izmir,General Directorate of Turkish State Railways (TCDD),"TCDD Liman Isletmesi Mudurlugu
Izmir
Turkey",232 463 16 00,232 463 22 48,,,www.tcdd.gov.tr,"38° 26' 38"" N","27° 9' 22"" E",,Seaport,Medium,
TUR,Mersin,Port of Mersin,General Directorate of Turkish State Railways (TCDD),"TCDD Liman Isletmesi Mudurlugu
Mersin
Turkey",324 238 25 30,324 238 25 31,,mersinliman@tcdd.gov.tr,www.tcdd.gov.tr,"36° 47' 49"" N","34° 38' 41"" E",TRMER,Seaport,Medium,
TUR,Aliaga,Port of Aliaga,Aliaga Liman Baskanligi,"Kultur Mahallesi
Fevzipasa Cad No 10
Aliaga
Turkey",90 232 616 1993,90 232 616 4106,,aliaga@denizcilik.gov.tr,www.aliagadenizcilik.gov.tr,"38° 49' 3"" N","26° 56' 57"" E",TRALI,Seaport,Medium,
TUR,Ambarli,Port of Ambarli,Altas Ambarli Liman Tesisleri Ticaret AS,"Ambarli Tesisleri
Angurya Ciftligi Mevkii   Yakuplu - B Cekmece
Ambarli 34900
Turkey",212 875 2800,212 875 2802,,altas@altasliman.com,www.altasliman.com,"40° 57' 54"" N","28° 41' 28"" E",,Seaport,Medium,
TUR,Dilovası,Port of Poliport,Poliport Kimya Sanayi ve Ticaret A.Ş.,"Diliskelesi Mevkii
Dilovası, Gebze / Kocaeli 41455
Turkey",90.262.7548000,90.262.6412649,,fyemeniciler@poliport.com,www.poliport.com,"40° 46' 4"" N","29° 31' 32"" E",,Port Terminal,Medium,
TUR,Eregli,Port of Eregli,Eregli Port Authority,"Karadeniz Eregli
Liman Baskanligi
Eregli 67330
Turkey",90 372 316 1007,90 372 323 1169,,,,"41° 16' 32"" N","31° 24' 26"" E",TRERE,Seaport,Medium,
TUR,Gemlik,Port of Gemlik,Gemlik Port and Warehousing Administration Co. Inc.,"Kocacukur Mevkii
P.K. 101
Gemlik 16600
Turkey",224 524 88 31,224 524 88 30,,gemport@gemport.com.tr,www.gemport.com.tr,"40° 25' 4"" N","29° 7' 0"" E",TRGEM,Seaport,Medium,
TUR,Haydarpasa,Port of Haydarpasa,General Directorate of Turkish Sate Railways (TCDD),"TCDD Liman Isletmesi Mudurlugu
Haydarpasa
Turkey",0216 337 99 88,0216 345 17 05,,haydarpasaliman@tcdd.gov.tr,www.tcdd.gov.tr,"41° 0' 3"" N","28° 57' 30"" E",TRHAY,Seaport,Medium,
TUR,Izmir,Port of Izmir,General Directorate of Turkish State Railways (TCDD),"TCDD Liman Isletmesi Mudurlugu
Izmir
Turkey",232 463 16 00,232 463 22 48,,,www.tcdd.gov.tr,"38° 26' 38"" N","27° 9' 22"" E",,Seaport,Medium,
TUR,Mersin,Port of Mersin,General Directorate of Turkish State Railways (TCDD),"TCDD Liman Isletmesi Mudurlugu
Mersin
Turkey",324 238 25 30,324 238 25 31,,mersinliman@tcdd.gov.tr,www.tcdd.gov.tr,"36° 47' 49"" N","34° 38' 41"" E",TRMER,Seaport,Medium,
TUR,Nemrut Bay,Port of Nemrut Bay,Nemrut Bay Port Authority,"Aliaga Liman Petrolleri Anonim
Baskanligi
Turkey",90 232 616 1993,90 232 616 4106,,,,"38° 47' 38"" N","26° 56' 24"" E",TRNEM,Seaport,Medium,
TUR,Sedef,Port of Sedef,Sedef Gemi Endustrisi A.S.,"Dil Iskeles
Icmeler Mevkii
Gebze - Kocaeli 41455
Turkey",262 641 50 50,262 641 67 30,,,,"40° 46' 3"" N","29° 32' 4"" E",,Port Terminal,Medium,
TKM,Turkmanbashi,Port of Turkmanbashi,,"Turkmanbashi
Turkmenistan",,,,,,"40° 0' 0"" N","53° 1' 39"" E",,Seaport,Medium,
UKR,Ilyichevsk,Port of Ilyichevsk,,"6, Truda Sq.
Ilyichevsk, Odessa region 68001
Ukraine",+ 38 (0482) 304622,+ 38 (0482) 693606,,pm@ilport.com.ua,ilport.com.ua,"46° 19' 59"" N","30° 38' 59"" E",UAILK,Seaport,Medium,
UKR,Kerch,Port of Kerch,,"Ul. Kirov, 28
Kerch, Crimea 98312
Ukraine",,,,kmtp@trport.kerch.crimea.com,www.ukrport.org.ua,"45° 21' 18"" N","36° 29' 13"" E",UAKEH,Seaport,Medium,
UKR,Kherson,Kherson Commerical Seaport,Kherson Port Authority,"4 Prospect Ushakova
Kherson 73000
Ukraine",+ 380 552 223248,+380 552 325 252,,seaport@tlc.kherson.ua,www.ukrport.org.ua,"46° 37' 7"" N","32° 36' 42"" E",UAKHE,Seaport,Medium,
UKR,Mariupol,Port of Mariupol,Mariupol sea commercial port,"99, Admiral Lunin Av.
Mariupol, Donetsk region 87500
Ukraine",53 86 57,,,all@marport.net,www.marport.net,"47° 5' 37"" N","37° 34' 39"" E",,Seaport,Medium,
UKR,Odessa,Port of Odessa,,"1, Customs Sg.
Odessa 65026
Ukraine",+38 (048) 729 35 00,+38 (048) 729 36 27,,,www.port.odessa.ua,"46° 30' 4"" N","30° 44' 21"" E",UAODS,Seaport,Medium,
UKR,Yuzhny,Port of Yuzhny,,"Yuzhny, Odessa Province 65481
Ukraine",+ 380 (48) 7507582,+ 380 (48) 7507888,,webmaster@port.yuzhny.odessa.ua,www.port.yuzhny.odessa.ua,"46° 37' 26"" N","31° 1' 17"" E",,Seaport,Medium,
ARE,Abu Dhabi,Port Zayed,Abu Dhabi Seaport Authority,"P.O.Box 422
Abu Dhabi
United Arab Emirates",+971-2 6730600,+971-2 6730432,,mrktdebt@emirates.net.ae,www.portzayed.gov.ae,"24° 31' 30"" N","54° 22' 34"" E",AEAUH,Seaport,Medium,
ARE,Dubai,Port Rashid,DP World,"PO Box 17000
Dubai
United Arab Emirates",971 4 8811110,971 4 8811331,,sales@dpa.ae,www.dpa.ae,"25° 16' 2"" N","55° 16' 15"" E",AEDXB,Seaport,Medium,
ARE,Jebel Ali,Port of Jebel Ali,DP World,"PO Box 17000
Dubai
United Arab Emirates",971 4 8811110,971 4 8811331,,sales@dpa.ae,www.dpa.ae,"24° 59' 45"" N","55° 3' 34"" E",AEJEA,Seaport,Medium,
ARE,Khalifa,Khalifa Port,Abu Dhabi Ports Company (ADPC),"PO Box 54477
Abu Dhabi
United Arab Emirates",,00971 2 697 5174,,investor.relations@adpc.ae,www.adpc.ae,"24° 46' 22"" N","54° 41' 7"" E",,Seaport,Medium,
ARE,Khor Fakkan,Port of Khor Fakkan,Sharjah Ports Authority,"P.O Box 510
Sharjah
United Arab Emirates",971-6-5281666,971-6-5281425,,shjports@emirates.net.ae,www.sharjahports.gov.ae,"25° 21' 11"" N","56° 21' 53"" E",,Seaport,Medium,
ARE,Sharjah,Port Khalid,Ports of Sharjah,"P.O Box 510
Sharjah
United Arab Emirates",971-6-5281666,971-6-5281425,,shjports@emirates.net.ae,www.sharjahports.gov.ae,"25° 21' 58"" N","55° 22' 42"" E",AESHJ,Seaport,Medium,
ARE,Sharjah,Port of Hamriyah,Sharjah Sea Ports,"P.O Box 510
Sharjah
United Arab Emirates",971-6-5281666,971-6-5281425,,shjports@emirates.net.ae,www.sharjahports.gov.ae,"25° 26' 53"" N","55° 28' 47"" E",AEHAM,Seaport,Medium,
GBR,Grangemouth,Port of Grangemouth,Forth Ports PLC,"Port Office
Grangemouth, Stirlingshire FK3 8UE
United Kingdom",44 1324 668 400,44 1324 665106,,nik.scott-gray@forthports.co.uk,www.forthports.co.uk,"56° 1' 41"" N","3° 42' 11"" W",GBGRG,Seaport,Medium,
GBR,Rochester,Thamesport,Hutchinson Port Holdings,"Grain Road
Isle of Grain
Rochester, Kent ME3 0EP
United Kingdom",44-1634-271 511,44-1634-270 384,,warrellm@thamesport.co.uk,www.thamesport.co.uk,"51° 26' 5"" N","0° 41' 14"" E",GBRCS,Seaport,Medium,
GBR,Teesport,Port of Teesport,PD Ports,"17-27 Queen's Square
Middlesbrough TS2 1AH
United Kingdom",44 1642 877000,44 1642 877056,,Trevor.Meredith@pdports.co.uk,www.pdports.co.uk,"54° 36' 29"" N","1° 9' 40"" W",GBTEE,Seaport,Medium,
GBR,Tilbury,Port of Tilbury,The Port of Tilbury London Ltd.,"Leslie Ford House
Tilbury Freeport
Tilbury, Essex RM18 7EH
United Kingdom",44 1375 852200,44 1375 855106,,perry.glading@potll.com,www.forthports.co.uk,"51° 27' 37"" N","0° 20' 46"" E",GBTIL,Seaport,Medium,
GBR,Aberdeen,Aberdeen Harbour,Aberdeen Harbour Commissioners,"16 Regent Quay
Aberdeen, AB AB11 5SS
United Kingdom",44 1224 597000,44 1224 571507,,info@aberdeen-harbour.co.uk,www.aberdeen-harbour.co.uk,"57° 8' 32"" N","2° 4' 45"" W",GBABD,Seaport,Medium,
GBR,Barry,Port of Barry,Associated British Ports,"Atlantic Way, No. 2 Doc
Barry, South Wales CF63 3US
United Kingdom",0870 609 6699,029 2083 5001,,ccouper@abports.co.uk,www.abports.co.uk/custinfo/ports/barry.htm,"51° 23' 52"" N","3° 15' 41"" W",GBBYG,Seaport,Medium,
GBR,Belfast,Port of Belfast,Belfast Harbour Commissioners,"Harbour Office
Corporation Square
Belfast, Northern Ireland BT1 3AL
United Kingdom",44 28 9055 4422,44 28 9055 4411,,info@belfast-harbour.co.uk,www.belfast-harbour.co.uk,"54° 37' 14"" N","5° 53' 44"" W",GBBEL,Seaport,Medium,
GBR,Birkenhead,Port of Birkenhead,,"Birkenhead
United Kingdom",,,,,,"53° 23' 32"" N","3° 1' 25"" W",GBBRK,Seaport,Medium,
GBR,Burntisland,Port of Burntisland,Forth Ports PLC,"Carron House
Central Dock Road
Grangemouth, Stirlingshire FK3 8TY
United Kingdom",44 1324 668400,,,alan.burns@forthports.co.uk,www.forthports.co.uk,"56° 3' 19"" N","3° 14' 9"" W",GBBTL,Seaport,Medium,
GBR,Cardiff,Port of Cardiff,Associated British Ports,"Queen Alexandra House
Cargo Road
Cardiff, South Wales CF10 4LY
United Kingdom",0870 609 6699,029 2083 5001,,ccouper@abports.co.uk,www.abports.co.uk/custinfo/ports/cardiff.htm,"51° 27' 46"" N","3° 9' 26"" W",GBCDF,Seaport,Medium,
GBR,Cowes,Cowes Harbour,Cowes Harbour Commission,"Harbour Office
Town Quay
Cowes, Isle of Wight PO31 7AS
United Kingdom",01983 293952,01983 299357,,chc@cowes.co.uk,www.cowes.co.uk,"50° 45' 25"" N","1° 17' 30"" W",GBCOW,Seaport,Medium,
GBR,Dundee,Port of Dundee,Forth Ports PLC,"Harbour Chambers
Dock Street
Dundee DD1 3HW
United Kingdom",44 1382 224121,44 1382 200834,,matt.north@forthports.co.uk,www.forthports.co.uk,"56° 27' 46"" N","2° 56' 55"" W",GBDUN,Seaport,Medium,
GBR,Ellesmere Port,Ellesmere Port,Manchester Ship Canal Co,"Runcorn Docs
Percival Lane
Runcorn, Cheshire WA7 4UY
United Kingdom",44 1928 508550,44 1928 567469,,mail@shipcanal.co.uk,www.shipcanal.co.uk,"53° 17' 25"" N","2° 52' 29"" W",GBELL,River Port,Medium,
GBR,Falmouth,Port of Falmouth,Falmouth Harbour Commissioners,"44 Arwenack Street
Falmouth, Cornwall TR11 3JQ
United Kingdom",44 1326 312285,44 1326 211352,,info@falmouthport.co.uk,www.falmouthport.co.uk,"50° 9' 10"" N","5° 3' 20"" W",GBFAL,Seaport,Medium,
GBR,Grangemouth,Port of Grangemouth,Forth Ports PLC,"Port Office
Grangemouth, Stirlingshire FK3 8UE
United Kingdom",44 1324 668 400,44 1324 665106,,nik.scott-gray@forthports.co.uk,www.forthports.co.uk,"56° 1' 41"" N","3° 42' 11"" W",GBGRG,Seaport,Medium,
GBR,Great Yarmouth,Port of Great Yarmouth,Great Yarmouth Port Authority,"20-21 South Quay
Great Yarmouth, Norfolk NR30 2RE
United Kingdom",44 1493 335500,44 1493 852480,,Administrator@gypa.co.uk,www.gypa.co.uk,"52° 35' 26"" N","1° 43' 46"" E",GBGTY,Seaport,Medium,
GBR,Hull,Port of Hull,Associated British Ports,"PO Box 1
Port House, Northern Gateway
Hull HU9 5PQ
United Kingdom",01482 327 171,01482 608 434,,hull@abports.co.uk,www.abports.co.uk/custinfo/ports/hull.htm,"53° 44' 37"" N","0° 17' 10"" W",GBHUL,Harbor,Medium,
GBR,Invergordon,Cromarty Firth,Cromarty Firth Port Authority,"Port Office, Shore Road
Invergordon
Cromarty Firth, Scotland IV18 0HD
United Kingdom",44 01349 852308,44 01349 854172,,cfpa@cfpa.co.uk,www.cfpa.co.uk,"57° 41' 6"" N","4° 10' 19"" W",GBIVG,Seaport,Medium,
GBR,Ipswich,Port of Ipswich,Associated British Ports,"Old Custom House
Key Street
Ipswich IP4 1BY
United Kingdom",01473 231 010,01473 230 914,,amacfarlane@abports.co.uk,www.abports.co.uk/custinfo/ports/ipswich.htm,"52° 2' 22"" N","1° 9' 24"" E",GBIPS,River Port,Medium,
GBR,Lymington,Lymington Harbour,Lymington Harbour Commissioners,"Harbour Office
Bath Road
Lymington, Hampshire SO41 3SE
United Kingdom",44 01590 672014,44 01590 671823,,harbouroffice@lymingtonharbour.co.uk,www.lymingtonharbour.co.uk,"50° 45' 15"" N","1° 31' 39"" W",GBLYM,Seaport,Medium,
GBR,Manchester,Manchester Ship Canal,Manchester Ship Canal Co,"Runcorn Docs
Percival Lane
Runcorn, Cheshire WA7 4UY
United Kingdom",44 1928 508550,44 1928 567469,,mail@shipcanal.co.uk,www.shipcanal.co.uk,"53° 23' 41"" N","2° 34' 34"" W",GBMNC,Canal,Medium,
GBR,Manchester,Port of Manchester,Manchester Ship Canal Co,"Runcorn Docs
Percival Lane
Runcorn, Cheshire WA7 4UY
United Kingdom",44 1928 508550,44 1928 567469,,mail@shipcanal.co.uk,www.shipcanal.co.uk,"53° 28' 17"" N","2° 17' 30"" W",GBMNC,River Port,Medium,
GBR,Plymouth,Port of Plymouth,Associated British Ports,"Port Office
Millbay Docks
Plymouth, Devon PL1 3EF
United Kingdom",01752 662 191,01752 825 624,,datkin@abports.co.uk,www.abports.co.uk/custinfo/ports/plym.htm,"50° 21' 53"" N","4° 9' 23"" W",GBPLY,Seaport,Medium,
GBR,Portsmouth,Portsmouth Continental Ferry Port,Portsmouth Commercial Port,"Harbour Offices
George Byng Way
Portsmouth PO2 8SP
United Kingdom",44 023 9229 7391,44 23 9286 1165,,info@portsmouth-port.co.uk,www.portsmouth-port.co.uk,"50° 48' 27"" N","1° 6' 0"" W",GBPME,Seaport,Medium,
GBR,Purfleet,Port of Purfleet,,"Purfleet
United Kingdom",,,,,,"51° 28' 25"" N","0° 14' 52"" E",GBPFT,River Port,Medium,
GBR,Rochester,Thamesport,Hutchinson Port Holdings,"Grain Road
Isle of Grain
Rochester, Kent ME3 0EP
United Kingdom",44-1634-271 511,44-1634-270 384,,warrellm@thamesport.co.uk,www.thamesport.co.uk,"51° 26' 5"" N","0° 41' 14"" E",GBRCS,Seaport,Medium,
GBR,Rosyth,Port of Rosyth,Forth Ports PLC,"Carron House
Central Dock Road
Grangemouth, Stirlingshire FK3 8TY
United Kingdom",44 1324 668400,,,alan.burns@forthports.co.uk,www.forthports.co.uk,"56° 1' 19"" N","3° 26' 39"" W",GBROY,Seaport,Medium,
GBR,Sheerness,Port of Sheerness,Mersey Docks and Harbour Company,"Medway Ports
Sheerness Docks
Sheerness, Kent ME12 1RS
United Kingdom",44 01795 596596,44 01795 660072,,descrampton@medwayports.com,www.medwayports.com,"51° 26' 22"" N","0° 44' 38"" E",GBSHS,Seaport,Medium,
GBR,Shell Haven,Shell Haven,,"Shell Haven
United Kingdom",,,,,,"51° 30' 40"" N","0° 33' 27"" E",GBSHV,Seaport,Medium,
GBR,Sunderland,Port of Sunderland,,"Capstan House
Greenwells Quay, South Docks
Sunderland SR1 2BU
United Kingdom",44 191 553 2100,44 191 553 2120,,info@portofsunderland.org.uk,www.portofsunderland.org.uk,"54° 54' 25"" N","1° 21' 35"" W",GBSUN,Seaport,Medium,
GBR,Swansea,Port of Swansea,Associated British Ports,"Harbour Office, Lock Head
Kings Dock
Swansea SA1 1QR
United Kingdom",0870 609 6699,01792 332 255,,jfitzgerald@abports.co.uk,www.abports.co.uk/custinfo/ports/swansea.htm,"51° 36' 57"" N","3° 55' 5"" W",GBSWA,Seaport,Medium,
GBR,Teesport,Port of Teesport,PD Ports,"17-27 Queen's Square
Middlesbrough TS2 1AH
United Kingdom",44 1642 877000,44 1642 877056,,Trevor.Meredith@pdports.co.uk,www.pdports.co.uk,"54° 36' 29"" N","1° 9' 40"" W",GBTEE,Seaport,Medium,
GBR,Tilbury,Port of Tilbury,The Port of Tilbury London Ltd.,"Leslie Ford House
Tilbury Freeport
Tilbury, Essex RM18 7EH
United Kingdom",44 1375 852200,44 1375 855106,,perry.glading@potll.com,www.forthports.co.uk,"51° 27' 37"" N","0° 20' 46"" E",GBTIL,Seaport,Medium,
GBR,Tyne,Port of Tyne,The Port of Tyne Authority,"Maritime House
Tyne Dock, South Shields,
Tyne and Wear NE34 9PT
United Kingdom",44 191 455 2671,44 191 455 4687,,enquiries@portoftyne.co.uk,www.portoftyne.com,"54° 59' 40"" N","1° 26' 43"" W",GBTYN,Seaport,Medium,
USA,Galveston,Port of Galveston,Port of Galveston,"P.O. Box 328
Galveston, TX 77553
United States",409.765.9321,409.766.6171,,portgalv@portofgalveston.com,www.portofgalveston.com,"29° 18' 15"" N","94° 49' 7"" W",USGLS,Seaport,Medium,
USA,Savannah,Port of Savannah,Georgia Ports Authority,"P.O. Box 2406
Savannah, GA 31402
United States",912-964-3811,912-964-3921,800-342-8012,info@gaports.com,www.gaports.com,"32° 6' 39"" N","81° 7' 33"" W",USSAV,Seaport,Medium,
USA,Alameda Point,Port of Alameda,City of Alameda,"2263 Santa Clara Avenue
Alameda, CA 94501     
United States",510-747-4747,,,jott@alamedaca.gov,alamedaca.gov/alameda-point,"37° 46' 35"" N","122° 18' 15"" W",,Seaport,Medium,
USA,Albany,Port of Albany,Albany Port District Commission,"Administration Building
Port of Albany
Albany, NY 12202-1089
United States",518-463-8763,518-463-8767,,rhendrick@portofalbany.us,www.portofalbany.com,"42° 37' 26"" N","73° 45' 18"" W",USALB,River Port,Medium,
USA,Anchorage,Port of Anchorage,Port of Anchorage,"2000 Anchorage Port Road
Anchorage, AK 99501
United States",907-343-6200,907-277-5636,,greydanussb@muni.org,www.muni.org,"61° 14' 8"" N","149° 53' 25"" W",USANC,Seaport,Medium,
USA,Avondale,Port of Avondale,,"Avondale, LA
United States",,,,,,"29° 55' 32"" N","90° 11' 8"" W",USAVD,River Port,Medium,
USA,Barbours Cut,Barbours Cut,Port of Houston Authority,"111 East Loop North              (77029)
P.O. Box 2562                          (77252-2562)
Houston, TX 77252-2562
United States",713-670-2400,713-670-2429,800-688-3625,,www.portofhouston.com,"29° 40' 54"" N","94° 59' 55"" W",USBBT,Seaport,Medium,
USA,Bath,Bath Harbor,"City of Bath, Harbor Master","250 Water Street
Bath, ME 04530
United States",207-443-5563,,,dhouston@cityofbath.com,www.cityofbath.com,"43° 54' 49"" N","69° 48' 18"" W",USBTH,Harbor,Medium,
USA,Bayonne,Port of Bayonne,City of Bayonne,"630 Avenue C
Bayonne, NJ 07002
United States",201-858-6010,,,,www.bayonnenj.org,"40° 39' 45"" N","74° 6' 14"" W",USBAY,Seaport,Medium,
USA,Bellingham,Port of Bellingham,Port of Bellingham Commission,"1801 Roeder Avenue
Bellingham, WA 98225
United States",(360) 676-2500,(360) 671-6411,,info@portofbellingham.com,www.portofbellingham.com,"48° 44' 26"" N","122° 30' 2"" W",USBLI,Seaport,Medium,
USA,Benicia,Port of Benicia,,"1997 Elm Road
Benicia, CA 94510
United States",707-745-2394,707-746-1485,,info@amports.com,www.amports.com,"38° 2' 39"" N","122° 7' 56"" W",USBNC,Deepwater Seaport,Medium,
USA,Brownsville,Port of Brownsville,Brownsville Navigation District,"1000 Foust Rd.
Brownsville, TX 78521
United States",956-831-4592,956-831-5006,,contact@portofbrownsville.com,www.portofbrownsville.com,"25° 57' 26"" N","97° 23' 7"" W",USBRO,Seaport,Medium,
USA,Buffalo,Port of Buffalo,Gateway Metroport,"2544 Clinton Street
PO Box 880
Buffalo, NY 14224
United States",716 826-7310,716 826-1342,,info@portofbuffalo.com,www.portofbuffalo.com,"42° 50' 47"" N","78° 52' 23"" W",USBUF,Seaport,Medium,
USA,Camden,Port of Camden,South Jersey Port Corporation,"2nd & Beckett Streets
Camden, NJ 08103
United States",856-757-4969,856-757-4903,,,www.southjerseyport.com,"39° 56' 7"" N","75° 8' 10"" W",USCDE,River Port,Medium,
USA,Cape Canaveral,Port Canaveral,Canaveral Port Authority,"445 Challenger Road
P.O. Box 267
Cape Canaveral, FL 32920
United States",321-783-7831,321.784.6223,1-888-PORTCAN,,www.portcanaveral.org,"28° 24' 42"" N","80° 36' 33"" W",,Seaport,Medium,
USA,Carquinez Strait,Carquinez Strait,,"Crockett, CA 94525
United States",,,,,,"38° 3' 25"" N","122° 11' 8"" W",,Waterway Region,Medium,
USA,Chester,Port of Chester,Philadelphia Regional Port Authority,"3460 N. Delaware Avenue
Philadelphia, PA 19134
United States",215-426-2600,215-426-6800,,,www.philaport.com,"39° 50' 25"" N","75° 21' 38"" W",USCHT,River Port,Medium,
USA,Coos Bay,Oregon International Port of Coos Bay,Coos Bay Board of Commissioners,"125 Central Avenue, Suite 300
P.O. Box 1215
Coos Bay, OR 97420
United States",(541) 267-7678,(541) 269-1475,,portcoos@portofcoosbay.com,www.portofcoosbay.com,"43° 23' 3"" N","124° 13' 8"" W",USCOB,Seaport,Medium,
USA,Detroit,Detroit/Wayne County Port Authority,Detroit/Wayne County Port Authority,"8109 E. Jefferson Avenue
Detroit, MI 48214
United States",(313) 331-3842,(313) 331-5457,(800) 249-PORT,,www.portdetroit.com,"42° 15' 27"" N","83° 7' 20"" W",USDET,Seaport,Medium,
USA,East Chicago,Indiana Harbor,,"East Chicago, IN
United States",,,,,www.lrc.usace.army.mil/co-o/Ind_Hbr.htm,"41° 40' 24"" N","87° 26' 20"" W",USECH,Seaport,Medium,
USA,Erie,Port of Erie,Erie-Western Pennsylvania Port Authority,"208 East Bayfront Parkway
Suite 201
Erie, PA 16507
United States",814-455-7557,814-455-8070,,,www.porterie.org,"42° 8' 32"" N","80° 6' 8"" W",USERI,Seaport,Medium,
USA,Eureka,Humboldt Bay Harbor,Humboldt Bay Harbor District,"601 Startare Drive
P.O. Box 1030
Eureka, CA 95502
United States",(707) 443-0801,(707) 443-0800,,,www.humboldtbay.org,"40° 47' 40"" N","124° 11' 25"" W",USEKA,Seaport,Medium,
USA,Everett,Port of Everett,Port of Everett Board of Commissioners,"P.O. Box 538
2911 Bond St.
Everett, WA 98206
United States",425 259 3164,425 252 7366,800-729-7678,gen@portofeverett.com,www.portofeverett.com,"47° 58' 56"" N","122° 13' 26"" W",USPAE,Seaport,Medium,
USA,Fall River,Port of Fall River,Fall River State Pier,"Water Street
Fall River, MA 02721
United States",508 674 5707,508 675 7830,,,www.mass.gov/seaports/Fall River.htm,"41° 42' 18"" N","71° 10' 0"" W",USFAV,Seaport,Medium,
USA,Freeport,Port Freeport,Port Freeport Prot Commission,"1100 Cherry Street 
Freeport, TX 77541
United States",979 233 2667,979 233 5625,800 362 5743,wilson@portfreeport.com,www.portfreeport.com,"28° 57' 2"" N","95° 19' 9"" W",USFPO,Seaport,Medium,
USA,Galveston,Port of Galveston,Port of Galveston,"P.O. Box 328
Galveston, TX 77553
United States",409.765.9321,409.766.6171,,portgalv@portofgalveston.com,www.portofgalveston.com,"29° 18' 15"" N","94° 49' 7"" W",USGLS,Seaport,Medium,
USA,Gloucester,Gloucester Harbor,City of Gloucester,"19 Harbor Loop
Gloucester, MA 01930
United States",978 282 3012,978 281 4188,,,www.ci.gloucester.ma.us,"42° 36' 41"" N","70° 39' 16"" W",USGLO,Seaport,Medium,
USA,Houston,Jacintoport,Jacintoport International LLC,"16398 Jacintoport Boulevard
Houston, TX 77015
United States",713-673-7000,713-673-7300,,,www.jacintoport.com,"29° 44' 57"" N","95° 6' 39"" W",,Seaport,Medium,
USA,Ketchikan,Port of Ketchikan,City of Ketchikan,"Harbormaster Office
2933 Tongass Avenue
Ketchikan, AK 99901
United States",907-228-5632,907-247-3610,,chrisb@city.ketchikan.ak.us,www.city.ketchikan.ak.us,"55° 20' 49"" N","131° 40' 26"" W",USKTN,Seaport,Medium,
USA,Lorain,Port of Lorain,Lorain Port Authority,"611 Broadway Avenue
Lorain, OH 44052
United States",440-204-2269,440-204-2269,,,www.lorainportauthority.com,"41° 28' 5"" N","82° 10' 42"" W",USLOR,Seaport,Medium,
USA,Marcus Hook,Port of Marcus Hook,,"Marcus Hook, PA
United States",,,,,,"39° 48' 42"" N","75° 25' 6"" W",USMAH,Seaport,Medium,
USA,Martinez,Shell Oil Terminal Martinez,Shell Oil Company,"Martinez, CA
United States",,,,,www.shellmartinezrefinery.com,"38° 1' 57"" N","122° 7' 41"" W",USMRZ,Deepwater Seaport,Medium,
USA,Mayport,Naval Station Mayport,,"Mayport, FL
United States",,,,,www.cnic.navy.mil/mayport,"30° 23' 41"" N","81° 24' 33"" W",,Seaport,Medium,
USA,Miami,Port of Miami,Miami Dade County,"1015 N. America Way
2nd Floor
Miami, FL 33132
United States",305 371 7678,305 347 4843,,portofmiami@miamidade.gov,www.miamidade.gov/portofmiami,"25° 46' 30"" N","80° 10' 2"" W",USMIA,Seaport,Medium,
USA,Milwaukee,Port of Milwaukee,Port of Milwaukee Board of Harbor Commissioners,"2323 South Lincoln Memorial Drive
Milwaukee, WI 53207
United States",414-286-3511,414-286-8506,,ereine@milwaukee.gov,www.milwaukee.gov/PortofMilwaukee307.htm,"43° 0' 56"" N","87° 54' 0"" W",USMKE,Seaport,Medium,
USA,Muskegon,Muskegon Harbor,City of Muskegon,"933 Terrace St
Muskegon, MI 49443
United States",,,,,www.muskegon-mi.gov,"43° 14' 14"" N","86° 17' 43"" W",USMKG,Seaport,Medium,
USA,New Bedford,Port of New Bedford,New Bedford Harbor Development Commission,"106 Co-op Wharf
New Bedford, MA 02740
United States",508-961-3000,508-979-1517,,HDC@ci.new-bedford.ma.us,www.ci.new-bedford.ma.us,"41° 38' 15"" N","70° 54' 59"" W",USNBD,Seaport,Medium,
USA,New London,Naval Submarine Base New London,US Navy,"New London, CT
United States",860 694-3011,,,,www.subasenlon.navy.mil,"41° 23' 48"" N","72° 5' 36"" W",USNLO,Seaport,Medium,
USA,New London,Port of New London,,"Connecticut State Pier
State Pier Road
New London, CT 06320
United States",(860)443-3856,(860)437-7251,,,,"41° 21' 32"" N","72° 5' 29"" W",USNLO,Seaport,Medium,
USA,Olympia,Port of Olympia,Port of Olympia Commission,"915 Washington Street NE
Olympia, WA 98501
United States",360  528 8000,360 528 8090,,inquiries@portolympia.com,www.portolympia.com,"47° 3' 12"" N","122° 54' 4"" W",USOLM,River Port,Medium,
USA,Palm Beach,Port of Palm Beach,Port of Palm Beach District,"P.O. Box 9935
Riviera Beach, FL 33419
United States",561 842 4201,561 842 4240,,info@portofpalmbeach.com,www.portofpalmbeach.com,"26° 46' 3"" N","80° 3' 5"" W",USPAB,Seaport,Medium,
USA,Pascagoula,Port of Pascagoula,Jackson County Port Authority Board of Commissioners,"P.O. Box 70
Pascagoula, MS 39568-0070
United States",228 762 4041,228 762 7476,,info@portofpascagoula.com,www.portofpascagoula.com,"30° 21' 5"" N","88° 32' 22"" W",USPGL,Seaport,Medium,
USA,Pennsauken,Port of Pennsauken,Delaware River Port Authority‎,"1 Betsy Ross Bridge Plaza
Pennsauken, NJ 08110
United States",856 317 5900,,,,,"39° 58' 24"" N","75° 5' 0"" W",USPPS,River Port,Medium,
USA,Pensacola,Port of Pensacola,"City of Pensacola, Department of the Port of Pensacola","700 South Barracks Street
Pensacola, FL 32594
United States",(850) 436-5070,(850) 436-5076,,,www.portofpensacola.com,"30° 24' 18"" N","87° 12' 39"" W",USPNS,Seaport,Medium,
USA,Pittsburgh,Port of Pittsburgh,Port of Pittsburgh Commission,"425 Sixth Avenue
Suite 2990
Pittsburgh, PA 15219
United States",412 201-7330,412 201-7337,,mail@port.pittsburgh.pa.us,www.port.pittsburgh.pa.us,"40° 26' 57"" N","80° 0' 44"" W",USPIT,River Port,Medium,
USA,Plaquemines,"Plaquemines Parish Port, Harbor and Terminal District","Plaquemines Port, Harbor and Terminal District","124 Edna LaFrance Road
Braithwaite, LA 70040-1804
United States",504-682-7920,504-682-0649,,,www.plaqueminesport.com,"29° 36' 33"" N","89° 48' 8"" W",USPLQ,River Port,Medium,
USA,Point Comfort,Point Comfort,Calhoun County Port Authority,"2313 FM 1593 South
P.O. Box 397
Point Comfort, TX 77978
United States",(361) 987-2813,(361) 987-2189,,RHVB@portofplpc.com.,www.calhounport.com,"28° 39' 3"" N","96° 33' 32"" W",USPCR,Seaport,Medium,
USA,Port Arthur,Port of Port Arthur,Port of Port Arthur Navigation District of Jefferson  County,"221 Houston Ave
Port Arthur, TX 77641
United States",409-983-2011,409-985-9312,,info@portofportarthur.com,www.portofportarthur.com,"29° 50' 35"" N","93° 57' 40"" W",USPOA,Seaport,Medium,
USA,Port Everglades,Port Everglades,Broward County Board of County Commissioners,"Port Everglades Business Office
1850 Eller Drive
Fort Lauderdale, FL 33316
United States",954-523-3404,954-765-5345,,PortEverglades@broward.org,www.broward.org/port,"26° 5' 4"" N","80° 6' 49"" W",USPVS,Seaport,Medium,
USA,Port Fourchon,Port Fourchon,Greater Lafourche Port Commission,"16829 East Main Street
Galliano, LA 70354
United States",985-632-6701,985-632-6703,,glpc@portfourchon.com,www.portfourchon.com,"29° 7' 42"" N","90° 12' 29"" W",USFOC,Seaport,Medium,
USA,Port Hueneme,Port of Hueneme,Oxnard Harbor District,"P.O. BOX 608, 333 Ponoma Street
Port Hueneme, CA 93044-0608
United States",805.488.3677,805.488.2620,,wberg@portofhueneme.org,www.portofhueneme.org,"34° 8' 57"" N","119° 12' 28"" W",USNTD,Deepwater Seaport,Medium,
USA,Port Neches,Port Neches,,"Port Neches, TX
United States",,,,,,"30° 0' 25"" N","93° 57' 55"" W",USPON,Seaport,Medium,
USA,Portland,Port of Portland,,"121 NW Everett Street
Portland, OR 97209-4049
United States",503.944.7000,503.944.7080,800.547.8411,ContactUs@PortofPortland.com,www.portofportlandor.com,"45° 36' 21"" N","122° 47' 2"" W",USPDX,River Port,Medium,
USA,Portland,Port of Portland,Ports and Transportation Department,"40 Commercial Street
Portland, ME 04101
United States",207 541 6900,207 541 6905,,,www.portofportlandmaine.org,"43° 39' 12"" N","70° 14' 35"" W",USPWM,Seaport,Medium,
USA,Portsmouth,Port of Portsmouth,New Hampshire Division of Ports and Harbors,"555 Market Street
P.O. Box 369
Portsmouth, NH 03801
United States",603 436 8500,603 436 2780,,p.gradi@peasedev.org,www.portofnh.org,"43° 5' 15"" N","70° 46' 11"" W",USPSM,Seaport,Medium,
USA,Providence,Port of Providence,Waterson Terminal Services,"35 Terminal Road
Providence, RI 02905-5507
United States",401 461 9900,401 461 6240,,bruce@watersonllc.com,www.watersonllc.com,"41° 47' 39"" N","71° 23' 25"" W",USPVD,Seaport,Medium,
USA,Quincy,Fore River Shipyard,Fore River Shipyard Redevelopment Project,"P.O. Box 850972
Braintree, MA 02184
United States",617.847.1883,617.479.5816,,,www.forerivershipyard.com,"42° 14' 29"" N","70° 58' 13"" W",USMQI,Seaport,Medium,
USA,Redwood City,Port of Redwood City,The City Charter,"675 Seaport Boulevard
Redwood City, CA 94063-2794
United States",650 306 4150,650 369 7636,,portofrc@redwoodcityport.com,www.redwoodcityport.com,"37° 30' 41"" N","122° 12' 38"" W",USRWC,Seaport,Medium,
USA,Savannah,Port of Savannah,Georgia Ports Authority,"P.O. Box 2406
Savannah, GA 31402
United States",912-964-3811,912-964-3921,800-342-8012,info@gaports.com,www.gaports.com,"32° 6' 39"" N","81° 7' 33"" W",USSAV,Seaport,Medium,
USA,Stockton,Port of Stockton,Port of Stockton,"2201 West Washington Street
Stockton, CA 95203
United States",209-946-0246,209-465-7244,800-344-3213,portmail@stocktonport.com,www.portofstockton.com,"37° 57' 2"" N","121° 19' 36"" W",USSCK,River Port,Medium,
USA,Toledo,Port of Toledo,Toledo-Lucas County Port Authority,"One Maritime Plaza
Suite 700
Toledo, OH 43604-1866
United States",419.243.8251,419.243.1835,866-888-7678,jcappel@toledoportauthority.org,www.toledoseaport.org,"41° 41' 43"" N","83° 27' 24"" W",USTOL,Seaport,Medium,
USA,Valdez,Port of Valdez,City of Valdez Ports Department,"PO Box 307
Valdez, AK 99686
United States",907-835-4564,907-835-4479,,portofvaldez@ci.valdez.ak.us,www.ci.valdez.ak.us/port,"61° 6' 13"" N","146° 21' 40"" W",USVDZ,Seaport,Medium,
USA,Vancouver,Port of Vancouver,Port of Vancouver USA,"3103 Lower River Road
Vancouver, WA 98660
United States",(360) 693-3611,(360) 735-1565,,info@portvanusa.com,www.portvanusa.com,"45° 38' 22"" N","122° 42' 47"" W",USVAN,River Port,Medium,
USA,Wilmington,Port of Wilmington,North Carolina State Ports Authority,"2202 Burnett Blvd
P.O. Box 9002
Wilmington, NC 28402
United States",910-763-1621,910-763-6440,1-800-334-0682,busdev@ncports.com,www.ncports.com,"34° 11' 31"" N","77° 57' 15"" W",USILM,Seaport,Medium,
USA,Wilmington,The Port of Wilmington,"The Port of Wilmington, Delaware State Port Corporation","1 Hausel Road
Wilmington, DE 19801-5852
United States",(302) 472-PORT,(302) 472-7740,,rwang@port.state.de.us,www.portofwilmingtonde.com,"39° 43' 0"" N","75° 31' 18"" W",USILG,Seaport,Medium,
URY,Montevideo,Puerto de Montevideo,Administracion Nacional de Puertos,"Main Building: NÃ½ 160 Rambla 25 de Agosto de 1825
Montevideo
Uruguay",(598)(2) 1901*,,,,www.anp.com.uy,"34° 54' 2"" S","56° 12' 24"" W",UYMVD,Seaport,Medium,
VUT,Port Vila,Port of Port Vila,Port Vila Port Authority,"Harbour Master
PO Box 46
Port Vila
Vanuatu",678 22339,678 22475,,,www.vanuatugovernment.gov.vu,"17° 44' 50"" S","168° 18' 33"" E",VUVLI,Harbor,Medium,
VEN,La Guaira,Port of La Guaira,Puertos del Litoral Central SA,"Terminal Maritimo
Dr. Jose Maria Vargas, Av. Soublette
La Guaira, Estado Vargas
Venezuela",58-2 30.30.802,58-2 30.30.934,,presidencia_plc@plcsa.gov.ve,www.plcsa.gob.ve,"10° 36' 10"" N","66° 56' 39"" W",VELAG,Seaport,Medium,
VEN,Puerto Cabello,Port of Puerto Cabello,Instituto puerto autonomo de puerto cabello (IPAPC),"Final Calle Puerto Cabello
Edif IPAPC, piso 6
Puerto Cabello, Edo Carabobo
Venezuela",58 242 380 1974,58 242 360 2973,,,www.ipapc.gov.ve,"10° 28' 38"" N","67° 59' 55"" W",VEPBL,Seaport,Medium,
VEN,Cumana,Port Sucre,,"Cumana, Sucre
Venezuela",,,,,www.selinger.com/cumana.htm,"10° 28' 27"" N","64° 11' 25"" W",VECUM,Seaport,Medium,
VEN,La Guaira,Port of La Guaira,Puertos del Litoral Central SA,"Terminal Maritimo
Dr. Jose Maria Vargas, Av. Soublette
La Guaira, Estado Vargas
Venezuela",58-2 30.30.802,58-2 30.30.934,,presidencia_plc@plcsa.gov.ve,www.plcsa.gob.ve,"10° 36' 10"" N","66° 56' 39"" W",VELAG,Seaport,Medium,
VEN,Pamatacual,Port of Pamatacual,Capetania de Puerto de Pamatacual,"Puerto La Cruz
Venezuela",58 281 660556,,,,,"10° 14' 30"" N","64° 37' 45"" W",VEPAM,Seaport,Medium,
VEN,Puerto Cabello,Port of Puerto Cabello,Instituto puerto autonomo de puerto cabello (IPAPC),"Final Calle Puerto Cabello
Edif IPAPC, piso 6
Puerto Cabello, Edo Carabobo
Venezuela",58 242 380 1974,58 242 360 2973,,,www.ipapc.gov.ve,"10° 28' 38"" N","67° 59' 55"" W",VEPBL,Seaport,Medium,
VEN,Punta Piedras,Port of Punta Piedras,Port Authority of Punta Piedras,"Maraven SA
Maracaibo
Venezuela",,,,,,"10° 35' 20"" N","71° 36' 30"" W",,Seaport,Medium,
VNM,Cai Mep,"SSA International Terminal, Cai Mep",SSA Marine,"Unit 805, 8th Floor, Melinh Point Tower
No. 2 Ngo Duc Ke Street, District 1
Ho Chi Minh City
Vietnam",84-08-3910-6866,84-08-3910-6871,,john.cushing@ssit.com.vn,www.ssit.com.vn,"10° 23' 13"" N","107° 5' 5"" E",,Seaport,Medium,
VNM,Da Nang,Da Nang Port,Vietnam National Shipping Lines,"26 Bach Dang St.
Da Nang
Vietnam",84 511 821 114,84 511 822 565,,cangdn@dng.vnn.vn,www.danangportvn.com,"16° 4' 56"" N","108° 13' 37"" E",VNDAD,Seaport,Medium,
VNM,Ho Chi Minh City,Port of Ho Chi Minh City,Saigon Newport Company,"End of Dien Bien Phu street,
ward 22, Binh Thanh district
Ho Chi Minh City
Vietnam",84.8.8999034,84.8.8994388,,saigonnewport@hcm.vnn.vn,www.vpa.org.vn/english/members/south/saigonnew.htm,"10° 47' 38"" N","106° 43' 29"" E",VNSGN,River Port,Medium,
VNM,Ho Chi Minh City,Saigon Port,3 Nguyen Tat Thanh street,"district 4
Ho Chi Minh City
Vietnam",,,,csg@hcm.vnn.vn,www.csg.com.vn,"10° 45' 34"" N","106° 43' 15"" E",VNSGN,River Port,Medium,
VIR,Port Alucroix,Port Alucroix,Virgin Islands Port Autority,"Henry E. Rohlsen Airport Terminal
P. O. Box 1134
St. Croix 00821
Virgin Islands (U.S.)",340 778-3131,340 778-1176,,info@viport.com,www.viport.com,"17° 41' 54"" N","64° 45' 15"" W",VIPAX,Seaport,Medium,
YEM,Aden,Port of Aden,Yemen Ports Authority,"PO Box 1316
Tawahi
Aden
Yemen",+9672  202666,+9672 205805,,,www.portofaden.com,"12° 47' 44"" N","44° 59' 36"" E",YEADE,Deepwater Seaport,Medium,
YEM,Hodeidah,Port of Hodeidah,Port and Marine Affairs Corporation (PMAC),"PO Box 3183
Hodeidah
Yemen",967 3 75057,967 3 217049,,pmac@y.net.ye,,"14° 50' 1"" N","42° 56' 11"" E",YEHOD,Seaport,Medium,
